{
  "type": "FeatureCollection",
  "features": [
    {
      "type": "Feature",
      "properties": {},
      "geometry": {
        "type": "LineString",
        "coordinates": [
          [
            8.544748,
            47.387166,
            471.0
          ],
          [
            8.544721,
            47.387196,
            471.0
          ],
          [
            8.544649,
            47.387281,
            471.0
          ],
          [
            8.544631,
            47.387312,
            471.0
          ],
          [
            8.544622,
            47.387342,
            471.0
          ],
          [
            8.544668,
            47.387409,
            471.0
          ],
          [
            8.544613,
            47.387428,
            476.0
          ],
          [
            8.544559,
            47.38744,
            474.0
          ],
          [
            8.544479,
            47.387464,
            475.0
          ],
          [
            8.544461,
            47.387476,
            475.0
          ],
          [
            8.544344,
            47.387513,
            474.0
          ],
          [
            8.544281,
            47.387537,
            474.0
          ],
          [
            8.544192,
            47.38758,
            474.0
          ],
          [
            8.544075,
            47.387653,
            474.0
          ],
          [
            8.544029,
            47.387689,
            474.0
          ],
          [
            8.543993,
            47.387707,
            473.0
          ],
          [
            8.543859,
            47.387635,
            472.0
          ],
          [
            8.543337,
            47.387367,
            469.0
          ],
          [
            8.54331,
            47.387342,
            469.0
          ],
          [
            8.54331,
            47.387318,
            469.0
          ],
          [
            8.54332,
            47.387306,
            469.0
          ],
          [
            8.543284,
            47.387288,
            469.0
          ],
          [
            8.543221,
            47.387269,
            460.0
          ],
          [
            8.543203,
            47.387275,
            460.0
          ],
          [
            8.543176,
            47.387275,
            460.0
          ],
          [
            8.542708,
            47.387033,
            460.0
          ],
          [
            8.542681,
            47.387014,
            460.0
          ],
          [
            8.542681,
            47.386996,
            460.0
          ],
          [
            8.542691,
            47.386984,
            460.0
          ],
          [
            8.542628,
            47.386959,
            460.0
          ],
          [
            8.542574,
            47.386941,
            460.0
          ],
          [
            8.542557,
            47.386953,
            460.0
          ],
          [
            8.542529,
            47.386953,
            460.0
          ],
          [
            8.542511,
            47.386953,
            460.0
          ],
          [
            8.542053,
            47.386807,
            457.0
          ],
          [
            8.542035,
            47.386831,
            457.0
          ],
          [
            8.541766,
            47.386746,
            454.0
          ],
          [
            8.541766,
            47.386746,
            454.0
          ],
          [
            8.541613,
            47.386698,
            451.0
          ],
          [
            8.541559,
            47.386686,
            451.0
          ],
          [
            8.541505,
            47.386661,
            451.0
          ],
          [
            8.541479,
            47.386698,
            450.0
          ],
          [
            8.541362,
            47.386874,
            450.0
          ],
          [
            8.541029,
            47.387373,
            450.0
          ],
          [
            8.540913,
            47.387556,
            451.0
          ],
          [
            8.540859,
            47.387677,
            452.0
          ],
          [
            8.540831,
            47.387683,
            452.0
          ],
          [
            8.54076,
            47.387732,
            451.0
          ],
          [
            8.540679,
            47.387762,
            451.0
          ],
          [
            8.540616,
            47.387774,
            451.0
          ],
          [
            8.540597,
            47.387774,
            451.0
          ],
          [
            8.540597,
            47.38775,
            450.0
          ],
          [
            8.540526,
            47.387744,
            451.0
          ],
          [
            8.540481,
            47.387744,
            450.0
          ],
          [
            8.540454,
            47.387762,
            450.0
          ],
          [
            8.5404,
            47.387792,
            450.0
          ],
          [
            8.540328,
            47.387811,
            450.0
          ],
          [
            8.540023,
            47.387811,
            449.0
          ],
          [
            8.539699,
            47.387811,
            449.0
          ],
          [
            8.539645,
            47.387804,
            449.0
          ],
          [
            8.539609,
            47.387792,
            448.0
          ],
          [
            8.539592,
            47.387847,
            442.0
          ],
          [
            8.539565,
            47.387877,
            445.0
          ],
          [
            8.539547,
            47.387914,
            445.0
          ],
          [
            8.539529,
            47.387908,
            444.0
          ],
          [
            8.539492,
            47.387896,
            442.0
          ],
          [
            8.539475,
            47.38789,
            443.0
          ],
          [
            8.539457,
            47.387884,
            443.0
          ],
          [
            8.539439,
            47.387884,
            443.0
          ],
          [
            8.539394,
            47.387865,
            442.0
          ],
          [
            8.539341,
            47.387853,
            442.0
          ],
          [
            8.539322,
            47.387847,
            441.0
          ],
          [
            8.539278,
            47.387926,
            441.0
          ],
          [
            8.539251,
            47.387975,
            442.0
          ],
          [
            8.539223,
            47.388012,
            443.0
          ],
          [
            8.53872,
            47.387841,
            440.0
          ],
          [
            8.538747,
            47.387798,
            441.0
          ],
          [
            8.538666,
            47.387774,
            440.0
          ],
          [
            8.538666,
            47.387774,
            440.0
          ],
          [
            8.538559,
            47.387738,
            439.0
          ],
          [
            8.538487,
            47.387707,
            439.0
          ],
          [
            8.538415,
            47.387677,
            438.0
          ],
          [
            8.538389,
            47.387707,
            439.0
          ],
          [
            8.53837,
            47.387695,
            439.0
          ],
          [
            8.538146,
            47.387616,
            439.0
          ],
          [
            8.538064,
            47.387592,
            439.0
          ],
          [
            8.53801,
            47.387574,
            439.0
          ],
          [
            8.537777,
            47.387495,
            439.0
          ],
          [
            8.537733,
            47.387495,
            439.0
          ],
          [
            8.537678,
            47.387476,
            434.0
          ],
          [
            8.537624,
            47.387458,
            431.0
          ],
          [
            8.537607,
            47.387434,
            431.0
          ],
          [
            8.537247,
            47.387306,
            431.0
          ],
          [
            8.537167,
            47.387281,
            431.0
          ],
          [
            8.537121,
            47.387288,
            431.0
          ],
          [
            8.537077,
            47.387275,
            430.0
          ],
          [
            8.536987,
            47.387251,
            430.0
          ],
          [
            8.536691,
            47.38719,
            424.0
          ],
          [
            8.536483,
            47.387142,
            424.0
          ],
          [
            8.536016,
            47.387045,
            426.0
          ],
          [
            8.53581,
            47.386996,
            427.0
          ],
          [
            8.535657,
            47.386966,
            427.0
          ],
          [
            8.535603,
            47.386953,
            423.0
          ],
          [
            8.53537,
            47.386892,
            419.0
          ],
          [
            8.535307,
            47.386898,
            419.0
          ],
          [
            8.535181,
            47.386923,
            419.0
          ],
          [
            8.535083,
            47.38688,
            418.0
          ],
          [
            8.53501,
            47.386837,
            416.0
          ],
          [
            8.534957,
            47.386807,
            415.0
          ],
          [
            8.534777,
            47.386692,
            411.0
          ],
          [
            8.53466,
            47.386716,
            411.0
          ],
          [
            8.534454,
            47.386558,
            411.0
          ],
          [
            8.532693,
            47.385268,
            410.0
          ],
          [
            8.532405,
            47.385056,
            410.0
          ],
          [
            8.532297,
            47.384959,
            411.0
          ],
          [
            8.532091,
            47.3848,
            411.0
          ],
          [
            8.532028,
            47.384739,
            411.0
          ],
          [
            8.53201,
            47.384739,
            411.0
          ],
          [
            8.531957,
            47.384751,
            412.0
          ],
          [
            8.53192,
            47.384763,
            412.0
          ],
          [
            8.531875,
            47.384776,
            412.0
          ],
          [
            8.531867,
            47.3848,
            412.0
          ],
          [
            8.531839,
            47.384837,
            412.0
          ],
          [
            8.531812,
            47.384873,
            417.0
          ],
          [
            8.531804,
            47.384892,
            419.0
          ],
          [
            8.531731,
            47.384904,
            419.0
          ],
          [
            8.531345,
            47.384971,
            419.0
          ],
          [
            8.531345,
            47.384959,
            417.0
          ],
          [
            8.531328,
            47.38494,
            413.0
          ],
          [
            8.531318,
            47.384928,
            413.0
          ],
          [
            8.531318,
            47.384916,
            413.0
          ],
          [
            8.531301,
            47.38491,
            413.0
          ],
          [
            8.531273,
            47.384892,
            413.0
          ],
          [
            8.531246,
            47.384873,
            413.0
          ],
          [
            8.531228,
            47.384861,
            413.0
          ],
          [
            8.531202,
            47.384849,
            412.0
          ],
          [
            8.531183,
            47.384873,
            413.0
          ],
          [
            8.531183,
            47.384873,
            413.0
          ],
          [
            8.531202,
            47.384849,
            412.0
          ],
          [
            8.531183,
            47.384837,
            412.0
          ],
          [
            8.531165,
            47.384824,
            411.0
          ],
          [
            8.531066,
            47.384904,
            413.0
          ],
          [
            8.530456,
            47.385354,
            413.0
          ],
          [
            8.530376,
            47.385415,
            413.0
          ],
          [
            8.530321,
            47.385463,
            408.0
          ],
          [
            8.530294,
            47.385488,
            408.0
          ],
          [
            8.529934,
            47.385749,
            412.0
          ],
          [
            8.529881,
            47.385785,
            405.0
          ],
          [
            8.529844,
            47.385809,
            411.0
          ],
          [
            8.529189,
            47.385409,
            414.0
          ],
          [
            8.529171,
            47.38539,
            411.0
          ],
          [
            8.529154,
            47.385402,
            409.0
          ],
          [
            8.529099,
            47.385366,
            413.0
          ],
          [
            8.529055,
            47.385335,
            408.0
          ],
          [
            8.528829,
            47.385512,
            411.0
          ],
          [
            8.528829,
            47.385512,
            411.0
          ],
          [
            8.528651,
            47.385652,
            413.0
          ],
          [
            8.528632,
            47.385658,
            413.0
          ],
          [
            8.528615,
            47.385658,
            411.0
          ],
          [
            8.528588,
            47.385658,
            408.0
          ],
          [
            8.528533,
            47.385688,
            412.0
          ],
          [
            8.528506,
            47.385706,
            411.0
          ],
          [
            8.528479,
            47.385712,
            410.0
          ],
          [
            8.528489,
            47.385737,
            410.0
          ],
          [
            8.528489,
            47.385755,
            410.0
          ],
          [
            8.528471,
            47.385773,
            410.0
          ],
          [
            8.528462,
            47.385791,
            410.0
          ],
          [
            8.527869,
            47.386241,
            410.0
          ],
          [
            8.52786,
            47.386266,
            410.0
          ],
          [
            8.52785,
            47.386278,
            410.0
          ],
          [
            8.527833,
            47.386278,
            410.0
          ],
          [
            8.527815,
            47.386278,
            410.0
          ],
          [
            8.527797,
            47.386284,
            410.0
          ],
          [
            8.52776,
            47.386296,
            411.0
          ],
          [
            8.527725,
            47.386314,
            410.0
          ],
          [
            8.527707,
            47.38632,
            409.0
          ],
          [
            8.527707,
            47.386333,
            409.0
          ],
          [
            8.527671,
            47.386351,
            409.0
          ],
          [
            8.527078,
            47.386637,
            407.0
          ],
          [
            8.52706,
            47.386643,
            407.0
          ],
          [
            8.527051,
            47.386643,
            407.0
          ],
          [
            8.527043,
            47.386661,
            407.0
          ],
          [
            8.527033,
            47.386686,
            408.0
          ],
          [
            8.526997,
            47.386698,
            408.0
          ],
          [
            8.52697,
            47.386704,
            408.0
          ],
          [
            8.526953,
            47.386698,
            408.0
          ],
          [
            8.526944,
            47.386686,
            408.0
          ],
          [
            8.526934,
            47.386686,
            408.0
          ],
          [
            8.526898,
            47.386692,
            407.0
          ],
          [
            8.526854,
            47.386698,
            410.0
          ],
          [
            8.526827,
            47.386704,
            410.0
          ],
          [
            8.526827,
            47.386746,
            410.0
          ],
          [
            8.526818,
            47.386758,
            410.0
          ],
          [
            8.526791,
            47.386771,
            410.0
          ],
          [
            8.526468,
            47.386929,
            410.0
          ],
          [
            8.526512,
            47.386972,
            410.0
          ],
          [
            8.526477,
            47.38699,
            410.0
          ],
          [
            8.526341,
            47.387057,
            410.0
          ],
          [
            8.526341,
            47.387057,
            410.0
          ],
          [
            8.526018,
            47.387209,
            410.0
          ],
          [
            8.525991,
            47.387221,
            410.0
          ],
          [
            8.525928,
            47.387251,
            410.0
          ],
          [
            8.525928,
            47.387251,
            410.0
          ],
          [
            8.525865,
            47.387288,
            410.0
          ],
          [
            8.525821,
            47.38719,
            410.0
          ],
          [
            8.525703,
            47.387233,
            412.0
          ],
          [
            8.525712,
            47.387196,
            412.0
          ],
          [
            8.525712,
            47.387142,
            412.0
          ],
          [
            8.52538,
            47.386698,
            412.0
          ],
          [
            8.525273,
            47.386552,
            412.0
          ],
          [
            8.525066,
            47.386272,
            412.0
          ],
          [
            8.524886,
            47.386047,
            412.0
          ],
          [
            8.524877,
            47.386041,
            412.0
          ],
          [
            8.524869,
            47.386041,
            412.0
          ],
          [
            8.52485,
            47.386035,
            412.0
          ],
          [
            8.524833,
            47.386041,
            412.0
          ],
          [
            8.523548,
            47.386637,
            412.0
          ],
          [
            8.523997,
            47.386771,
            410.0
          ],
          [
            8.523997,
            47.386771,
            410.0
          ],
          [
            8.523548,
            47.386637,
            412.0
          ],
          [
            8.523485,
            47.386661,
            412.0
          ],
          [
            8.523323,
            47.38674,
            412.0
          ],
          [
            8.523278,
            47.386758,
            412.0
          ],
          [
            8.523252,
            47.386777,
            412.0
          ],
          [
            8.523135,
            47.386831,
            412.0
          ],
          [
            8.522955,
            47.386923,
            412.0
          ],
          [
            8.52264,
            47.387069,
            412.0
          ],
          [
            8.522227,
            47.387257,
            412.0
          ],
          [
            8.5222,
            47.387269,
            412.0
          ],
          [
            8.522101,
            47.387318,
            412.0
          ],
          [
            8.522039,
            47.387257,
            412.0
          ],
          [
            8.52176,
            47.387379,
            406.0
          ],
          [
            8.521294,
            47.387598,
            405.0
          ],
          [
            8.521177,
            47.387653,
            405.0
          ],
          [
            8.521177,
            47.387653,
            405.0
          ],
          [
            8.520736,
            47.387853,
            406.0
          ],
          [
            8.520225,
            47.388097,
            406.0
          ],
          [
            8.520278,
            47.388151,
            412.0
          ],
          [
            8.520252,
            47.38817,
            410.0
          ],
          [
            8.520233,
            47.388176,
            409.0
          ],
          [
            8.520197,
            47.388194,
            406.0
          ],
          [
            8.520099,
            47.388236,
            406.0
          ],
          [
            8.520089,
            47.388243,
            406.0
          ],
          [
            8.520062,
            47.388249,
            406.0
          ],
          [
            8.519973,
            47.388291,
            406.0
          ],
          [
            8.519919,
            47.388315,
            406.0
          ],
          [
            8.519892,
            47.388334,
            406.0
          ],
          [
            8.519873,
            47.388315,
            406.0
          ],
          [
            8.519334,
            47.388498,
            406.0
          ],
          [
            8.519271,
            47.388517,
            406.0
          ],
          [
            8.519164,
            47.388547,
            406.0
          ],
          [
            8.518086,
            47.388911,
            406.0
          ],
          [
            8.517556,
            47.389088,
            406.0
          ],
          [
            8.517512,
            47.389027,
            406.0
          ],
          [
            8.517592,
            47.389003,
            406.0
          ],
          [
            8.517547,
            47.388942,
            406.0
          ],
          [
            8.517305,
            47.388705,
            406.0
          ],
          [
            8.517053,
            47.388425,
            406.0
          ],
          [
            8.516523,
            47.388693,
            402.0
          ],
          [
            8.516164,
            47.38885,
            400.0
          ],
          [
            8.515948,
            47.38893,
            400.0
          ],
          [
            8.515894,
            47.388942,
            405.0
          ],
          [
            8.515841,
            47.388966,
            405.0
          ],
          [
            8.515894,
            47.389021,
            406.0
          ],
          [
            8.515894,
            47.389021,
            406.0
          ],
          [
            8.515841,
            47.388966,
            405.0
          ],
          [
            8.515822,
            47.388966,
            405.0
          ],
          [
            8.515661,
            47.389027,
            405.0
          ],
          [
            8.515634,
            47.388972,
            405.0
          ],
          [
            8.515615,
            47.388948,
            405.0
          ],
          [
            8.515579,
            47.388899,
            405.0
          ],
          [
            8.515552,
            47.388875,
            405.0
          ],
          [
            8.515544,
            47.38885,
            405.0
          ],
          [
            8.515525,
            47.388832,
            405.0
          ],
          [
            8.515489,
            47.388778,
            405.0
          ],
          [
            8.515454,
            47.388735,
            400.0
          ],
          [
            8.515436,
            47.388705,
            400.0
          ],
          [
            8.514682,
            47.38896,
            400.0
          ],
          [
            8.514537,
            47.389003,
            405.0
          ],
          [
            8.514143,
            47.389131,
            405.0
          ],
          [
            8.513927,
            47.389179,
            405.0
          ],
          [
            8.513118,
            47.389325,
            405.0
          ],
          [
            8.513074,
            47.389337,
            405.0
          ],
          [
            8.513028,
            47.389343,
            405.0
          ],
          [
            8.513002,
            47.389349,
            405.0
          ],
          [
            8.512948,
            47.389367,
            405.0
          ],
          [
            8.512902,
            47.389373,
            405.0
          ],
          [
            8.512741,
            47.389404,
            405.0
          ],
          [
            8.512462,
            47.389453,
            405.0
          ],
          [
            8.512246,
            47.389489,
            405.0
          ],
          [
            8.512202,
            47.389502,
            405.0
          ],
          [
            8.512166,
            47.389502,
            405.0
          ],
          [
            8.512149,
            47.389502,
            405.0
          ],
          [
            8.51213,
            47.389502,
            405.0
          ],
          [
            8.512112,
            47.389502,
            405.0
          ],
          [
            8.512086,
            47.389502,
            405.0
          ],
          [
            8.512067,
            47.389496,
            405.0
          ],
          [
            8.512022,
            47.389483,
            405.0
          ],
          [
            8.511879,
            47.389435,
            405.0
          ],
          [
            8.51169,
            47.389373,
            405.0
          ],
          [
            8.511609,
            47.389355,
            405.0
          ],
          [
            8.511546,
            47.389337,
            405.0
          ],
          [
            8.511501,
            47.389331,
            405.0
          ],
          [
            8.511447,
            47.389325,
            405.0
          ],
          [
            8.511394,
            47.389319,
            405.0
          ],
          [
            8.511294,
            47.389319,
            405.0
          ],
          [
            8.511241,
            47.389319,
            404.0
          ],
          [
            8.51116,
            47.389313,
            404.0
          ],
          [
            8.511034,
            47.389295,
            404.0
          ],
          [
            8.510854,
            47.38927,
            404.0
          ],
          [
            8.510747,
            47.389252,
            404.0
          ],
          [
            8.510487,
            47.389258,
            404.0
          ],
          [
            8.510405,
            47.389234,
            404.0
          ],
          [
            8.510325,
            47.38921,
            404.0
          ],
          [
            8.510252,
            47.389173,
            404.0
          ],
          [
            8.510172,
            47.389137,
            404.0
          ],
          [
            8.510118,
            47.389106,
            404.0
          ],
          [
            8.510064,
            47.38907,
            404.0
          ],
          [
            8.509948,
            47.388985,
            404.0
          ],
          [
            8.509858,
            47.388893,
            404.0
          ],
          [
            8.509776,
            47.388796,
            404.0
          ],
          [
            8.509713,
            47.388699,
            404.0
          ],
          [
            8.509651,
            47.388571,
            404.0
          ],
          [
            8.509596,
            47.388419,
            404.0
          ],
          [
            8.509516,
            47.388182,
            404.0
          ],
          [
            8.509229,
            47.387269,
            403.0
          ],
          [
            8.509229,
            47.387269,
            403.0
          ],
          [
            8.509202,
            47.387178,
            403.0
          ],
          [
            8.508969,
            47.386442,
            403.0
          ],
          [
            8.508671,
            47.385518,
            404.0
          ],
          [
            8.508609,
            47.385615,
            402.0
          ],
          [
            8.508564,
            47.385536,
            403.0
          ],
          [
            8.50842,
            47.385305,
            403.0
          ],
          [
            8.508375,
            47.385256,
            403.0
          ],
          [
            8.508231,
            47.385238,
            403.0
          ],
          [
            8.50816,
            47.385262,
            402.0
          ],
          [
            8.508133,
            47.385268,
            401.0
          ],
          [
            8.507837,
            47.385354,
            401.0
          ],
          [
            8.507818,
            47.38536,
            401.0
          ],
          [
            8.507486,
            47.385415,
            401.0
          ],
          [
            8.506893,
            47.385585,
            401.0
          ],
          [
            8.503426,
            47.386619,
            403.0
          ],
          [
            8.502329,
            47.386941,
            403.0
          ],
          [
            8.502285,
            47.38688,
            402.0
          ],
          [
            8.502239,
            47.386825,
            402.0
          ],
          [
            8.501701,
            47.38699,
            400.0
          ],
          [
            8.501342,
            47.387093,
            402.0
          ],
          [
            8.500757,
            47.387269,
            401.0
          ],
          [
            8.500793,
            47.387324,
            402.0
          ],
          [
            8.500541,
            47.387397,
            401.0
          ],
          [
            8.500541,
            47.387397,
            401.0
          ],
          [
            8.500425,
            47.387434,
            401.0
          ],
          [
            8.500354,
            47.387452,
            401.0
          ],
          [
            8.499967,
            47.387568,
            401.0
          ],
          [
            8.499769,
            47.387622,
            401.0
          ],
          [
            8.499734,
            47.387574,
            400.0
          ],
          [
            8.499652,
            47.38758,
            400.0
          ],
          [
            8.499599,
            47.387574,
            400.0
          ],
          [
            8.499581,
            47.387562,
            400.0
          ],
          [
            8.499356,
            47.387203,
            400.0
          ],
          [
            8.499312,
            47.387136,
            401.0
          ],
          [
            8.499275,
            47.387081,
            401.0
          ],
          [
            8.499222,
            47.38699,
            401.0
          ],
          [
            8.499185,
            47.386959,
            401.0
          ],
          [
            8.499132,
            47.386929,
            400.0
          ],
          [
            8.499069,
            47.386911,
            400.0
          ],
          [
            8.498996,
            47.386905,
            400.0
          ],
          [
            8.498943,
            47.386917,
            400.0
          ],
          [
            8.498872,
            47.386935,
            400.0
          ],
          [
            8.498826,
            47.386917,
            400.0
          ],
          [
            8.498629,
            47.386978,
            400.0
          ],
          [
            8.49861,
            47.386978,
            400.0
          ],
          [
            8.498602,
            47.386959,
            400.0
          ],
          [
            8.498566,
            47.386966,
            400.0
          ],
          [
            8.498547,
            47.386984,
            400.0
          ],
          [
            8.498539,
            47.38699,
            400.0
          ],
          [
            8.498547,
            47.386996,
            400.0
          ],
          [
            8.498547,
            47.387002,
            400.0
          ],
          [
            8.498566,
            47.387008,
            400.0
          ],
          [
            8.498575,
            47.387008,
            400.0
          ],
          [
            8.498583,
            47.387008,
            400.0
          ],
          [
            8.498593,
            47.387002,
            400.0
          ],
          [
            8.498593,
            47.386996,
            401.0
          ],
          [
            8.498602,
            47.38699,
            401.0
          ],
          [
            8.498593,
            47.386978,
            401.0
          ],
          [
            8.498583,
            47.386972,
            401.0
          ],
          [
            8.498575,
            47.386972,
            401.0
          ],
          [
            8.498503,
            47.386984,
            401.0
          ],
          [
            8.49826,
            47.386588,
            401.0
          ],
          [
            8.498216,
            47.386528,
            401.0
          ],
          [
            8.49818,
            47.386467,
            401.0
          ],
          [
            8.497954,
            47.386108,
            401.0
          ],
          [
            8.49791,
            47.386041,
            402.0
          ],
          [
            8.497864,
            47.38598,
            402.0
          ],
          [
            8.497838,
            47.385987,
            404.0
          ],
          [
            8.49747,
            47.38609,
            404.0
          ],
          [
            8.497415,
            47.386017,
            404.0
          ],
          [
            8.497308,
            47.386029,
            404.0
          ],
          [
            8.497227,
            47.385956,
            404.0
          ],
          [
            8.497138,
            47.385877,
            404.0
          ],
          [
            8.497021,
            47.385828,
            404.0
          ],
          [
            8.496912,
            47.385809,
            404.0
          ],
          [
            8.496725,
            47.385864,
            404.0
          ],
          [
            8.496652,
            47.385883,
            404.0
          ],
          [
            8.496526,
            47.385919,
            404.0
          ],
          [
            8.496401,
            47.38595,
            404.0
          ],
          [
            8.496383,
            47.385956,
            404.0
          ],
          [
            8.496302,
            47.385846,
            404.0
          ],
          [
            8.49623,
            47.385749,
            404.0
          ],
          [
            8.496159,
            47.385773,
            404.0
          ],
          [
            8.495906,
            47.385457,
            404.0
          ],
          [
            8.495627,
            47.385135,
            404.0
          ],
          [
            8.495601,
            47.385092,
            404.0
          ],
          [
            8.495619,
            47.385074,
            404.0
          ],
          [
            8.495664,
            47.38505,
            404.0
          ],
          [
            8.495627,
            47.385001,
            404.0
          ],
          [
            8.495601,
            47.384965,
            404.0
          ],
          [
            8.495583,
            47.384946,
            404.0
          ],
          [
            8.495583,
            47.384934,
            404.0
          ],
          [
            8.495574,
            47.384922,
            404.0
          ],
          [
            8.495556,
            47.384904,
            404.0
          ],
          [
            8.495539,
            47.384879,
            404.0
          ],
          [
            8.49552,
            47.384855,
            404.0
          ],
          [
            8.495511,
            47.384843,
            405.0
          ],
          [
            8.495421,
            47.384861,
            405.0
          ],
          [
            8.495377,
            47.384843,
            405.0
          ],
          [
            8.495331,
            47.3848,
            405.0
          ],
          [
            8.49517,
            47.384642,
            405.0
          ],
          [
            8.495107,
            47.384587,
            405.0
          ],
          [
            8.494973,
            47.384448,
            405.0
          ],
          [
            8.494954,
            47.384429,
            405.0
          ],
          [
            8.494748,
            47.38421,
            405.0
          ],
          [
            8.494694,
            47.384155,
            405.0
          ],
          [
            8.494595,
            47.38404,
            406.0
          ],
          [
            8.493975,
            47.383444,
            406.0
          ],
          [
            8.493931,
            47.383395,
            406.0
          ],
          [
            8.493356,
            47.382811,
            407.0
          ],
          [
            8.493329,
            47.382824,
            407.0
          ],
          [
            8.493302,
            47.38283,
            407.0
          ],
          [
            8.493157,
            47.382677,
            407.0
          ],
          [
            8.492673,
            47.382184,
            409.0
          ],
          [
            8.492627,
            47.382142,
            409.0
          ],
          [
            8.492556,
            47.382172,
            408.0
          ],
          [
            8.492493,
            47.382197,
            408.0
          ],
          [
            8.492385,
            47.382093,
            408.0
          ],
          [
            8.49234,
            47.382039,
            408.0
          ],
          [
            8.492125,
            47.381814,
            408.0
          ],
          [
            8.491864,
            47.381528,
            409.0
          ],
          [
            8.491694,
            47.381346,
            409.0
          ],
          [
            8.491658,
            47.381327,
            409.0
          ],
          [
            8.491622,
            47.381309,
            409.0
          ],
          [
            8.491541,
            47.381291,
            409.0
          ],
          [
            8.491469,
            47.381315,
            409.0
          ],
          [
            8.491433,
            47.38134,
            409.0
          ],
          [
            8.490499,
            47.381686,
            410.0
          ],
          [
            8.490211,
            47.381784,
            410.0
          ],
          [
            8.490103,
            47.381814,
            410.0
          ],
          [
            8.489941,
            47.381863,
            410.0
          ],
          [
            8.489834,
            47.381881,
            410.0
          ],
          [
            8.489753,
            47.381917,
            410.0
          ],
          [
            8.489555,
            47.381966,
            410.0
          ],
          [
            8.489224,
            47.382063,
            410.0
          ],
          [
            8.488738,
            47.382184,
            410.0
          ],
          [
            8.488316,
            47.382294,
            410.0
          ],
          [
            8.48828,
            47.382325,
            410.0
          ],
          [
            8.488253,
            47.382355,
            410.0
          ],
          [
            8.488253,
            47.38238,
            410.0
          ],
          [
            8.488145,
            47.38241,
            410.0
          ],
          [
            8.488002,
            47.38244,
            408.0
          ],
          [
            8.487975,
            47.382428,
            408.0
          ],
          [
            8.487956,
            47.382422,
            408.0
          ],
          [
            8.48792,
            47.38241,
            408.0
          ],
          [
            8.487867,
            47.38241,
            408.0
          ],
          [
            8.487516,
            47.382501,
            408.0
          ],
          [
            8.487022,
            47.382629,
            410.0
          ],
          [
            8.486995,
            47.382635,
            406.0
          ],
          [
            8.48678,
            47.382689,
            406.0
          ],
          [
            8.486591,
            47.382738,
            407.0
          ],
          [
            8.486367,
            47.382793,
            408.0
          ],
          [
            8.486304,
            47.382817,
            408.0
          ],
          [
            8.486295,
            47.382836,
            408.0
          ],
          [
            8.486304,
            47.382854,
            408.0
          ],
          [
            8.486232,
            47.382872,
            410.0
          ],
          [
            8.486151,
            47.382897,
            409.0
          ],
          [
            8.486115,
            47.382872,
            409.0
          ],
          [
            8.486061,
            47.382872,
            409.0
          ],
          [
            8.485486,
            47.38303,
            409.0
          ],
          [
            8.484651,
            47.38328,
            410.0
          ],
          [
            8.484364,
            47.383365,
            409.0
          ],
          [
            8.484301,
            47.383377,
            409.0
          ],
          [
            8.484264,
            47.38331,
            410.0
          ],
          [
            8.484148,
            47.383341,
            410.0
          ],
          [
            8.484148,
            47.383341,
            410.0
          ],
          [
            8.484264,
            47.38331,
            410.0
          ],
          [
            8.484201,
            47.383212,
            412.0
          ],
          [
            8.484174,
            47.3832,
            412.0
          ],
          [
            8.484138,
            47.383188,
            412.0
          ],
          [
            8.484121,
            47.383158,
            412.0
          ],
          [
            8.484058,
            47.382963,
            412.0
          ],
          [
            8.483995,
            47.382769,
            412.0
          ],
          [
            8.483905,
            47.382531,
            412.0
          ],
          [
            8.483905,
            47.382483,
            412.0
          ],
          [
            8.483941,
            47.382452,
            412.0
          ],
          [
            8.483914,
            47.38238,
            413.0
          ],
          [
            8.483905,
            47.382337,
            414.0
          ],
          [
            8.483878,
            47.382337,
            414.0
          ],
          [
            8.483861,
            47.382331,
            414.0
          ],
          [
            8.483834,
            47.382319,
            414.0
          ],
          [
            8.483815,
            47.382294,
            414.0
          ],
          [
            8.483761,
            47.382124,
            415.0
          ],
          [
            8.483744,
            47.382069,
            415.0
          ],
          [
            8.483725,
            47.382008,
            415.0
          ],
          [
            8.483717,
            47.381948,
            415.0
          ],
          [
            8.483708,
            47.38185,
            415.0
          ],
          [
            8.483662,
            47.381516,
            416.0
          ],
          [
            8.483654,
            47.381437,
            417.0
          ],
          [
            8.483635,
            47.381297,
            417.0
          ],
          [
            8.483582,
            47.380883,
            417.0
          ],
          [
            8.483572,
            47.380835,
            417.0
          ],
          [
            8.483528,
            47.380445,
            417.0
          ],
          [
            8.483509,
            47.380336,
            417.0
          ],
          [
            8.483492,
            47.380208,
            418.0
          ],
          [
            8.483482,
            47.380129,
            419.0
          ],
          [
            8.483456,
            47.379934,
            419.0
          ],
          [
            8.483456,
            47.379904,
            420.0
          ],
          [
            8.483402,
            47.379466,
            422.0
          ],
          [
            8.483393,
            47.379417,
            422.0
          ],
          [
            8.483358,
            47.379095,
            422.0
          ],
          [
            8.483295,
            47.37859,
            422.0
          ],
          [
            8.483276,
            47.378413,
            422.0
          ],
          [
            8.483268,
            47.378346,
            422.0
          ],
          [
            8.483276,
            47.378207,
            422.0
          ],
          [
            8.483276,
            47.37814,
            424.0
          ],
          [
            8.483285,
            47.378067,
            424.0
          ],
          [
            8.483303,
            47.377969,
            424.0
          ],
          [
            8.483348,
            47.37786,
            423.0
          ],
          [
            8.483448,
            47.377519,
            423.0
          ],
          [
            8.483474,
            47.377416,
            423.0
          ],
          [
            8.483519,
            47.377282,
            423.0
          ],
          [
            8.483545,
            47.377185,
            423.0
          ],
          [
            8.483564,
            47.377136,
            423.0
          ],
          [
            8.483609,
            47.377021,
            423.0
          ],
          [
            8.483635,
            47.37699,
            423.0
          ],
          [
            8.483662,
            47.376966,
            423.0
          ],
          [
            8.483689,
            47.376911,
            427.0
          ],
          [
            8.483599,
            47.376899,
            427.0
          ],
          [
            8.483591,
            47.376923,
            427.0
          ],
          [
            8.483591,
            47.376923,
            427.0
          ],
          [
            8.483599,
            47.376899,
            427.0
          ],
          [
            8.483645,
            47.376819,
            428.0
          ],
          [
            8.483572,
            47.376801,
            428.0
          ],
          [
            8.483815,
            47.376418,
            428.0
          ],
          [
            8.483815,
            47.3764,
            428.0
          ],
          [
            8.483815,
            47.376345,
            428.0
          ],
          [
            8.483824,
            47.376339,
            428.0
          ],
          [
            8.483842,
            47.376308,
            429.0
          ],
          [
            8.483896,
            47.376229,
            429.0
          ],
          [
            8.484103,
            47.375907,
            430.0
          ],
          [
            8.484157,
            47.375871,
            430.0
          ],
          [
            8.484174,
            47.375846,
            430.0
          ],
          [
            8.484354,
            47.375567,
            435.0
          ],
          [
            8.484408,
            47.375457,
            437.0
          ],
          [
            8.484427,
            47.375433,
            437.0
          ],
          [
            8.484408,
            47.375409,
            438.0
          ],
          [
            8.484364,
            47.375354,
            439.0
          ],
          [
            8.484372,
            47.375354,
            437.0
          ],
          [
            8.484408,
            47.375323,
            432.0
          ],
          [
            8.484184,
            47.375195,
            433.0
          ],
          [
            8.484004,
            47.375092,
            434.0
          ],
          [
            8.483941,
            47.375056,
            435.0
          ],
          [
            8.483788,
            47.374964,
            435.0
          ],
          [
            8.483788,
            47.374964,
            435.0
          ],
          [
            8.483474,
            47.37477,
            437.0
          ],
          [
            8.483411,
            47.374733,
            437.0
          ],
          [
            8.483375,
            47.374757,
            440.0
          ],
          [
            8.483322,
            47.374721,
            440.0
          ],
          [
            8.482908,
            47.374478,
            441.0
          ],
          [
            8.482953,
            47.374459,
            440.0
          ],
          [
            8.482962,
            47.374466,
            440.0
          ],
          [
            8.482962,
            47.374466,
            440.0
          ],
          [
            8.482953,
            47.374459,
            440.0
          ],
          [
            8.482908,
            47.374478,
            441.0
          ],
          [
            8.48289,
            47.374466,
            441.0
          ],
          [
            8.482585,
            47.374289,
            441.0
          ],
          [
            8.482513,
            47.374259,
            442.0
          ],
          [
            8.48254,
            47.374234,
            442.0
          ],
          [
            8.482576,
            47.374204,
            442.0
          ],
          [
            8.482297,
            47.374058,
            442.0
          ],
          [
            8.48227,
            47.374039,
            442.0
          ],
          [
            8.482216,
            47.373997,
            443.0
          ],
          [
            8.482046,
            47.373869,
            444.0
          ],
          [
            8.481929,
            47.373827,
            445.0
          ],
          [
            8.481857,
            47.373803,
            445.0
          ],
          [
            8.481758,
            47.373778,
            446.0
          ],
          [
            8.481614,
            47.373736,
            447.0
          ],
          [
            8.481543,
            47.373699,
            447.0
          ],
          [
            8.481551,
            47.373675,
            448.0
          ],
          [
            8.481543,
            47.373662,
            448.0
          ],
          [
            8.481453,
            47.373601,
            449.0
          ],
          [
            8.481372,
            47.373541,
            450.0
          ],
          [
            8.481291,
            47.373449,
            451.0
          ],
          [
            8.481192,
            47.373358,
            452.0
          ],
          [
            8.481138,
            47.373322,
            453.0
          ],
          [
            8.480958,
            47.373255,
            455.0
          ],
          [
            8.480618,
            47.373096,
            458.0
          ],
          [
            8.48033,
            47.372914,
            462.0
          ],
          [
            8.48024,
            47.372841,
            463.0
          ],
          [
            8.480177,
            47.372756,
            464.0
          ],
          [
            8.480142,
            47.372677,
            465.0
          ],
          [
            8.480123,
            47.372397,
            469.0
          ],
          [
            8.480106,
            47.372324,
            470.0
          ],
          [
            8.480069,
            47.372227,
            471.0
          ],
          [
            8.480016,
            47.37216,
            471.0
          ],
          [
            8.479817,
            47.372282,
            472.0
          ],
          [
            8.479593,
            47.372379,
            474.0
          ],
          [
            8.479333,
            47.372427,
            475.0
          ],
          [
            8.479054,
            47.372439,
            476.0
          ],
          [
            8.478587,
            47.372476,
            474.0
          ],
          [
            8.478561,
            47.372482,
            474.0
          ],
          [
            8.478578,
            47.372506,
            474.0
          ],
          [
            8.478506,
            47.372494,
            474.0
          ],
          [
            8.478435,
            47.372488,
            475.0
          ],
          [
            8.478299,
            47.372494,
            476.0
          ],
          [
            8.478209,
            47.372518,
            477.0
          ],
          [
            8.478174,
            47.372531,
            477.0
          ],
          [
            8.478148,
            47.372525,
            477.0
          ],
          [
            8.478129,
            47.372518,
            478.0
          ],
          [
            8.477329,
            47.372385,
            487.0
          ],
          [
            8.47714,
            47.37236,
            489.0
          ],
          [
            8.476979,
            47.37236,
            491.0
          ],
          [
            8.476341,
            47.372458,
            499.0
          ],
          [
            8.475731,
            47.372494,
            506.0
          ],
          [
            8.475731,
            47.372494,
            506.0
          ],
          [
            8.475668,
            47.3725,
            506.0
          ],
          [
            8.474985,
            47.372439,
            515.0
          ],
          [
            8.474779,
            47.372391,
            517.0
          ],
          [
            8.474356,
            47.37216,
            525.0
          ],
          [
            8.474006,
            47.371989,
            532.0
          ],
          [
            8.473565,
            47.371855,
            539.0
          ],
          [
            8.473332,
            47.37174,
            543.0
          ],
          [
            8.473125,
            47.371619,
            546.0
          ],
          [
            8.473035,
            47.371594,
            547.0
          ],
          [
            8.472937,
            47.371667,
            549.0
          ],
          [
            8.472838,
            47.371649,
            550.0
          ],
          [
            8.472703,
            47.371637,
            552.0
          ],
          [
            8.472433,
            47.371631,
            554.0
          ],
          [
            8.472335,
            47.371613,
            555.0
          ],
          [
            8.472236,
            47.3716,
            556.0
          ],
          [
            8.471877,
            47.371527,
            559.0
          ],
          [
            8.471607,
            47.37146,
            561.0
          ],
          [
            8.4715,
            47.37143,
            562.0
          ],
          [
            8.471364,
            47.371387,
            563.0
          ],
          [
            8.471194,
            47.371308,
            565.0
          ],
          [
            8.471087,
            47.371241,
            566.0
          ],
          [
            8.471024,
            47.371199,
            566.0
          ],
          [
            8.47097,
            47.371235,
            567.0
          ],
          [
            8.470853,
            47.371162,
            567.0
          ],
          [
            8.470682,
            47.371059,
            569.0
          ],
          [
            8.470484,
            47.370961,
            570.0
          ],
          [
            8.470377,
            47.370925,
            571.0
          ],
          [
            8.470045,
            47.370827,
            573.0
          ],
          [
            8.46999,
            47.370797,
            574.0
          ],
          [
            8.469955,
            47.370766,
            574.0
          ],
          [
            8.469928,
            47.370736,
            574.0
          ],
          [
            8.469882,
            47.370712,
            574.0
          ],
          [
            8.469748,
            47.370681,
            574.0
          ],
          [
            8.469622,
            47.370639,
            580.0
          ],
          [
            8.469442,
            47.370584,
            580.0
          ],
          [
            8.469299,
            47.370536,
            580.0
          ],
          [
            8.468796,
            47.370328,
            580.0
          ],
          [
            8.468741,
            47.37031,
            580.0
          ],
          [
            8.46814,
            47.370073,
            581.0
          ],
          [
            8.467582,
            47.369854,
            582.0
          ],
          [
            8.467332,
            47.369756,
            583.0
          ],
          [
            8.467161,
            47.369702,
            583.0
          ],
          [
            8.467053,
            47.369665,
            583.0
          ],
          [
            8.467089,
            47.369604,
            583.0
          ],
          [
            8.467196,
            47.369641,
            582.0
          ],
          [
            8.467196,
            47.369641,
            582.0
          ],
          [
            8.467089,
            47.369604,
            583.0
          ],
          [
            8.467053,
            47.369665,
            583.0
          ],
          [
            8.466729,
            47.369574,
            583.0
          ],
          [
            8.466416,
            47.369495,
            583.0
          ],
          [
            8.46585,
            47.369355,
            584.0
          ],
          [
            8.464842,
            47.369099,
            585.0
          ],
          [
            8.464745,
            47.369075,
            585.0
          ],
          [
            8.464628,
            47.369039,
            585.0
          ],
          [
            8.464529,
            47.369008,
            585.0
          ],
          [
            8.464429,
            47.368972,
            585.0
          ],
          [
            8.464349,
            47.368935,
            586.0
          ],
          [
            8.464196,
            47.368863,
            586.0
          ],
          [
            8.464169,
            47.368741,
            587.0
          ],
          [
            8.464116,
            47.36871,
            587.0
          ],
          [
            8.46407,
            47.368686,
            587.0
          ],
          [
            8.46407,
            47.368686,
            587.0
          ],
          [
            8.464116,
            47.36871,
            587.0
          ],
          [
            8.464169,
            47.368741,
            587.0
          ],
          [
            8.464097,
            47.368802,
            586.0
          ],
          [
            8.464034,
            47.368765,
            587.0
          ],
          [
            8.463513,
            47.368424,
            587.0
          ],
          [
            8.463271,
            47.368285,
            587.0
          ],
          [
            8.462992,
            47.36812,
            587.0
          ],
          [
            8.46293,
            47.368102,
            587.0
          ],
          [
            8.462875,
            47.368102,
            587.0
          ],
          [
            8.462804,
            47.36812,
            587.0
          ],
          [
            8.46275,
            47.368059,
            588.0
          ],
          [
            8.462957,
            47.36795,
            589.0
          ],
          [
            8.463055,
            47.368016,
            589.0
          ],
          [
            8.463055,
            47.368016,
            589.0
          ],
          [
            8.462957,
            47.36795,
            589.0
          ],
          [
            8.46275,
            47.368059,
            588.0
          ],
          [
            8.462678,
            47.367974,
            588.0
          ],
          [
            8.462687,
            47.367956,
            588.0
          ],
          [
            8.462695,
            47.367937,
            588.0
          ],
          [
            8.462695,
            47.367913,
            588.0
          ],
          [
            8.462695,
            47.367895,
            588.0
          ],
          [
            8.46266,
            47.367852,
            588.0
          ],
          [
            8.462561,
            47.367749,
            589.0
          ],
          [
            8.462516,
            47.367688,
            589.0
          ],
          [
            8.462471,
            47.367634,
            589.0
          ],
          [
            8.462255,
            47.367287,
            590.0
          ],
          [
            8.461942,
            47.366781,
            590.0
          ],
          [
            8.46186,
            47.366666,
            590.0
          ],
          [
            8.46195,
            47.366636,
            590.0
          ],
          [
            8.462022,
            47.366739,
            590.0
          ],
          [
            8.462068,
            47.366806,
            590.0
          ],
          [
            8.462068,
            47.366806,
            590.0
          ],
          [
            8.462022,
            47.366739,
            590.0
          ],
          [
            8.46195,
            47.366636,
            590.0
          ],
          [
            8.46186,
            47.366666,
            590.0
          ],
          [
            8.461771,
            47.366526,
            590.0
          ],
          [
            8.461681,
            47.366416,
            590.0
          ],
          [
            8.461582,
            47.366282,
            590.0
          ],
          [
            8.461429,
            47.366106,
            590.0
          ],
          [
            8.461322,
            47.365979,
            590.0
          ],
          [
            8.46124,
            47.365881,
            590.0
          ],
          [
            8.461177,
            47.365808,
            590.0
          ],
          [
            8.461133,
            47.365735,
            589.0
          ],
          [
            8.461087,
            47.365662,
            589.0
          ],
          [
            8.461043,
            47.365595,
            589.0
          ],
          [
            8.461016,
            47.36554,
            589.0
          ],
          [
            8.460989,
            47.365467,
            589.0
          ],
          [
            8.460963,
            47.365401,
            589.0
          ],
          [
            8.461026,
            47.365388,
            587.0
          ],
          [
            8.46098,
            47.36526,
            586.0
          ],
          [
            8.460936,
            47.365139,
            586.0
          ],
          [
            8.460936,
            47.365139,
            586.0
          ],
          [
            8.460926,
            47.365114,
            585.0
          ],
          [
            8.460837,
            47.364865,
            584.0
          ],
          [
            8.460747,
            47.364646,
            583.0
          ],
          [
            8.460818,
            47.364609,
            584.0
          ],
          [
            8.460791,
            47.36453,
            583.0
          ],
          [
            8.460747,
            47.364409,
            582.0
          ],
          [
            8.46072,
            47.364336,
            582.0
          ],
          [
            8.460684,
            47.364257,
            582.0
          ],
          [
            8.460639,
            47.364165,
            581.0
          ],
          [
            8.460603,
            47.364098,
            581.0
          ],
          [
            8.460432,
            47.363843,
            579.0
          ],
          [
            8.460271,
            47.363599,
            578.0
          ],
          [
            8.460073,
            47.363301,
            576.0
          ],
          [
            8.459965,
            47.363143,
            576.0
          ],
          [
            8.459875,
            47.363003,
            575.0
          ],
          [
            8.459875,
            47.363003,
            575.0
          ],
          [
            8.459839,
            47.362948,
            575.0
          ],
          [
            8.459831,
            47.362942,
            574.0
          ],
          [
            8.459768,
            47.362845,
            574.0
          ],
          [
            8.459632,
            47.362644,
            573.0
          ],
          [
            8.459399,
            47.362291,
            571.0
          ],
          [
            8.459355,
            47.362218,
            570.0
          ],
          [
            8.459292,
            47.362109,
            570.0
          ],
          [
            8.459238,
            47.362017,
            569.0
          ],
          [
            8.458976,
            47.361616,
            568.0
          ],
          [
            8.458842,
            47.361415,
            567.0
          ],
          [
            8.458833,
            47.361403,
            567.0
          ],
          [
            8.458833,
            47.361391,
            567.0
          ],
          [
            8.458842,
            47.361373,
            567.0
          ],
          [
            8.458852,
            47.361354,
            567.0
          ],
          [
            8.45886,
            47.361342,
            566.0
          ],
          [
            8.458869,
            47.36133,
            566.0
          ],
          [
            8.458905,
            47.361306,
            566.0
          ],
          [
            8.458905,
            47.361299,
            566.0
          ],
          [
            8.458869,
            47.361257,
            566.0
          ],
          [
            8.45886,
            47.361244,
            566.0
          ],
          [
            8.458852,
            47.361232,
            566.0
          ],
          [
            8.458806,
            47.361183,
            566.0
          ],
          [
            8.458806,
            47.361177,
            566.0
          ],
          [
            8.458779,
            47.361177,
            566.0
          ],
          [
            8.458752,
            47.361177,
            566.0
          ],
          [
            8.458726,
            47.361171,
            566.0
          ],
          [
            8.458707,
            47.361171,
            567.0
          ],
          [
            8.458689,
            47.361159,
            567.0
          ],
          [
            8.458672,
            47.361153,
            567.0
          ],
          [
            8.458663,
            47.361141,
            567.0
          ],
          [
            8.458653,
            47.361129,
            567.0
          ],
          [
            8.4586,
            47.361044,
            567.0
          ],
          [
            8.458537,
            47.360965,
            567.0
          ],
          [
            8.45842,
            47.360801,
            567.0
          ],
          [
            8.458366,
            47.360734,
            567.0
          ],
          [
            8.458286,
            47.360636,
            567.0
          ],
          [
            8.458196,
            47.360551,
            567.0
          ],
          [
            8.458106,
            47.360472,
            566.0
          ],
          [
            8.458016,
            47.360411,
            566.0
          ],
          [
            8.457908,
            47.36035,
            566.0
          ],
          [
            8.457773,
            47.360283,
            566.0
          ],
          [
            8.45763,
            47.360229,
            565.0
          ],
          [
            8.457584,
            47.36021,
            565.0
          ],
          [
            8.457567,
            47.360192,
            565.0
          ],
          [
            8.457548,
            47.360168,
            565.0
          ],
          [
            8.45754,
            47.360149,
            565.0
          ],
          [
            8.457521,
            47.360149,
            565.0
          ],
          [
            8.457441,
            47.360125,
            561.0
          ],
          [
            8.457431,
            47.360125,
            560.0
          ],
          [
            8.457414,
            47.360119,
            560.0
          ],
          [
            8.457351,
            47.360101,
            560.0
          ],
          [
            8.457342,
            47.360101,
            560.0
          ],
          [
            8.457315,
            47.360113,
            560.0
          ],
          [
            8.457288,
            47.360125,
            560.0
          ],
          [
            8.457261,
            47.360125,
            560.0
          ],
          [
            8.457198,
            47.360125,
            560.0
          ],
          [
            8.457081,
            47.360107,
            560.0
          ],
          [
            8.456884,
            47.360088,
            560.0
          ],
          [
            8.456713,
            47.360076,
            560.0
          ],
          [
            8.456668,
            47.36007,
            560.0
          ],
          [
            8.456623,
            47.36007,
            560.0
          ],
          [
            8.456579,
            47.360058,
            560.0
          ],
          [
            8.456452,
            47.360033,
            560.0
          ],
          [
            8.456408,
            47.360027,
            560.0
          ],
          [
            8.456093,
            47.360009,
            560.0
          ],
          [
            8.45594,
            47.360021,
            560.0
          ],
          [
            8.455806,
            47.360015,
            559.0
          ],
          [
            8.455617,
            47.360003,
            557.0
          ],
          [
            8.455141,
            47.359954,
            554.0
          ],
          [
            8.455087,
            47.359936,
            554.0
          ],
          [
            8.455051,
            47.359924,
            554.0
          ],
          [
            8.455024,
            47.359918,
            554.0
          ],
          [
            8.454908,
            47.3599,
            553.0
          ],
          [
            8.454773,
            47.359881,
            553.0
          ],
          [
            8.454621,
            47.359851,
            553.0
          ],
          [
            8.454449,
            47.359821,
            553.0
          ],
          [
            8.454261,
            47.359784,
            553.0
          ],
          [
            8.454072,
            47.359748,
            553.0
          ],
          [
            8.453542,
            47.359632,
            553.0
          ],
          [
            8.453407,
            47.359602,
            553.0
          ],
          [
            8.453309,
            47.359584,
            553.0
          ],
          [
            8.453227,
            47.359571,
            553.0
          ],
          [
            8.453076,
            47.359553,
            553.0
          ],
          [
            8.452986,
            47.359541,
            553.0
          ],
          [
            8.452913,
            47.359541,
            553.0
          ],
          [
            8.452751,
            47.359541,
            554.0
          ],
          [
            8.452671,
            47.359541,
            554.0
          ],
          [
            8.452357,
            47.359559,
            554.0
          ],
          [
            8.452131,
            47.359559,
            554.0
          ],
          [
            8.451961,
            47.359553,
            554.0
          ],
          [
            8.451808,
            47.359535,
            554.0
          ],
          [
            8.451755,
            47.359523,
            554.0
          ],
          [
            8.451709,
            47.35951,
            554.0
          ],
          [
            8.451269,
            47.359364,
            553.0
          ],
          [
            8.451225,
            47.359346,
            553.0
          ],
          [
            8.45117,
            47.359315,
            553.0
          ],
          [
            8.451135,
            47.359291,
            553.0
          ],
          [
            8.451099,
            47.359255,
            553.0
          ],
          [
            8.451081,
            47.359224,
            553.0
          ],
          [
            8.451072,
            47.359194,
            553.0
          ],
          [
            8.451072,
            47.359145,
            552.0
          ],
          [
            8.451063,
            47.359109,
            552.0
          ],
          [
            8.450973,
            47.358938,
            551.0
          ],
          [
            8.450946,
            47.358908,
            551.0
          ],
          [
            8.45091,
            47.358877,
            551.0
          ],
          [
            8.450829,
            47.358896,
            551.0
          ],
          [
            8.450784,
            47.358908,
            551.0
          ],
          [
            8.450766,
            47.358908,
            551.0
          ],
          [
            8.450722,
            47.358908,
            550.0
          ],
          [
            8.45065,
            47.358932,
            550.0
          ],
          [
            8.450515,
            47.359024,
            546.0
          ],
          [
            8.45046,
            47.359078,
            544.0
          ],
          [
            8.450397,
            47.359151,
            544.0
          ],
          [
            8.450246,
            47.359382,
            542.0
          ],
          [
            8.45021,
            47.359437,
            544.0
          ],
          [
            8.450156,
            47.359419,
            543.0
          ],
          [
            8.450137,
            47.359388,
            543.0
          ],
          [
            8.449931,
            47.359321,
            542.0
          ],
          [
            8.449688,
            47.359224,
            540.0
          ],
          [
            8.448907,
            47.358835,
            531.0
          ],
          [
            8.448682,
            47.358737,
            528.0
          ],
          [
            8.448458,
            47.358658,
            526.0
          ],
          [
            8.448009,
            47.358567,
            521.0
          ],
          [
            8.447739,
            47.358506,
            519.0
          ],
          [
            8.44747,
            47.358446,
            516.0
          ],
          [
            8.447236,
            47.358379,
            514.0
          ],
          [
            8.447002,
            47.358293,
            512.0
          ],
          [
            8.446831,
            47.358226,
            511.0
          ],
          [
            8.446346,
            47.358007,
            507.0
          ],
          [
            8.446095,
            47.357904,
            505.0
          ],
          [
            8.445852,
            47.357819,
            503.0
          ],
          [
            8.445709,
            47.357788,
            502.0
          ],
          [
            8.445573,
            47.357764,
            501.0
          ],
          [
            8.4449,
            47.357691,
            498.0
          ],
          [
            8.44481,
            47.357672,
            498.0
          ],
          [
            8.44456,
            47.357617,
            497.0
          ],
          [
            8.444361,
            47.357551,
            496.0
          ],
          [
            8.444208,
            47.357478,
            495.0
          ],
          [
            8.444065,
            47.35738,
            494.0
          ],
          [
            8.443876,
            47.357235,
            493.0
          ],
          [
            8.443786,
            47.357168,
            492.0
          ],
          [
            8.443786,
            47.357125,
            492.0
          ],
          [
            8.443696,
            47.357052,
            491.0
          ],
          [
            8.443625,
            47.357027,
            491.0
          ],
          [
            8.443552,
            47.357003,
            491.0
          ],
          [
            8.443535,
            47.356979,
            491.0
          ],
          [
            8.4434,
            47.356948,
            491.0
          ],
          [
            8.443319,
            47.356948,
            491.0
          ],
          [
            8.443059,
            47.356893,
            491.0
          ],
          [
            8.442709,
            47.356827,
            490.0
          ],
          [
            8.442268,
            47.356784,
            490.0
          ],
          [
            8.441954,
            47.356766,
            490.0
          ],
          [
            8.441648,
            47.356766,
            490.0
          ],
          [
            8.441262,
            47.356784,
            490.0
          ],
          [
            8.440876,
            47.35679,
            490.0
          ],
          [
            8.44066,
            47.356814,
            490.0
          ],
          [
            8.440552,
            47.356839,
            490.0
          ],
          [
            8.439897,
            47.356924,
            489.0
          ],
          [
            8.439816,
            47.35693,
            489.0
          ],
          [
            8.439744,
            47.35693,
            489.0
          ],
          [
            8.439699,
            47.35696,
            488.0
          ],
          [
            8.439618,
            47.356991,
            489.0
          ],
          [
            8.439528,
            47.357015,
            489.0
          ],
          [
            8.43952,
            47.356997,
            489.0
          ],
          [
            8.43952,
            47.356991,
            489.0
          ],
          [
            8.437669,
            47.357563,
            485.0
          ],
          [
            8.437678,
            47.357575,
            485.0
          ],
          [
            8.437489,
            47.35763,
            484.0
          ],
          [
            8.437373,
            47.357478,
            484.0
          ],
          [
            8.43731,
            47.357496,
            486.0
          ],
          [
            8.437292,
            47.357472,
            484.0
          ],
          [
            8.437273,
            47.357435,
            483.0
          ],
          [
            8.437417,
            47.357393,
            483.0
          ],
          [
            8.437426,
            47.357405,
            483.0
          ],
          [
            8.437472,
            47.357478,
            487.0
          ]
        ]
      }
    }
  ]
}