{
  "type": "FeatureCollection",
  "features": [
    {
      "type": "Feature",
      "properties": {},
      "geometry": {
        "type": "LineString",
        "coordinates": [
          [
            8.523395,
            47.195438,
            440.0
          ],
          [
            8.523386,
            47.195444,
            440.0
          ],
          [
            8.522919,
            47.195255,
            440.0
          ],
          [
            8.522963,
            47.195212,
            440.0
          ],
          [
            8.523026,
            47.195133,
            440.0
          ],
          [
            8.523089,
            47.195053,
            440.0
          ],
          [
            8.523135,
            47.194986,
            440.0
          ],
          [
            8.523143,
            47.194974,
            440.0
          ],
          [
            8.523179,
            47.194907,
            440.0
          ],
          [
            8.523441,
            47.194406,
            440.0
          ],
          [
            8.523611,
            47.194083,
            440.0
          ],
          [
            8.523701,
            47.193912,
            440.0
          ],
          [
            8.523764,
            47.193783,
            440.0
          ],
          [
            8.523799,
            47.193698,
            440.0
          ],
          [
            8.52397,
            47.193753,
            440.0
          ],
          [
            8.524105,
            47.193802,
            441.0
          ],
          [
            8.524204,
            47.193832,
            441.0
          ],
          [
            8.524626,
            47.193973,
            441.0
          ],
          [
            8.524967,
            47.194101,
            441.0
          ],
          [
            8.525129,
            47.194156,
            441.0
          ],
          [
            8.525416,
            47.194254,
            441.0
          ],
          [
            8.525569,
            47.194308,
            441.0
          ],
          [
            8.525712,
            47.194345,
            441.0
          ],
          [
            8.525758,
            47.194351,
            441.0
          ],
          [
            8.525821,
            47.194363,
            441.0
          ],
          [
            8.525865,
            47.194376,
            441.0
          ],
          [
            8.526118,
            47.194412,
            441.0
          ],
          [
            8.526242,
            47.194431,
            441.0
          ],
          [
            8.526305,
            47.194449,
            441.0
          ],
          [
            8.526341,
            47.194424,
            441.0
          ],
          [
            8.526368,
            47.1944,
            441.0
          ],
          [
            8.526387,
            47.194345,
            441.0
          ],
          [
            8.526405,
            47.194302,
            441.0
          ],
          [
            8.526431,
            47.194278,
            441.0
          ],
          [
            8.526468,
            47.194266,
            441.0
          ],
          [
            8.526512,
            47.19426,
            441.0
          ],
          [
            8.527024,
            47.194247,
            442.0
          ],
          [
            8.527456,
            47.194235,
            442.0
          ],
          [
            8.527644,
            47.194229,
            442.0
          ],
          [
            8.527905,
            47.194235,
            442.0
          ],
          [
            8.527976,
            47.194235,
            442.0
          ],
          [
            8.528605,
            47.194315,
            443.0
          ],
          [
            8.528991,
            47.194345,
            444.0
          ],
          [
            8.529189,
            47.194351,
            444.0
          ],
          [
            8.529423,
            47.194351,
            444.0
          ],
          [
            8.529737,
            47.194351,
            445.0
          ],
          [
            8.53006,
            47.194382,
            446.0
          ],
          [
            8.530286,
            47.194412,
            446.0
          ],
          [
            8.530447,
            47.194437,
            446.0
          ],
          [
            8.531175,
            47.194553,
            448.0
          ],
          [
            8.531534,
            47.194583,
            448.0
          ],
          [
            8.531561,
            47.194583,
            448.0
          ],
          [
            8.531632,
            47.194583,
            448.0
          ],
          [
            8.53201,
            47.194583,
            449.0
          ],
          [
            8.532611,
            47.194571,
            451.0
          ],
          [
            8.532657,
            47.194571,
            451.0
          ],
          [
            8.532836,
            47.194608,
            453.0
          ],
          [
            8.532899,
            47.194541,
            453.0
          ],
          [
            8.53307,
            47.194559,
            453.0
          ],
          [
            8.533115,
            47.194559,
            453.0
          ],
          [
            8.533878,
            47.194626,
            455.0
          ],
          [
            8.534219,
            47.194657,
            455.0
          ],
          [
            8.534292,
            47.194663,
            455.0
          ],
          [
            8.534391,
            47.194675,
            456.0
          ],
          [
            8.534867,
            47.194718,
            456.0
          ],
          [
            8.53511,
            47.194742,
            457.0
          ],
          [
            8.535253,
            47.19476,
            457.0
          ],
          [
            8.535334,
            47.194766,
            457.0
          ],
          [
            8.535379,
            47.194779,
            457.0
          ],
          [
            8.535433,
            47.194791,
            457.0
          ],
          [
            8.535477,
            47.194809,
            458.0
          ],
          [
            8.535523,
            47.19484,
            458.0
          ],
          [
            8.535549,
            47.19487,
            458.0
          ],
          [
            8.535567,
            47.194901,
            458.0
          ],
          [
            8.5359,
            47.194785,
            458.0
          ],
          [
            8.536152,
            47.194937,
            459.0
          ],
          [
            8.536393,
            47.195072,
            460.0
          ],
          [
            8.536528,
            47.195151,
            460.0
          ],
          [
            8.536789,
            47.195249,
            460.0
          ],
          [
            8.537175,
            47.195316,
            460.0
          ],
          [
            8.537435,
            47.195334,
            460.0
          ],
          [
            8.537795,
            47.195279,
            460.0
          ],
          [
            8.537957,
            47.195218,
            460.0
          ],
          [
            8.538056,
            47.195151,
            460.0
          ],
          [
            8.53846,
            47.194895,
            460.0
          ],
          [
            8.539062,
            47.194486,
            460.0
          ],
          [
            8.539547,
            47.194144,
            461.0
          ],
          [
            8.540014,
            47.193942,
            461.0
          ],
          [
            8.540733,
            47.19371,
            462.0
          ],
          [
            8.541433,
            47.193429,
            462.0
          ],
          [
            8.541792,
            47.193338,
            463.0
          ],
          [
            8.542341,
            47.19324,
            463.0
          ],
          [
            8.542664,
            47.193203,
            463.0
          ],
          [
            8.543023,
            47.193197,
            464.0
          ],
          [
            8.543274,
            47.193252,
            464.0
          ],
          [
            8.543553,
            47.193344,
            464.0
          ],
          [
            8.543634,
            47.19338,
            464.0
          ],
          [
            8.5435,
            47.193539,
            464.0
          ],
          [
            8.543383,
            47.193612,
            464.0
          ],
          [
            8.543634,
            47.193704,
            464.0
          ],
          [
            8.54367,
            47.193808,
            464.0
          ],
          [
            8.543859,
            47.194113,
            464.0
          ],
          [
            8.544218,
            47.19415,
            464.0
          ],
          [
            8.544523,
            47.194156,
            465.0
          ],
          [
            8.544964,
            47.194119,
            465.0
          ],
          [
            8.545377,
            47.194125,
            466.0
          ],
          [
            8.545754,
            47.19415,
            466.0
          ],
          [
            8.546437,
            47.194229,
            467.0
          ],
          [
            8.547524,
            47.194333,
            468.0
          ],
          [
            8.547712,
            47.19437,
            469.0
          ],
          [
            8.547874,
            47.194479,
            469.0
          ],
          [
            8.547947,
            47.194632,
            469.0
          ],
          [
            8.548,
            47.194864,
            470.0
          ],
          [
            8.548045,
            47.195145,
            470.0
          ],
          [
            8.548108,
            47.195297,
            471.0
          ],
          [
            8.54826,
            47.195493,
            471.0
          ],
          [
            8.549105,
            47.196152,
            473.0
          ],
          [
            8.549761,
            47.196707,
            475.0
          ],
          [
            8.550155,
            47.196927,
            476.0
          ],
          [
            8.550398,
            47.197037,
            476.0
          ],
          [
            8.550605,
            47.197214,
            477.0
          ],
          [
            8.551073,
            47.197415,
            478.0
          ],
          [
            8.551387,
            47.197513,
            478.0
          ],
          [
            8.551719,
            47.197555,
            479.0
          ],
          [
            8.551853,
            47.197616,
            479.0
          ],
          [
            8.552725,
            47.19761,
            480.0
          ],
          [
            8.553363,
            47.197537,
            481.0
          ],
          [
            8.553633,
            47.197543,
            481.0
          ],
          [
            8.55401,
            47.19761,
            482.0
          ],
          [
            8.55444,
            47.197629,
            482.0
          ],
          [
            8.554836,
            47.19761,
            482.0
          ],
          [
            8.555482,
            47.197513,
            483.0
          ],
          [
            8.555654,
            47.197531,
            483.0
          ],
          [
            8.555887,
            47.197592,
            484.0
          ],
          [
            8.555887,
            47.197592,
            484.0
          ],
          [
            8.556408,
            47.19772,
            484.0
          ],
          [
            8.556794,
            47.197739,
            484.0
          ],
          [
            8.556956,
            47.197592,
            485.0
          ],
          [
            8.557118,
            47.19747,
            485.0
          ],
          [
            8.557415,
            47.197372,
            485.0
          ],
          [
            8.558042,
            47.197195,
            486.0
          ],
          [
            8.558142,
            47.19714,
            486.0
          ],
          [
            8.558232,
            47.197098,
            486.0
          ],
          [
            8.558295,
            47.197031,
            486.0
          ],
          [
            8.558312,
            47.196976,
            486.0
          ],
          [
            8.558358,
            47.196927,
            486.0
          ],
          [
            8.558537,
            47.196762,
            487.0
          ],
          [
            8.558537,
            47.196683,
            487.0
          ],
          [
            8.558348,
            47.196567,
            487.0
          ],
          [
            8.558394,
            47.196451,
            487.0
          ],
          [
            8.558402,
            47.19628,
            488.0
          ],
          [
            8.558394,
            47.196213,
            488.0
          ],
          [
            8.558394,
            47.196072,
            488.0
          ],
          [
            8.558375,
            47.195944,
            488.0
          ],
          [
            8.558339,
            47.195883,
            488.0
          ],
          [
            8.558492,
            47.195603,
            489.0
          ],
          [
            8.5586,
            47.195413,
            489.0
          ],
          [
            8.558897,
            47.19512,
            489.0
          ],
          [
            8.559076,
            47.194858,
            490.0
          ],
          [
            8.55914,
            47.194718,
            490.0
          ],
          [
            8.55913,
            47.194553,
            490.0
          ],
          [
            8.558861,
            47.194095,
            491.0
          ],
          [
            8.558941,
            47.19393,
            492.0
          ],
          [
            8.558933,
            47.193844,
            492.0
          ],
          [
            8.558977,
            47.193716,
            492.0
          ],
          [
            8.559085,
            47.193545,
            493.0
          ],
          [
            8.559076,
            47.193393,
            493.0
          ],
          [
            8.55914,
            47.193026,
            494.0
          ],
          [
            8.559121,
            47.192758,
            495.0
          ],
          [
            8.559031,
            47.192599,
            495.0
          ],
          [
            8.558914,
            47.192294,
            496.0
          ],
          [
            8.559013,
            47.192001,
            496.0
          ],
          [
            8.559113,
            47.191909,
            497.0
          ],
          [
            8.559247,
            47.191689,
            497.0
          ],
          [
            8.559148,
            47.191396,
            498.0
          ],
          [
            8.559166,
            47.191286,
            498.0
          ],
          [
            8.55922,
            47.191122,
            499.0
          ],
          [
            8.559237,
            47.191067,
            499.0
          ],
          [
            8.559381,
            47.190737,
            499.0
          ],
          [
            8.559381,
            47.19056,
            500.0
          ],
          [
            8.559203,
            47.190261,
            502.0
          ],
          [
            8.559058,
            47.190127,
            504.0
          ],
          [
            8.55904,
            47.190029,
            505.0
          ],
          [
            8.559058,
            47.189974,
            505.0
          ],
          [
            8.559211,
            47.189937,
            506.0
          ],
          [
            8.559346,
            47.189815,
            508.0
          ],
          [
            8.55965,
            47.189724,
            510.0
          ],
          [
            8.55975,
            47.189651,
            510.0
          ],
          [
            8.55992,
            47.189559,
            510.0
          ],
          [
            8.559912,
            47.189492,
            510.0
          ],
          [
            8.559876,
            47.189406,
            510.0
          ],
          [
            8.559803,
            47.189358,
            510.0
          ],
          [
            8.559624,
            47.189229,
            509.0
          ],
          [
            8.559534,
            47.189205,
            509.0
          ],
          [
            8.559417,
            47.189126,
            508.0
          ],
          [
            8.559354,
            47.188961,
            508.0
          ],
          [
            8.559211,
            47.188845,
            507.0
          ],
          [
            8.559013,
            47.188747,
            507.0
          ],
          [
            8.558735,
            47.188662,
            506.0
          ],
          [
            8.558537,
            47.188625,
            506.0
          ],
          [
            8.558367,
            47.18865,
            505.0
          ],
          [
            8.558106,
            47.188698,
            505.0
          ],
          [
            8.558008,
            47.188588,
            505.0
          ],
          [
            8.557603,
            47.188149,
            507.0
          ],
          [
            8.557505,
            47.187972,
            507.0
          ],
          [
            8.557477,
            47.187868,
            507.0
          ],
          [
            8.55736,
            47.18741,
            509.0
          ],
          [
            8.557342,
            47.187331,
            509.0
          ],
          [
            8.557352,
            47.187154,
            509.0
          ],
          [
            8.557415,
            47.186971,
            510.0
          ],
          [
            8.557566,
            47.186537,
            512.0
          ],
          [
            8.557558,
            47.18633,
            513.0
          ],
          [
            8.557486,
            47.18625,
            513.0
          ],
          [
            8.557415,
            47.186165,
            513.0
          ],
          [
            8.557342,
            47.186073,
            514.0
          ],
          [
            8.557289,
            47.186043,
            514.0
          ],
          [
            8.557216,
            47.185988,
            514.0
          ],
          [
            8.557136,
            47.185921,
            515.0
          ],
          [
            8.557109,
            47.185902,
            515.0
          ],
          [
            8.557055,
            47.185811,
            515.0
          ],
          [
            8.556992,
            47.185603,
            516.0
          ],
          [
            8.556947,
            47.185072,
            518.0
          ],
          [
            8.55692,
            47.184944,
            519.0
          ],
          [
            8.556723,
            47.184644,
            520.0
          ],
          [
            8.556731,
            47.184357,
            521.0
          ],
          [
            8.556696,
            47.184223,
            522.0
          ],
          [
            8.556642,
            47.184095,
            522.0
          ],
          [
            8.556579,
            47.183991,
            522.0
          ],
          [
            8.556354,
            47.183759,
            523.0
          ],
          [
            8.556157,
            47.183649,
            524.0
          ],
          [
            8.556031,
            47.183551,
            524.0
          ],
          [
            8.55595,
            47.183313,
            525.0
          ],
          [
            8.555824,
            47.183203,
            526.0
          ],
          [
            8.555537,
            47.182965,
            527.0
          ],
          [
            8.555465,
            47.182843,
            527.0
          ],
          [
            8.555411,
            47.182574,
            528.0
          ],
          [
            8.555321,
            47.182367,
            529.0
          ],
          [
            8.555195,
            47.182208,
            529.0
          ],
          [
            8.554845,
            47.181891,
            531.0
          ],
          [
            8.5548,
            47.18186,
            531.0
          ],
          [
            8.554683,
            47.181768,
            531.0
          ],
          [
            8.554675,
            47.181683,
            532.0
          ],
          [
            8.554765,
            47.181494,
            532.0
          ],
          [
            8.554935,
            47.181176,
            534.0
          ],
          [
            8.554971,
            47.181079,
            534.0
          ],
          [
            8.554962,
            47.180987,
            534.0
          ],
          [
            8.554945,
            47.180932,
            535.0
          ],
          [
            8.554836,
            47.180877,
            535.0
          ],
          [
            8.554585,
            47.180749,
            536.0
          ],
          [
            8.554459,
            47.180682,
            536.0
          ],
          [
            8.554413,
            47.180639,
            536.0
          ],
          [
            8.55471,
            47.180199,
            538.0
          ],
          [
            8.554953,
            47.179894,
            540.0
          ],
          [
            8.555321,
            47.179503,
            540.0
          ],
          [
            8.555591,
            47.179558,
            540.0
          ],
          [
            8.555771,
            47.179595,
            540.0
          ],
          [
            8.555834,
            47.179607,
            540.0
          ],
          [
            8.555878,
            47.179601,
            540.0
          ],
          [
            8.55595,
            47.179577,
            541.0
          ],
          [
            8.556031,
            47.179393,
            542.0
          ],
          [
            8.556094,
            47.17921,
            543.0
          ],
          [
            8.556084,
            47.179064,
            544.0
          ],
          [
            8.556094,
            47.178929,
            545.0
          ],
          [
            8.556157,
            47.178832,
            546.0
          ],
          [
            8.556184,
            47.178819,
            546.0
          ],
          [
            8.556264,
            47.178777,
            547.0
          ],
          [
            8.556426,
            47.178752,
            547.0
          ],
          [
            8.556983,
            47.178758,
            550.0
          ],
          [
            8.557306,
            47.178728,
            551.0
          ],
          [
            8.558042,
            47.178594,
            553.0
          ],
          [
            8.558268,
            47.17852,
            553.0
          ],
          [
            8.558484,
            47.178435,
            554.0
          ],
          [
            8.55869,
            47.178307,
            555.0
          ],
          [
            8.558753,
            47.178239,
            555.0
          ],
          [
            8.558816,
            47.178166,
            555.0
          ],
          [
            8.558933,
            47.177995,
            556.0
          ],
          [
            8.55896,
            47.177733,
            557.0
          ],
          [
            8.559013,
            47.177476,
            558.0
          ],
          [
            8.559067,
            47.177195,
            559.0
          ],
          [
            8.559094,
            47.177091,
            559.0
          ],
          [
            8.55914,
            47.177012,
            560.0
          ],
          [
            8.55922,
            47.176866,
            560.0
          ],
          [
            8.559363,
            47.176676,
            561.0
          ],
          [
            8.559597,
            47.176426,
            563.0
          ],
          [
            8.560019,
            47.176005,
            565.0
          ],
          [
            8.560136,
            47.175827,
            566.0
          ],
          [
            8.560208,
            47.175565,
            567.0
          ],
          [
            8.560245,
            47.175119,
            570.0
          ],
          [
            8.560289,
            47.17496,
            570.0
          ],
          [
            8.560639,
            47.174453,
            573.0
          ],
          [
            8.560774,
            47.174215,
            574.0
          ],
          [
            8.560872,
            47.174014,
            575.0
          ],
          [
            8.560935,
            47.17377,
            576.0
          ],
          [
            8.560945,
            47.17366,
            577.0
          ],
          [
            8.5609,
            47.173531,
            577.0
          ],
          [
            8.560792,
            47.17344,
            578.0
          ],
          [
            8.560279,
            47.173116,
            580.0
          ],
          [
            8.560208,
            47.173018,
            581.0
          ],
          [
            8.560155,
            47.17286,
            582.0
          ],
          [
            8.560298,
            47.172573,
            584.0
          ],
          [
            8.560424,
            47.172414,
            585.0
          ],
          [
            8.560522,
            47.172255,
            586.0
          ],
          [
            8.560595,
            47.172072,
            587.0
          ],
          [
            8.560603,
            47.17187,
            588.0
          ],
          [
            8.560612,
            47.171516,
            590.0
          ],
          [
            8.560792,
            47.171156,
            591.0
          ],
          [
            8.560811,
            47.170936,
            592.0
          ],
          [
            8.560837,
            47.170747,
            592.0
          ],
          [
            8.560935,
            47.17046,
            593.0
          ],
          [
            8.560998,
            47.170252,
            594.0
          ],
          [
            8.560989,
            47.170118,
            594.0
          ],
          [
            8.560935,
            47.169996,
            594.0
          ],
          [
            8.560693,
            47.169721,
            595.0
          ],
          [
            8.560612,
            47.169629,
            596.0
          ],
          [
            8.560505,
            47.169489,
            596.0
          ],
          [
            8.560442,
            47.169306,
            597.0
          ],
          [
            8.560406,
            47.169129,
            597.0
          ],
          [
            8.560388,
            47.168842,
            598.0
          ],
          [
            8.560361,
            47.168714,
            598.0
          ],
          [
            8.560298,
            47.168536,
            599.0
          ],
          [
            8.560155,
            47.168341,
            599.0
          ],
          [
            8.559858,
            47.168158,
            600.0
          ],
          [
            8.55975,
            47.168091,
            600.0
          ],
          [
            8.559679,
            47.168042,
            600.0
          ],
          [
            8.559642,
            47.168011,
            600.0
          ],
          [
            8.55957,
            47.16795,
            601.0
          ],
          [
            8.559516,
            47.167895,
            601.0
          ],
          [
            8.559499,
            47.167865,
            601.0
          ],
          [
            8.55949,
            47.167816,
            602.0
          ],
          [
            8.559507,
            47.167675,
            602.0
          ],
          [
            8.559507,
            47.167596,
            603.0
          ],
          [
            8.559507,
            47.167541,
            603.0
          ],
          [
            8.559499,
            47.16748,
            603.0
          ],
          [
            8.5594,
            47.167278,
            605.0
          ],
          [
            8.559373,
            47.167205,
            605.0
          ],
          [
            8.559363,
            47.16712,
            605.0
          ],
          [
            8.559354,
            47.16671,
            608.0
          ],
          [
            8.5594,
            47.166454,
            609.0
          ],
          [
            8.559409,
            47.166161,
            610.0
          ],
          [
            8.559463,
            47.165916,
            611.0
          ],
          [
            8.559534,
            47.165794,
            612.0
          ],
          [
            8.559633,
            47.165672,
            613.0
          ],
          [
            8.560082,
            47.165318,
            614.0
          ],
          [
            8.560226,
            47.165171,
            615.0
          ],
          [
            8.560316,
            47.164927,
            616.0
          ],
          [
            8.560342,
            47.164829,
            617.0
          ],
          [
            8.560361,
            47.164731,
            617.0
          ],
          [
            8.560342,
            47.164634,
            617.0
          ],
          [
            8.560245,
            47.164463,
            618.0
          ],
          [
            8.560136,
            47.164261,
            619.0
          ],
          [
            8.560119,
            47.164224,
            619.0
          ],
          [
            8.560073,
            47.16406,
            620.0
          ],
          [
            8.559975,
            47.163717,
            623.0
          ],
          [
            8.559966,
            47.163669,
            624.0
          ],
          [
            8.559966,
            47.163626,
            624.0
          ],
          [
            8.560055,
            47.163229,
            628.0
          ],
          [
            8.560073,
            47.163162,
            628.0
          ],
          [
            8.560092,
            47.163113,
            629.0
          ],
          [
            8.560119,
            47.163082,
            629.0
          ],
          [
            8.560155,
            47.163052,
            630.0
          ],
          [
            8.560541,
            47.162844,
            632.0
          ],
          [
            8.560855,
            47.162636,
            633.0
          ],
          [
            8.561025,
            47.162502,
            634.0
          ],
          [
            8.561124,
            47.162374,
            635.0
          ],
          [
            8.561197,
            47.162209,
            636.0
          ],
          [
            8.561224,
            47.162038,
            637.0
          ],
          [
            8.561224,
            47.161921,
            638.0
          ],
          [
            8.561214,
            47.161818,
            638.0
          ],
          [
            8.561178,
            47.161659,
            639.0
          ],
          [
            8.561178,
            47.161604,
            640.0
          ],
          [
            8.561187,
            47.161537,
            640.0
          ],
          [
            8.561232,
            47.161329,
            641.0
          ],
          [
            8.561277,
            47.161225,
            642.0
          ],
          [
            8.561511,
            47.160835,
            644.0
          ],
          [
            8.561564,
            47.160706,
            645.0
          ],
          [
            8.561591,
            47.160529,
            646.0
          ],
          [
            8.561618,
            47.160132,
            648.0
          ],
          [
            8.56161,
            47.160041,
            649.0
          ],
          [
            8.5616,
            47.159986,
            649.0
          ],
          [
            8.561583,
            47.159931,
            649.0
          ],
          [
            8.561547,
            47.15987,
            650.0
          ],
          [
            8.561501,
            47.159815,
            650.0
          ],
          [
            8.561411,
            47.159705,
            651.0
          ],
          [
            8.561197,
            47.159491,
            654.0
          ],
          [
            8.561052,
            47.159308,
            656.0
          ],
          [
            8.560872,
            47.1591,
            659.0
          ],
          [
            8.560855,
            47.159063,
            659.0
          ],
          [
            8.560855,
            47.159063,
            659.0
          ],
          [
            8.560828,
            47.159015,
            659.0
          ],
          [
            8.560729,
            47.158819,
            661.0
          ],
          [
            8.560658,
            47.15855,
            663.0
          ],
          [
            8.560612,
            47.158275,
            666.0
          ],
          [
            8.560603,
            47.158013,
            668.0
          ],
          [
            8.560576,
            47.157829,
            669.0
          ],
          [
            8.560576,
            47.157469,
            672.0
          ],
          [
            8.560585,
            47.157438,
            672.0
          ],
          [
            8.560621,
            47.157335,
            673.0
          ],
          [
            8.560675,
            47.157255,
            674.0
          ],
          [
            8.560729,
            47.157188,
            674.0
          ],
          [
            8.560782,
            47.156632,
            676.0
          ],
          [
            8.560811,
            47.156235,
            677.0
          ],
          [
            8.560819,
            47.156015,
            677.0
          ],
          [
            8.560811,
            47.155661,
            678.0
          ],
          [
            8.560711,
            47.155441,
            679.0
          ],
          [
            8.560513,
            47.155178,
            680.0
          ],
          [
            8.560478,
            47.155026,
            680.0
          ],
          [
            8.560469,
            47.154946,
            680.0
          ],
          [
            8.560469,
            47.154867,
            680.0
          ],
          [
            8.560486,
            47.154775,
            680.0
          ],
          [
            8.560495,
            47.154732,
            680.0
          ],
          [
            8.560513,
            47.154665,
            680.0
          ],
          [
            8.560595,
            47.154555,
            680.0
          ],
          [
            8.560648,
            47.154494,
            680.0
          ],
          [
            8.560811,
            47.154391,
            681.0
          ],
          [
            8.560765,
            47.154348,
            682.0
          ],
          [
            8.560792,
            47.154281,
            684.0
          ],
          [
            8.560819,
            47.154244,
            685.0
          ],
          [
            8.560882,
            47.154183,
            688.0
          ],
          [
            8.560945,
            47.154165,
            688.0
          ],
          [
            8.561134,
            47.154067,
            688.0
          ],
          [
            8.561304,
            47.153951,
            689.0
          ],
          [
            8.561493,
            47.153773,
            690.0
          ],
          [
            8.561763,
            47.153492,
            693.0
          ],
          [
            8.561834,
            47.153395,
            695.0
          ],
          [
            8.561853,
            47.153309,
            696.0
          ],
          [
            8.561843,
            47.15323,
            696.0
          ],
          [
            8.56179,
            47.153169,
            697.0
          ],
          [
            8.561708,
            47.15312,
            698.0
          ],
          [
            8.561098,
            47.152839,
            704.0
          ],
          [
            8.560882,
            47.152716,
            706.0
          ],
          [
            8.560792,
            47.152625,
            707.0
          ],
          [
            8.560711,
            47.152527,
            708.0
          ],
          [
            8.560675,
            47.152411,
            710.0
          ],
          [
            8.560639,
            47.152197,
            711.0
          ],
          [
            8.560585,
            47.151476,
            716.0
          ],
          [
            8.560541,
            47.151409,
            717.0
          ],
          [
            8.560459,
            47.151366,
            717.0
          ],
          [
            8.560379,
            47.151348,
            718.0
          ],
          [
            8.560262,
            47.15136,
            718.0
          ],
          [
            8.559076,
            47.15161,
            724.0
          ],
          [
            8.558321,
            47.151775,
            729.0
          ],
          [
            8.558071,
            47.151812,
            730.0
          ],
          [
            8.557711,
            47.151879,
            733.0
          ],
          [
            8.557621,
            47.151891,
            734.0
          ],
          [
            8.557522,
            47.151885,
            734.0
          ],
          [
            8.557405,
            47.151873,
            735.0
          ],
          [
            8.557289,
            47.151849,
            736.0
          ],
          [
            8.557172,
            47.151836,
            737.0
          ],
          [
            8.556974,
            47.15183,
            739.0
          ],
          [
            8.556866,
            47.15183,
            739.0
          ],
          [
            8.55675,
            47.151818,
            740.0
          ],
          [
            8.556426,
            47.151751,
            743.0
          ],
          [
            8.556327,
            47.151745,
            744.0
          ],
          [
            8.556211,
            47.151757,
            745.0
          ],
          [
            8.556094,
            47.151782,
            746.0
          ],
          [
            8.555897,
            47.1518,
            747.0
          ],
          [
            8.55551,
            47.151812,
            751.0
          ],
          [
            8.555375,
            47.15183,
            752.0
          ],
          [
            8.555249,
            47.151867,
            753.0
          ],
          [
            8.555034,
            47.151965,
            755.0
          ],
          [
            8.554746,
            47.152081,
            757.0
          ],
          [
            8.554476,
            47.152166,
            760.0
          ],
          [
            8.554019,
            47.152276,
            763.0
          ],
          [
            8.553587,
            47.152405,
            767.0
          ],
          [
            8.553219,
            47.152509,
            769.0
          ],
          [
            8.553094,
            47.152551,
            770.0
          ],
          [
            8.552985,
            47.15268,
            772.0
          ],
          [
            8.552653,
            47.153077,
            776.0
          ],
          [
            8.552572,
            47.153126,
            776.0
          ],
          [
            8.552455,
            47.15315,
            777.0
          ],
          [
            8.552096,
            47.153132,
            779.0
          ],
          [
            8.5518,
            47.153126,
            781.0
          ],
          [
            8.55136,
            47.153181,
            784.0
          ],
          [
            8.550857,
            47.153303,
            787.0
          ],
          [
            8.550121,
            47.153499,
            791.0
          ],
          [
            8.549446,
            47.153657,
            794.0
          ],
          [
            8.549356,
            47.153657,
            797.0
          ],
          [
            8.54923,
            47.153633,
            800.0
          ],
          [
            8.548863,
            47.153517,
            803.0
          ],
          [
            8.548746,
            47.153474,
            804.0
          ],
          [
            8.548656,
            47.153413,
            805.0
          ],
          [
            8.54862,
            47.153352,
            805.0
          ],
          [
            8.548629,
            47.153279,
            806.0
          ],
          [
            8.54871,
            47.153205,
            807.0
          ],
          [
            8.548907,
            47.15312,
            809.0
          ],
          [
            8.549375,
            47.152991,
            812.0
          ],
          [
            8.549482,
            47.152936,
            813.0
          ],
          [
            8.549536,
            47.152851,
            815.0
          ],
          [
            8.5495,
            47.152735,
            816.0
          ],
          [
            8.54941,
            47.152594,
            818.0
          ],
          [
            8.549168,
            47.15227,
            822.0
          ],
          [
            8.548484,
            47.151733,
            829.0
          ],
          [
            8.547811,
            47.151158,
            836.0
          ],
          [
            8.547595,
            47.150969,
            839.0
          ],
          [
            8.547479,
            47.150847,
            840.0
          ],
          [
            8.547381,
            47.150719,
            841.0
          ],
          [
            8.547066,
            47.150224,
            847.0
          ],
          [
            8.547012,
            47.150157,
            847.0
          ],
          [
            8.546616,
            47.14976,
            852.0
          ],
          [
            8.546572,
            47.149699,
            853.0
          ],
          [
            8.546536,
            47.149632,
            854.0
          ],
          [
            8.546429,
            47.149302,
            857.0
          ],
          [
            8.546392,
            47.14913,
            859.0
          ],
          [
            8.546365,
            47.148923,
            861.0
          ],
          [
            8.546347,
            47.148862,
            861.0
          ],
          [
            8.546329,
            47.148813,
            862.0
          ],
          [
            8.546266,
            47.148739,
            863.0
          ],
          [
            8.546221,
            47.148697,
            863.0
          ],
          [
            8.545997,
            47.14858,
            865.0
          ],
          [
            8.54596,
            47.148544,
            866.0
          ],
          [
            8.545934,
            47.148501,
            866.0
          ],
          [
            8.545826,
            47.148195,
            870.0
          ],
          [
            8.5458,
            47.148159,
            870.0
          ],
          [
            8.54562,
            47.147975,
            873.0
          ],
          [
            8.545565,
            47.147914,
            873.0
          ],
          [
            8.54553,
            47.147841,
            874.0
          ],
          [
            8.545494,
            47.147639,
            876.0
          ],
          [
            8.545467,
            47.14748,
            878.0
          ],
          [
            8.545431,
            47.147413,
            879.0
          ],
          [
            8.54535,
            47.147358,
            880.0
          ],
          [
            8.545297,
            47.147328,
            880.0
          ],
          [
            8.545297,
            47.147328,
            880.0
          ],
          [
            8.545117,
            47.147242,
            882.0
          ],
          [
            8.545027,
            47.147181,
            883.0
          ],
          [
            8.544981,
            47.147126,
            883.0
          ],
          [
            8.544945,
            47.147035,
            884.0
          ],
          [
            8.544918,
            47.1469,
            886.0
          ],
          [
            8.544909,
            47.146833,
            886.0
          ],
          [
            8.544901,
            47.146717,
            887.0
          ],
          [
            8.544865,
            47.14665,
            888.0
          ],
          [
            8.544802,
            47.146589,
            889.0
          ],
          [
            8.544739,
            47.146558,
            890.0
          ],
          [
            8.544595,
            47.146528,
            891.0
          ],
          [
            8.544416,
            47.146516,
            892.0
          ],
          [
            8.544335,
            47.146491,
            892.0
          ],
          [
            8.544272,
            47.146461,
            893.0
          ],
          [
            8.5442,
            47.146406,
            894.0
          ],
          [
            8.544146,
            47.146345,
            894.0
          ],
          [
            8.544119,
            47.14629,
            895.0
          ],
          [
            8.544129,
            47.146223,
            896.0
          ],
          [
            8.544155,
            47.146149,
            896.0
          ],
          [
            8.544308,
            47.14599,
            898.0
          ],
          [
            8.544955,
            47.145538,
            905.0
          ],
          [
            8.545404,
            47.145306,
            909.0
          ],
          [
            8.54544,
            47.145269,
            909.0
          ],
          [
            8.545458,
            47.145239,
            910.0
          ],
          [
            8.545458,
            47.145202,
            910.0
          ],
          [
            8.545458,
            47.145165,
            910.0
          ],
          [
            8.545421,
            47.145129,
            911.0
          ],
          [
            8.545358,
            47.145092,
            911.0
          ],
          [
            8.545171,
            47.145012,
            913.0
          ],
          [
            8.544964,
            47.144921,
            914.0
          ],
          [
            8.544523,
            47.144731,
            918.0
          ],
          [
            8.544433,
            47.144682,
            918.0
          ],
          [
            8.544335,
            47.144609,
            919.0
          ],
          [
            8.544146,
            47.144456,
            921.0
          ],
          [
            8.544092,
            47.14442,
            922.0
          ],
          [
            8.54402,
            47.144401,
            922.0
          ],
          [
            8.543895,
            47.144377,
            923.0
          ],
          [
            8.543536,
            47.144316,
            925.0
          ],
          [
            8.543473,
            47.144285,
            926.0
          ],
          [
            8.54341,
            47.144242,
            926.0
          ],
          [
            8.543364,
            47.144181,
            927.0
          ],
          [
            8.543293,
            47.143992,
            929.0
          ],
          [
            8.543247,
            47.143839,
            930.0
          ],
          [
            8.543167,
            47.143564,
            933.0
          ],
          [
            8.54314,
            47.143522,
            933.0
          ],
          [
            8.543104,
            47.143479,
            934.0
          ],
          [
            8.542934,
            47.143345,
            935.0
          ],
          [
            8.542888,
            47.143314,
            936.0
          ],
          [
            8.542825,
            47.14329,
            936.0
          ],
          [
            8.542754,
            47.143277,
            937.0
          ],
          [
            8.542628,
            47.143265,
            938.0
          ],
          [
            8.542385,
            47.143241,
            939.0
          ],
          [
            8.542205,
            47.143216,
            940.0
          ],
          [
            8.541748,
            47.143143,
            944.0
          ],
          [
            8.541433,
            47.143119,
            946.0
          ],
          [
            8.541352,
            47.143106,
            946.0
          ],
          [
            8.541253,
            47.143076,
            947.0
          ],
          [
            8.541155,
            47.143039,
            948.0
          ],
          [
            8.540769,
            47.142862,
            951.0
          ],
          [
            8.540544,
            47.142764,
            953.0
          ],
          [
            8.540284,
            47.142685,
            955.0
          ],
          [
            8.539879,
            47.14255,
            959.0
          ],
          [
            8.539708,
            47.142471,
            960.0
          ],
          [
            8.539645,
            47.142391,
            961.0
          ],
          [
            8.539529,
            47.142141,
            964.0
          ],
          [
            8.539529,
            47.141994,
            966.0
          ],
          [
            8.539529,
            47.141792,
            968.0
          ],
          [
            8.539322,
            47.141609,
            970.0
          ],
          [
            8.538846,
            47.141322,
            970.0
          ],
          [
            8.538469,
            47.141352,
            970.0
          ],
          [
            8.53837,
            47.141114,
            975.0
          ],
          [
            8.538253,
            47.140857,
            979.0
          ],
          [
            8.538146,
            47.140686,
            982.0
          ],
          [
            8.538029,
            47.140546,
            983.0
          ],
          [
            8.537831,
            47.14035,
            986.0
          ],
          [
            8.537328,
            47.140015,
            991.0
          ],
          [
            8.536825,
            47.139795,
            995.0
          ],
          [
            8.536609,
            47.139666,
            997.0
          ],
          [
            8.536295,
            47.139373,
            1001.0
          ],
          [
            8.53616,
            47.13919,
            1003.0
          ],
          [
            8.535972,
            47.138847,
            1007.0
          ],
          [
            8.53589,
            47.138731,
            1008.0
          ],
          [
            8.535882,
            47.138658,
            1009.0
          ],
          [
            8.535926,
            47.138548,
            1010.0
          ],
          [
            8.536007,
            47.138444,
            1010.0
          ],
          [
            8.53616,
            47.138322,
            1010.0
          ],
          [
            8.536322,
            47.138254,
            1010.0
          ],
          [
            8.536601,
            47.138248,
            1010.0
          ],
          [
            8.537058,
            47.138211,
            1010.0
          ],
          [
            8.537202,
            47.138187,
            1010.0
          ],
          [
            8.537381,
            47.138132,
            1010.0
          ],
          [
            8.537454,
            47.138071,
            1010.0
          ],
          [
            8.537517,
            47.137955,
            1010.0
          ],
          [
            8.537508,
            47.137552,
            1010.0
          ],
          [
            8.537544,
            47.137399,
            1010.0
          ],
          [
            8.537615,
            47.137338,
            1010.0
          ],
          [
            8.538029,
            47.13721,
            1008.0
          ],
          [
            8.538091,
            47.137161,
            1007.0
          ],
          [
            8.538127,
            47.137088,
            1006.0
          ],
          [
            8.538037,
            47.136941,
            1005.0
          ],
          [
            8.537974,
            47.136862,
            1003.0
          ],
          [
            8.537624,
            47.13644,
            1000.0
          ],
          [
            8.537607,
            47.136317,
            1000.0
          ],
          [
            8.537615,
            47.136244,
            1000.0
          ],
          [
            8.537705,
            47.136116,
            1000.0
          ],
          [
            8.537993,
            47.135822,
            1000.0
          ],
          [
            8.538073,
            47.135706,
            1000.0
          ],
          [
            8.5381,
            47.135633,
            1000.0
          ],
          [
            8.5381,
            47.135511,
            1000.0
          ],
          [
            8.5381,
            47.135511,
            1000.0
          ],
          [
            8.5381,
            47.135492,
            1000.0
          ],
          [
            8.538073,
            47.135303,
            1000.0
          ],
          [
            8.538083,
            47.135162,
            1000.0
          ],
          [
            8.538127,
            47.135052,
            1000.0
          ],
          [
            8.538244,
            47.134863,
            1001.0
          ],
          [
            8.538433,
            47.134637,
            1001.0
          ],
          [
            8.538693,
            47.134442,
            1002.0
          ],
          [
            8.538586,
            47.13446,
            1002.0
          ],
          [
            8.538442,
            47.134448,
            1002.0
          ],
          [
            8.538397,
            47.134429,
            1002.0
          ],
          [
            8.53836,
            47.134417,
            1002.0
          ],
          [
            8.538236,
            47.134197,
            1001.0
          ],
          [
            8.53811,
            47.133904,
            1001.0
          ],
          [
            8.538029,
            47.133824,
            1000.0
          ],
          [
            8.537858,
            47.133818,
            1000.0
          ],
          [
            8.537768,
            47.13391,
            1000.0
          ],
          [
            8.537678,
            47.134063,
            998.0
          ],
          [
            8.537624,
            47.134197,
            996.0
          ],
          [
            8.53766,
            47.134497,
            992.0
          ],
          [
            8.537498,
            47.134936,
            987.0
          ],
          [
            8.537058,
            47.13537,
            981.0
          ],
          [
            8.536691,
            47.135828,
            975.0
          ],
          [
            8.536448,
            47.136006,
            972.0
          ],
          [
            8.536286,
            47.136067,
            971.0
          ],
          [
            8.536089,
            47.136048,
            969.0
          ],
          [
            8.535936,
            47.136,
            967.0
          ],
          [
            8.535765,
            47.136012,
            966.0
          ],
          [
            8.535666,
            47.136073,
            965.0
          ],
          [
            8.535603,
            47.136183,
            963.0
          ],
          [
            8.535639,
            47.136372,
            960.0
          ],
          [
            8.535549,
            47.136544,
            958.0
          ],
          [
            8.535379,
            47.136672,
            956.0
          ],
          [
            8.535181,
            47.136751,
            953.0
          ],
          [
            8.535154,
            47.136758,
            953.0
          ],
          [
            8.534804,
            47.136807,
            950.0
          ],
          [
            8.534049,
            47.136892,
            945.0
          ],
          [
            8.533878,
            47.13691,
            943.0
          ],
          [
            8.533536,
            47.137014,
            941.0
          ],
          [
            8.533402,
            47.137118,
            941.0
          ],
          [
            8.533295,
            47.137222,
            940.0
          ],
          [
            8.533213,
            47.137369,
            940.0
          ],
          [
            8.533186,
            47.13743,
            940.0
          ],
          [
            8.533169,
            47.137491,
            940.0
          ],
          [
            8.533169,
            47.137527,
            940.0
          ],
          [
            8.533177,
            47.137607,
            940.0
          ],
          [
            8.53316,
            47.137692,
            940.0
          ],
          [
            8.533133,
            47.137833,
            940.0
          ],
          [
            8.532854,
            47.137436,
            940.0
          ],
          [
            8.5328,
            47.137375,
            940.0
          ],
          [
            8.532045,
            47.136372,
            936.0
          ],
          [
            8.531722,
            47.136,
            934.0
          ],
          [
            8.531444,
            47.135706,
            932.0
          ],
          [
            8.531282,
            47.135572,
            932.0
          ],
          [
            8.531139,
            47.135529,
            931.0
          ],
          [
            8.531049,
            47.135486,
            931.0
          ],
          [
            8.530923,
            47.135443,
            930.0
          ],
          [
            8.530815,
            47.135413,
            930.0
          ],
          [
            8.530276,
            47.135211,
            932.0
          ],
          [
            8.529944,
            47.135126,
            933.0
          ],
          [
            8.52954,
            47.135083,
            935.0
          ],
          [
            8.529181,
            47.13493,
            937.0
          ],
          [
            8.528678,
            47.134594,
            940.0
          ],
          [
            8.528632,
            47.134564,
            940.0
          ],
          [
            8.52821,
            47.134313,
            940.0
          ],
          [
            8.528057,
            47.134258,
            940.0
          ],
          [
            8.527959,
            47.133983,
            946.0
          ],
          [
            8.527815,
            47.133665,
            952.0
          ],
          [
            8.527743,
            47.133494,
            955.0
          ],
          [
            8.527716,
            47.133243,
            959.0
          ],
          [
            8.527806,
            47.132956,
            965.0
          ],
          [
            8.52786,
            47.132724,
            970.0
          ],
          [
            8.527842,
            47.132394,
            973.0
          ],
          [
            8.52776,
            47.131954,
            977.0
          ],
          [
            8.527527,
            47.131386,
            980.0
          ],
          [
            8.527473,
            47.131337,
            980.0
          ],
          [
            8.527384,
            47.131245,
            980.0
          ],
          [
            8.527294,
            47.13108,
            980.0
          ],
          [
            8.527267,
            47.130897,
            980.0
          ],
          [
            8.527194,
            47.130677,
            980.0
          ],
          [
            8.527033,
            47.129913,
            980.0
          ],
          [
            8.526728,
            47.129045,
            980.0
          ],
          [
            8.526728,
            47.129045,
            980.0
          ],
          [
            8.526691,
            47.128929,
            980.0
          ],
          [
            8.526602,
            47.128611,
            980.0
          ],
          [
            8.526575,
            47.128366,
            980.0
          ],
          [
            8.526504,
            47.128152,
            980.0
          ],
          [
            8.526485,
            47.128036,
            980.0
          ],
          [
            8.526512,
            47.127945,
            980.0
          ],
          [
            8.526791,
            47.127469,
            980.0
          ],
          [
            8.526827,
            47.12731,
            980.0
          ],
          [
            8.526898,
            47.126967,
            979.0
          ],
          [
            8.526925,
            47.126319,
            978.0
          ],
          [
            8.526934,
            47.125916,
            977.0
          ],
          [
            8.526953,
            47.125439,
            976.0
          ],
          [
            8.526953,
            47.124901,
            975.0
          ],
          [
            8.527194,
            47.124259,
            974.0
          ],
          [
            8.527213,
            47.12418,
            974.0
          ],
          [
            8.527393,
            47.123441,
            973.0
          ],
          [
            8.527563,
            47.122927,
            972.0
          ],
          [
            8.527725,
            47.122383,
            971.0
          ],
          [
            8.52785,
            47.121979,
            970.0
          ],
          [
            8.528039,
            47.121423,
            970.0
          ],
          [
            8.528057,
            47.121393,
            970.0
          ],
          [
            8.528165,
            47.121185,
            970.0
          ],
          [
            8.528416,
            47.120041,
            970.0
          ],
          [
            8.528471,
            47.119681,
            970.0
          ],
          [
            8.528506,
            47.119321,
            970.0
          ],
          [
            8.528506,
            47.119137,
            970.0
          ],
          [
            8.528506,
            47.118672,
            970.0
          ],
          [
            8.528515,
            47.118568,
            970.0
          ],
          [
            8.528515,
            47.118024,
            970.0
          ],
          [
            8.528506,
            47.117853,
            970.0
          ],
          [
            8.528569,
            47.117707,
            970.0
          ],
          [
            8.528749,
            47.117432,
            970.0
          ],
          [
            8.528911,
            47.117187,
            970.0
          ],
          [
            8.529081,
            47.116918,
            970.0
          ],
          [
            8.529234,
            47.116759,
            970.0
          ],
          [
            8.529647,
            47.116484,
            970.0
          ],
          [
            8.52972,
            47.116441,
            970.0
          ],
          [
            8.529989,
            47.116288,
            970.0
          ],
          [
            8.531273,
            47.115543,
            974.0
          ],
          [
            8.532108,
            47.115072,
            976.0
          ],
          [
            8.53228,
            47.114845,
            977.0
          ],
          [
            8.533115,
            47.113648,
            980.0
          ],
          [
            8.533699,
            47.113097,
            980.0
          ],
          [
            8.534058,
            47.11292,
            980.0
          ],
          [
            8.534355,
            47.112877,
            980.0
          ],
          [
            8.534714,
            47.112889,
            979.0
          ],
          [
            8.535423,
            47.112944,
            977.0
          ],
          [
            8.535496,
            47.112932,
            977.0
          ],
          [
            8.535693,
            47.112907,
            977.0
          ],
          [
            8.535873,
            47.112804,
            976.0
          ],
          [
            8.535989,
            47.1127,
            976.0
          ],
          [
            8.5359,
            47.112517,
            974.0
          ],
          [
            8.535693,
            47.11226,
            972.0
          ],
          [
            8.535307,
            47.112052,
            970.0
          ],
          [
            8.534544,
            47.111697,
            964.0
          ],
          [
            8.534364,
            47.111508,
            961.0
          ],
          [
            8.534247,
            47.111312,
            959.0
          ],
          [
            8.533842,
            47.110921,
            954.0
          ],
          [
            8.533699,
            47.110725,
            951.0
          ],
          [
            8.533726,
            47.110609,
            950.0
          ],
          [
            8.533959,
            47.110285,
            947.0
          ],
          [
            8.533923,
            47.110169,
            947.0
          ],
          [
            8.533735,
            47.11004,
            945.0
          ],
          [
            8.5336,
            47.109869,
            944.0
          ],
          [
            8.533223,
            47.108885,
            940.0
          ],
          [
            8.533205,
            47.108842,
            940.0
          ],
          [
            8.533169,
            47.108695,
            940.0
          ],
          [
            8.533142,
            47.108451,
            940.0
          ],
          [
            8.53306,
            47.108377,
            940.0
          ],
          [
            8.533016,
            47.108353,
            940.0
          ],
          [
            8.532963,
            47.10831,
            940.0
          ],
          [
            8.533026,
            47.108175,
            940.0
          ],
          [
            8.533052,
            47.107992,
            942.0
          ],
          [
            8.533142,
            47.107772,
            947.0
          ],
          [
            8.53272,
            47.107632,
            950.0
          ],
          [
            8.53245,
            47.107485,
            950.0
          ],
          [
            8.532225,
            47.107393,
            947.0
          ],
          [
            8.531938,
            47.107302,
            938.0
          ],
          [
            8.531678,
            47.107216,
            932.0
          ],
          [
            8.531498,
            47.107142,
            929.0
          ],
          [
            8.531273,
            47.107087,
            927.0
          ],
          [
            8.531183,
            47.107026,
            926.0
          ],
          [
            8.531148,
            47.106959,
            925.0
          ],
          [
            8.530976,
            47.106641,
            922.0
          ],
          [
            8.530905,
            47.106561,
            920.0
          ],
          [
            8.53068,
            47.106384,
            918.0
          ],
          [
            8.530447,
            47.10606,
            915.0
          ],
          [
            8.530393,
            47.10603,
            915.0
          ],
          [
            8.530321,
            47.105999,
            914.0
          ],
          [
            8.530087,
            47.105981,
            913.0
          ],
          [
            8.529899,
            47.105963,
            912.0
          ],
          [
            8.529603,
            47.105822,
            907.0
          ],
          [
            8.529395,
            47.105559,
            897.0
          ],
          [
            8.529288,
            47.105479,
            893.0
          ],
          [
            8.529099,
            47.105406,
            888.0
          ],
          [
            8.528991,
            47.105283,
            884.0
          ],
          [
            8.528902,
            47.105228,
            881.0
          ],
          [
            8.528731,
            47.105198,
            877.0
          ],
          [
            8.528578,
            47.105247,
            872.0
          ],
          [
            8.528506,
            47.10521,
            870.0
          ],
          [
            8.528399,
            47.105124,
            863.0
          ],
          [
            8.528309,
            47.105082,
            859.0
          ],
          [
            8.528156,
            47.105069,
            854.0
          ],
          [
            8.527976,
            47.10502,
            848.0
          ],
          [
            8.527877,
            47.104947,
            844.0
          ],
          [
            8.527842,
            47.104886,
            842.0
          ],
          [
            8.527833,
            47.104752,
            834.0
          ],
          [
            8.527797,
            47.104691,
            830.0
          ],
          [
            8.527725,
            47.104648,
            826.0
          ],
          [
            8.527699,
            47.104581,
            822.0
          ],
          [
            8.527546,
            47.104568,
            818.0
          ],
          [
            8.527257,
            47.104599,
            810.0
          ],
          [
            8.527078,
            47.104691,
            805.0
          ],
          [
            8.52698,
            47.104727,
            802.0
          ],
          [
            8.526953,
            47.104654,
            800.0
          ],
          [
            8.526898,
            47.104648,
            799.0
          ],
          [
            8.526881,
            47.104678,
            798.0
          ],
          [
            8.526881,
            47.104733,
            797.0
          ],
          [
            8.526844,
            47.10477,
            796.0
          ],
          [
            8.526791,
            47.104758,
            795.0
          ],
          [
            8.526764,
            47.104721,
            794.0
          ],
          [
            8.526737,
            47.104575,
            791.0
          ],
          [
            8.52671,
            47.104605,
            791.0
          ],
          [
            8.526674,
            47.104666,
            790.0
          ],
          [
            8.526683,
            47.104794,
            789.0
          ],
          [
            8.526395,
            47.104636,
            778.0
          ],
          [
            8.526189,
            47.104513,
            771.0
          ],
          [
            8.526072,
            47.104501,
            768.0
          ],
          [
            8.525928,
            47.104477,
            764.0
          ],
          [
            8.525865,
            47.104446,
            762.0
          ],
          [
            8.525848,
            47.104361,
            759.0
          ],
          [
            8.525919,
            47.104128,
            750.0
          ],
          [
            8.525973,
            47.104024,
            746.0
          ],
          [
            8.526063,
            47.103914,
            741.0
          ],
          [
            8.526099,
            47.103785,
            735.0
          ],
          [
            8.526045,
            47.103602,
            728.0
          ],
          [
            8.526045,
            47.103418,
            723.0
          ],
          [
            8.525928,
            47.103199,
            715.0
          ],
          [
            8.525892,
            47.103077,
            710.0
          ],
          [
            8.525875,
            47.102807,
            701.0
          ],
          [
            8.525848,
            47.102728,
            698.0
          ],
          [
            8.525749,
            47.102667,
            695.0
          ],
          [
            8.525165,
            47.102477,
            679.0
          ],
          [
            8.524949,
            47.102391,
            673.0
          ],
          [
            8.524823,
            47.102367,
            670.0
          ],
          [
            8.524626,
            47.102367,
            662.0
          ],
          [
            8.524571,
            47.102348,
            660.0
          ],
          [
            8.5245,
            47.1023,
            658.0
          ],
          [
            8.52442,
            47.10211,
            653.0
          ],
          [
            8.524491,
            47.102061,
            652.0
          ],
          [
            8.52451,
            47.10203,
            651.0
          ],
          [
            8.524536,
            47.101994,
            650.0
          ],
          [
            8.524527,
            47.101945,
            648.0
          ],
          [
            8.5245,
            47.101841,
            644.0
          ],
          [
            8.52442,
            47.101774,
            641.0
          ],
          [
            8.524248,
            47.101719,
            636.0
          ],
          [
            8.524123,
            47.101694,
            633.0
          ],
          [
            8.524015,
            47.10167,
            630.0
          ],
          [
            8.523898,
            47.10164,
            628.0
          ],
          [
            8.523808,
            47.101609,
            626.0
          ],
          [
            8.523917,
            47.10153,
            623.0
          ],
          [
            8.52397,
            47.101468,
            621.0
          ],
          [
            8.523961,
            47.101432,
            620.0
          ],
          [
            8.523934,
            47.101346,
            617.0
          ],
          [
            8.523934,
            47.101266,
            614.0
          ],
          [
            8.523818,
            47.10123,
            612.0
          ],
          [
            8.523728,
            47.101217,
            610.0
          ],
          [
            8.523611,
            47.101193,
            607.0
          ],
          [
            8.523494,
            47.101138,
            605.0
          ],
          [
            8.523359,
            47.101083,
            602.0
          ],
          [
            8.523288,
            47.101034,
            600.0
          ],
          [
            8.523242,
            47.100967,
            596.0
          ],
          [
            8.523171,
            47.100918,
            593.0
          ],
          [
            8.523036,
            47.100881,
            589.0
          ],
          [
            8.522902,
            47.100887,
            585.0
          ],
          [
            8.522829,
            47.100814,
            582.0
          ],
          [
            8.522775,
            47.100722,
            579.0
          ],
          [
            8.522667,
            47.100691,
            576.0
          ],
          [
            8.522569,
            47.100691,
            574.0
          ],
          [
            8.522407,
            47.100722,
            570.0
          ],
          [
            8.522281,
            47.100685,
            568.0
          ],
          [
            8.521796,
            47.100544,
            559.0
          ],
          [
            8.5215,
            47.10041,
            555.0
          ],
          [
            8.521005,
            47.10016,
            547.0
          ],
          [
            8.520942,
            47.100135,
            546.0
          ],
          [
            8.520925,
            47.100117,
            545.0
          ],
          [
            8.521087,
            47.099976,
            541.0
          ],
          [
            8.520997,
            47.099933,
            541.0
          ],
          [
            8.520907,
            47.099897,
            540.0
          ],
          [
            8.520799,
            47.099897,
            540.0
          ],
          [
            8.520691,
            47.099921,
            540.0
          ],
          [
            8.520619,
            47.099988,
            539.0
          ],
          [
            8.520611,
            47.100086,
            539.0
          ],
          [
            8.520665,
            47.100178,
            538.0
          ],
          [
            8.520835,
            47.100294,
            538.0
          ],
          [
            8.520844,
            47.1003,
            538.0
          ],
          [
            8.520915,
            47.100349,
            537.0
          ],
          [
            8.520969,
            47.100386,
            537.0
          ],
          [
            8.521051,
            47.100483,
            536.0
          ],
          [
            8.521078,
            47.100526,
            536.0
          ],
          [
            8.521087,
            47.100569,
            536.0
          ],
          [
            8.521087,
            47.100612,
            536.0
          ],
          [
            8.521078,
            47.100648,
            536.0
          ],
          [
            8.521041,
            47.100679,
            535.0
          ],
          [
            8.520997,
            47.100703,
            535.0
          ],
          [
            8.520915,
            47.100734,
            535.0
          ],
          [
            8.520852,
            47.100752,
            535.0
          ],
          [
            8.520422,
            47.100893,
            533.0
          ],
          [
            8.520376,
            47.100911,
            533.0
          ],
          [
            8.520349,
            47.100936,
            533.0
          ],
          [
            8.520323,
            47.100967,
            533.0
          ],
          [
            8.520323,
            47.100991,
            532.0
          ],
          [
            8.520323,
            47.101022,
            532.0
          ],
          [
            8.520349,
            47.101058,
            532.0
          ],
          [
            8.520439,
            47.101187,
            531.0
          ],
          [
            8.520466,
            47.101236,
            531.0
          ],
          [
            8.520466,
            47.101273,
            531.0
          ],
          [
            8.520466,
            47.101309,
            531.0
          ],
          [
            8.520449,
            47.101346,
            531.0
          ],
          [
            8.520431,
            47.101377,
            530.0
          ],
          [
            8.520395,
            47.101395,
            530.0
          ],
          [
            8.520349,
            47.101407,
            530.0
          ],
          [
            8.520242,
            47.101364,
            528.0
          ],
          [
            8.520188,
            47.10134,
            527.0
          ],
          [
            8.520125,
            47.101321,
            526.0
          ],
          [
            8.520036,
            47.101303,
            524.0
          ],
          [
            8.52008,
            47.101285,
            524.0
          ],
          [
            8.520152,
            47.101248,
            522.0
          ],
          [
            8.52017,
            47.101224,
            521.0
          ],
          [
            8.520188,
            47.101205,
            521.0
          ],
          [
            8.520116,
            47.101175,
            519.0
          ],
          [
            8.520053,
            47.101132,
            517.0
          ],
          [
            8.519982,
            47.10112,
            515.0
          ],
          [
            8.5199,
            47.101113,
            512.0
          ],
          [
            8.519783,
            47.101095,
            509.0
          ],
          [
            8.519659,
            47.101058,
            507.0
          ],
          [
            8.519523,
            47.100985,
            504.0
          ],
          [
            8.51937,
            47.100936,
            501.0
          ],
          [
            8.519218,
            47.100875,
            498.0
          ],
          [
            8.51912,
            47.100838,
            496.0
          ],
          [
            8.519065,
            47.100801,
            495.0
          ],
          [
            8.518994,
            47.100771,
            494.0
          ],
          [
            8.518967,
            47.10074,
            493.0
          ],
          [
            8.518931,
            47.100679,
            491.0
          ],
          [
            8.518904,
            47.100648,
            490.0
          ],
          [
            8.518795,
            47.100593,
            488.0
          ],
          [
            8.518715,
            47.100563,
            487.0
          ],
          [
            8.518634,
            47.100557,
            486.0
          ],
          [
            8.518517,
            47.100551,
            484.0
          ],
          [
            8.518437,
            47.100538,
            483.0
          ],
          [
            8.518391,
            47.100508,
            482.0
          ],
          [
            8.518347,
            47.100502,
            481.0
          ],
          [
            8.518284,
            47.10049,
            480.0
          ],
          [
            8.518221,
            47.100465,
            479.0
          ],
          [
            8.518149,
            47.100416,
            478.0
          ],
          [
            8.518086,
            47.100392,
            477.0
          ],
          [
            8.518059,
            47.100392,
            476.0
          ],
          [
            8.517942,
            47.100361,
            475.0
          ],
          [
            8.517871,
            47.100319,
            473.0
          ],
          [
            8.517825,
            47.100294,
            472.0
          ],
          [
            8.517799,
            47.100288,
            472.0
          ],
          [
            8.517789,
            47.100288,
            472.0
          ],
          [
            8.517762,
            47.100282,
            471.0
          ],
          [
            8.517726,
            47.100239,
            470.0
          ],
          [
            8.517691,
            47.100215,
            469.0
          ],
          [
            8.517682,
            47.100196,
            469.0
          ],
          [
            8.517699,
            47.100178,
            469.0
          ],
          [
            8.517673,
            47.100135,
            468.0
          ],
          [
            8.517601,
            47.100074,
            466.0
          ],
          [
            8.517573,
            47.100044,
            465.0
          ],
          [
            8.517556,
            47.100013,
            464.0
          ],
          [
            8.51752,
            47.099976,
            463.0
          ],
          [
            8.517466,
            47.099933,
            462.0
          ],
          [
            8.517457,
            47.099921,
            462.0
          ],
          [
            8.517457,
            47.099909,
            461.0
          ],
          [
            8.517457,
            47.099891,
            461.0
          ],
          [
            8.517403,
            47.099848,
            460.0
          ],
          [
            8.517376,
            47.099866,
            460.0
          ],
          [
            8.517349,
            47.099872,
            460.0
          ],
          [
            8.517332,
            47.099866,
            460.0
          ],
          [
            8.517242,
            47.099805,
            459.0
          ],
          [
            8.517143,
            47.099744,
            458.0
          ],
          [
            8.517107,
            47.099731,
            458.0
          ],
          [
            8.517107,
            47.099725,
            458.0
          ],
          [
            8.517125,
            47.099695,
            457.0
          ],
          [
            8.517116,
            47.09967,
            457.0
          ],
          [
            8.517089,
            47.099658,
            457.0
          ],
          [
            8.517017,
            47.099646,
            456.0
          ],
          [
            8.516954,
            47.099615,
            455.0
          ],
          [
            8.516909,
            47.09956,
            455.0
          ],
          [
            8.516883,
            47.099493,
            454.0
          ],
          [
            8.516846,
            47.099456,
            453.0
          ],
          [
            8.516973,
            47.099401,
            454.0
          ],
          [
            8.51707,
            47.099364,
            455.0
          ],
          [
            8.517206,
            47.099328,
            455.0
          ],
          [
            8.517125,
            47.099144,
            452.0
          ],
          [
            8.517242,
            47.09912,
            452.0
          ],
          [
            8.517395,
            47.098949,
            450.0
          ],
          [
            8.517323,
            47.098924,
            450.0
          ],
          [
            8.517277,
            47.098973,
            450.0
          ],
          [
            8.51725,
            47.098961,
            450.0
          ],
          [
            8.516999,
            47.098863,
            449.0
          ],
          [
            8.516999,
            47.098863,
            449.0
          ]
        ]
      }
    }
  ]
}