{
  "type": "FeatureCollection",
  "features": [
    {
      "type": "Feature",
      "properties": {},
      "geometry": {
        "type": "LineString",
        "coordinates": [
          [
            8.524078,
            47.312366,
            451.0
          ],
          [
            8.524078,
            47.312366,
            451.0
          ],
          [
            8.524068,
            47.312323,
            453.0
          ],
          [
            8.52424,
            47.312323,
            454.0
          ],
          [
            8.524347,
            47.312366,
            456.0
          ],
          [
            8.524347,
            47.312396,
            456.0
          ],
          [
            8.524347,
            47.312445,
            456.0
          ],
          [
            8.524383,
            47.312457,
            455.0
          ],
          [
            8.524437,
            47.312457,
            455.0
          ],
          [
            8.524455,
            47.312457,
            455.0
          ],
          [
            8.524599,
            47.312457,
            455.0
          ],
          [
            8.525452,
            47.312451,
            451.0
          ],
          [
            8.525452,
            47.312408,
            451.0
          ],
          [
            8.52547,
            47.312354,
            451.0
          ],
          [
            8.525479,
            47.312281,
            450.0
          ],
          [
            8.525515,
            47.312281,
            450.0
          ],
          [
            8.525552,
            47.312275,
            450.0
          ],
          [
            8.525605,
            47.312275,
            450.0
          ],
          [
            8.525641,
            47.312275,
            450.0
          ],
          [
            8.525659,
            47.312275,
            450.0
          ],
          [
            8.525686,
            47.312311,
            450.0
          ],
          [
            8.525731,
            47.312354,
            450.0
          ],
          [
            8.525793,
            47.312384,
            450.0
          ],
          [
            8.525839,
            47.31239,
            450.0
          ],
          [
            8.526494,
            47.312366,
            450.0
          ],
          [
            8.526504,
            47.312366,
            450.0
          ],
          [
            8.526504,
            47.312348,
            450.0
          ],
          [
            8.526494,
            47.312268,
            450.0
          ],
          [
            8.526485,
            47.312238,
            450.0
          ],
          [
            8.526422,
            47.31225,
            449.0
          ],
          [
            8.526414,
            47.312208,
            449.0
          ],
          [
            8.526368,
            47.312141,
            449.0
          ],
          [
            8.526368,
            47.312104,
            449.0
          ],
          [
            8.526359,
            47.312049,
            449.0
          ],
          [
            8.526368,
            47.311787,
            449.0
          ],
          [
            8.526422,
            47.311574,
            449.0
          ],
          [
            8.526485,
            47.311355,
            449.0
          ],
          [
            8.526638,
            47.310959,
            450.0
          ],
          [
            8.52671,
            47.310734,
            450.0
          ],
          [
            8.526755,
            47.310703,
            450.0
          ],
          [
            8.526755,
            47.310533,
            450.0
          ],
          [
            8.526791,
            47.310386,
            450.0
          ],
          [
            8.526844,
            47.310252,
            450.0
          ],
          [
            8.526863,
            47.310173,
            450.0
          ],
          [
            8.526871,
            47.310112,
            450.0
          ],
          [
            8.526881,
            47.310039,
            450.0
          ],
          [
            8.526881,
            47.309917,
            450.0
          ],
          [
            8.526871,
            47.309637,
            450.0
          ],
          [
            8.526854,
            47.30957,
            450.0
          ],
          [
            8.526844,
            47.309503,
            450.0
          ],
          [
            8.526773,
            47.309302,
            450.0
          ],
          [
            8.526728,
            47.309241,
            450.0
          ],
          [
            8.526647,
            47.309046,
            450.0
          ],
          [
            8.526575,
            47.308919,
            450.0
          ],
          [
            8.526395,
            47.30862,
            450.0
          ],
          [
            8.526332,
            47.308528,
            450.0
          ],
          [
            8.526234,
            47.308407,
            450.0
          ],
          [
            8.526045,
            47.30809,
            450.0
          ],
          [
            8.525965,
            47.307926,
            450.0
          ],
          [
            8.525938,
            47.307877,
            450.0
          ],
          [
            8.525902,
            47.307828,
            450.0
          ],
          [
            8.525902,
            47.307773,
            450.0
          ],
          [
            8.525766,
            47.307457,
            450.0
          ],
          [
            8.525712,
            47.307359,
            450.0
          ],
          [
            8.525641,
            47.30725,
            450.0
          ],
          [
            8.525569,
            47.307146,
            450.0
          ],
          [
            8.525497,
            47.307036,
            450.0
          ],
          [
            8.525255,
            47.306707,
            450.0
          ],
          [
            8.52521,
            47.306653,
            450.0
          ],
          [
            8.52512,
            47.306543,
            450.0
          ],
          [
            8.524797,
            47.306189,
            450.0
          ],
          [
            8.524751,
            47.306104,
            450.0
          ],
          [
            8.524743,
            47.306037,
            450.0
          ],
          [
            8.524716,
            47.305964,
            451.0
          ],
          [
            8.524644,
            47.305842,
            451.0
          ],
          [
            8.524554,
            47.305587,
            451.0
          ],
          [
            8.5245,
            47.30552,
            451.0
          ],
          [
            8.524455,
            47.305379,
            451.0
          ],
          [
            8.52441,
            47.305245,
            451.0
          ],
          [
            8.524527,
            47.304977,
            451.0
          ],
          [
            8.524724,
            47.304795,
            452.0
          ],
          [
            8.52486,
            47.304722,
            452.0
          ],
          [
            8.524959,
            47.304649,
            452.0
          ],
          [
            8.525263,
            47.304502,
            452.0
          ],
          [
            8.525336,
            47.304459,
            452.0
          ],
          [
            8.525552,
            47.304368,
            452.0
          ],
          [
            8.525731,
            47.304313,
            452.0
          ],
          [
            8.525749,
            47.304252,
            452.0
          ],
          [
            8.526764,
            47.303832,
            453.0
          ],
          [
            8.526907,
            47.303765,
            453.0
          ],
          [
            8.527051,
            47.303686,
            453.0
          ],
          [
            8.527249,
            47.30357,
            453.0
          ],
          [
            8.527447,
            47.303442,
            453.0
          ],
          [
            8.527609,
            47.303351,
            453.0
          ],
          [
            8.527653,
            47.303254,
            454.0
          ],
          [
            8.527815,
            47.303004,
            454.0
          ],
          [
            8.527986,
            47.302754,
            454.0
          ],
          [
            8.528093,
            47.302583,
            454.0
          ],
          [
            8.528202,
            47.302407,
            454.0
          ],
          [
            8.528345,
            47.30217,
            454.0
          ],
          [
            8.528452,
            47.302047,
            455.0
          ],
          [
            8.528578,
            47.301895,
            455.0
          ],
          [
            8.528651,
            47.301834,
            455.0
          ],
          [
            8.528919,
            47.30159,
            455.0
          ],
          [
            8.529198,
            47.301384,
            455.0
          ],
          [
            8.529513,
            47.301195,
            455.0
          ],
          [
            8.529827,
            47.301036,
            456.0
          ],
          [
            8.530169,
            47.300884,
            456.0
          ],
          [
            8.530473,
            47.300768,
            456.0
          ],
          [
            8.531085,
            47.300579,
            456.0
          ],
          [
            8.531569,
            47.300427,
            457.0
          ],
          [
            8.531768,
            47.300378,
            457.0
          ],
          [
            8.531965,
            47.300299,
            457.0
          ],
          [
            8.532045,
            47.300299,
            457.0
          ],
          [
            8.532163,
            47.300226,
            457.0
          ],
          [
            8.532414,
            47.300085,
            457.0
          ],
          [
            8.532819,
            47.299891,
            458.0
          ],
          [
            8.533995,
            47.299172,
            458.0
          ],
          [
            8.534202,
            47.299038,
            459.0
          ],
          [
            8.534399,
            47.298874,
            459.0
          ],
          [
            8.534894,
            47.298441,
            459.0
          ],
          [
            8.535433,
            47.298063,
            460.0
          ],
          [
            8.5358,
            47.29771,
            460.0
          ],
          [
            8.536133,
            47.297368,
            460.0
          ],
          [
            8.536115,
            47.297356,
            460.0
          ],
          [
            8.535863,
            47.297216,
            460.0
          ],
          [
            8.535621,
            47.297076,
            460.0
          ],
          [
            8.535594,
            47.297064,
            460.0
          ],
          [
            8.535649,
            47.296997,
            460.0
          ],
          [
            8.535666,
            47.296942,
            460.0
          ],
          [
            8.536089,
            47.296601,
            460.0
          ],
          [
            8.536429,
            47.296327,
            460.0
          ],
          [
            8.536762,
            47.296083,
            461.0
          ],
          [
            8.537274,
            47.295736,
            461.0
          ],
          [
            8.537705,
            47.295443,
            461.0
          ],
          [
            8.538271,
            47.295066,
            462.0
          ],
          [
            8.538586,
            47.294858,
            462.0
          ],
          [
            8.538828,
            47.294718,
            462.0
          ],
          [
            8.539071,
            47.29459,
            462.0
          ],
          [
            8.539394,
            47.294432,
            463.0
          ],
          [
            8.540247,
            47.294036,
            463.0
          ],
          [
            8.540597,
            47.293816,
            463.0
          ],
          [
            8.5412,
            47.293415,
            464.0
          ],
          [
            8.541595,
            47.293202,
            464.0
          ],
          [
            8.541873,
            47.293,
            464.0
          ],
          [
            8.541991,
            47.292909,
            464.0
          ],
          [
            8.542071,
            47.292817,
            464.0
          ],
          [
            8.542179,
            47.292604,
            465.0
          ],
          [
            8.542205,
            47.292525,
            465.0
          ],
          [
            8.542224,
            47.29247,
            465.0
          ],
          [
            8.542224,
            47.292403,
            465.0
          ],
          [
            8.542314,
            47.292153,
            465.0
          ],
          [
            8.542341,
            47.292025,
            465.0
          ],
          [
            8.542349,
            47.291903,
            465.0
          ],
          [
            8.542431,
            47.291879,
            465.0
          ],
          [
            8.542502,
            47.291849,
            465.0
          ],
          [
            8.542565,
            47.291818,
            465.0
          ],
          [
            8.54261,
            47.291763,
            465.0
          ],
          [
            8.542664,
            47.291666,
            466.0
          ],
          [
            8.542727,
            47.291508,
            466.0
          ],
          [
            8.542853,
            47.291264,
            466.0
          ],
          [
            8.542951,
            47.291099,
            466.0
          ],
          [
            8.543131,
            47.290831,
            466.0
          ],
          [
            8.543391,
            47.290466,
            467.0
          ],
          [
            8.543724,
            47.290027,
            467.0
          ],
          [
            8.543939,
            47.289747,
            467.0
          ],
          [
            8.543976,
            47.289692,
            467.0
          ],
          [
            8.544039,
            47.289637,
            467.0
          ],
          [
            8.54411,
            47.289601,
            467.0
          ],
          [
            8.544165,
            47.289576,
            467.0
          ],
          [
            8.544209,
            47.289534,
            467.0
          ],
          [
            8.544245,
            47.289491,
            467.0
          ],
          [
            8.544416,
            47.289204,
            468.0
          ],
          [
            8.544559,
            47.288954,
            468.0
          ],
          [
            8.544641,
            47.28879,
            468.0
          ],
          [
            8.544721,
            47.288577,
            468.0
          ],
          [
            8.544792,
            47.288547,
            468.0
          ],
          [
            8.544901,
            47.288089,
            469.0
          ],
          [
            8.544928,
            47.287973,
            469.0
          ],
          [
            8.544964,
            47.287608,
            469.0
          ],
          [
            8.544972,
            47.287523,
            469.0
          ],
          [
            8.544972,
            47.287151,
            469.0
          ],
          [
            8.544874,
            47.286925,
            470.0
          ],
          [
            8.544838,
            47.286871,
            470.0
          ],
          [
            8.544829,
            47.286913,
            470.0
          ],
          [
            8.544784,
            47.286956,
            470.0
          ],
          [
            8.544694,
            47.287004,
            470.0
          ],
          [
            8.544245,
            47.28698,
            470.0
          ],
          [
            8.544192,
            47.286968,
            470.0
          ],
          [
            8.544182,
            47.286919,
            470.0
          ],
          [
            8.544182,
            47.286883,
            470.0
          ],
          [
            8.544182,
            47.286822,
            470.0
          ],
          [
            8.544182,
            47.286797,
            470.0
          ],
          [
            8.544209,
            47.286597,
            470.0
          ],
          [
            8.544255,
            47.286139,
            470.0
          ],
          [
            8.544299,
            47.285737,
            470.0
          ],
          [
            8.544308,
            47.285652,
            470.0
          ],
          [
            8.544335,
            47.285567,
            470.0
          ],
          [
            8.544371,
            47.285475,
            470.0
          ],
          [
            8.544488,
            47.285213,
            470.0
          ],
          [
            8.544523,
            47.285152,
            470.0
          ],
          [
            8.544901,
            47.284732,
            470.0
          ],
          [
            8.544991,
            47.284641,
            470.0
          ],
          [
            8.545035,
            47.284616,
            470.0
          ],
          [
            8.545108,
            47.284683,
            470.0
          ],
          [
            8.545134,
            47.284671,
            470.0
          ],
          [
            8.545125,
            47.284659,
            470.0
          ],
          [
            8.544821,
            47.284348,
            472.0
          ],
          [
            8.544784,
            47.284311,
            472.0
          ],
          [
            8.544721,
            47.284244,
            472.0
          ],
          [
            8.544469,
            47.283958,
            474.0
          ],
          [
            8.544326,
            47.283812,
            474.0
          ],
          [
            8.544146,
            47.283696,
            475.0
          ],
          [
            8.544137,
            47.283696,
            475.0
          ],
          [
            8.544092,
            47.283672,
            475.0
          ],
          [
            8.544047,
            47.283653,
            475.0
          ],
          [
            8.544039,
            47.283647,
            475.0
          ],
          [
            8.544039,
            47.283635,
            475.0
          ],
          [
            8.544029,
            47.283623,
            475.0
          ],
          [
            8.544012,
            47.283605,
            475.0
          ],
          [
            8.543966,
            47.283574,
            476.0
          ],
          [
            8.543966,
            47.283568,
            476.0
          ],
          [
            8.544002,
            47.283544,
            476.0
          ],
          [
            8.544029,
            47.283513,
            476.0
          ],
          [
            8.544039,
            47.283507,
            476.0
          ],
          [
            8.544066,
            47.283513,
            476.0
          ],
          [
            8.544102,
            47.283519,
            476.0
          ],
          [
            8.544146,
            47.283507,
            476.0
          ],
          [
            8.544218,
            47.283434,
            477.0
          ],
          [
            8.544281,
            47.283367,
            477.0
          ],
          [
            8.544326,
            47.283318,
            477.0
          ],
          [
            8.544371,
            47.283269,
            477.0
          ],
          [
            8.544433,
            47.283226,
            478.0
          ],
          [
            8.544505,
            47.283177,
            478.0
          ],
          [
            8.544496,
            47.28311,
            478.0
          ],
          [
            8.544488,
            47.282995,
            478.0
          ],
          [
            8.544488,
            47.282861,
            478.0
          ],
          [
            8.544505,
            47.282569,
            479.0
          ],
          [
            8.544532,
            47.282434,
            479.0
          ],
          [
            8.544586,
            47.282288,
            479.0
          ],
          [
            8.544649,
            47.282196,
            479.0
          ],
          [
            8.544731,
            47.282123,
            479.0
          ],
          [
            8.544865,
            47.28202,
            479.0
          ],
          [
            8.545125,
            47.281898,
            480.0
          ],
          [
            8.545297,
            47.281825,
            480.0
          ],
          [
            8.545781,
            47.281648,
            480.0
          ],
          [
            8.546041,
            47.28152,
            480.0
          ],
          [
            8.546113,
            47.281496,
            480.0
          ],
          [
            8.546176,
            47.281496,
            480.0
          ],
          [
            8.546392,
            47.281313,
            480.0
          ],
          [
            8.546626,
            47.281105,
            480.0
          ],
          [
            8.546832,
            47.280965,
            480.0
          ],
          [
            8.547192,
            47.280765,
            480.0
          ],
          [
            8.549132,
            47.279783,
            480.0
          ],
          [
            8.549375,
            47.279662,
            480.0
          ],
          [
            8.549626,
            47.279521,
            480.0
          ],
          [
            8.549733,
            47.279454,
            480.0
          ],
          [
            8.550308,
            47.2791,
            480.0
          ],
          [
            8.55065,
            47.278906,
            480.0
          ],
          [
            8.551018,
            47.278705,
            480.0
          ],
          [
            8.551234,
            47.278625,
            480.0
          ],
          [
            8.551539,
            47.278473,
            480.0
          ],
          [
            8.551674,
            47.278394,
            480.0
          ],
          [
            8.551836,
            47.278272,
            480.0
          ],
          [
            8.552105,
            47.277997,
            480.0
          ],
          [
            8.552303,
            47.277705,
            480.0
          ],
          [
            8.552356,
            47.277589,
            480.0
          ],
          [
            8.552419,
            47.277321,
            480.0
          ],
          [
            8.552419,
            47.277218,
            480.0
          ],
          [
            8.552411,
            47.277102,
            480.0
          ],
          [
            8.552356,
            47.276955,
            480.0
          ],
          [
            8.552312,
            47.276864,
            480.0
          ],
          [
            8.552168,
            47.276657,
            480.0
          ],
          [
            8.551953,
            47.276377,
            480.0
          ],
          [
            8.551629,
            47.276017,
            480.0
          ],
          [
            8.551341,
            47.275651,
            480.0
          ],
          [
            8.551189,
            47.275438,
            480.0
          ],
          [
            8.55109,
            47.275237,
            480.0
          ],
          [
            8.551045,
            47.275109,
            480.0
          ],
          [
            8.551027,
            47.274999,
            480.0
          ],
          [
            8.55101,
            47.274828,
            480.0
          ],
          [
            8.551018,
            47.274682,
            480.0
          ],
          [
            8.551037,
            47.274584,
            480.0
          ],
          [
            8.551054,
            47.274499,
            480.0
          ],
          [
            8.55109,
            47.274414,
            480.0
          ],
          [
            8.551134,
            47.274335,
            480.0
          ],
          [
            8.551297,
            47.27414,
            480.0
          ],
          [
            8.551387,
            47.274012,
            480.0
          ],
          [
            8.551683,
            47.27367,
            480.0
          ],
          [
            8.551773,
            47.273573,
            480.0
          ],
          [
            8.551863,
            47.273493,
            480.0
          ],
          [
            8.55197,
            47.273414,
            480.0
          ],
          [
            8.552205,
            47.273274,
            480.0
          ],
          [
            8.552392,
            47.273189,
            480.0
          ],
          [
            8.552599,
            47.27311,
            480.0
          ],
          [
            8.552797,
            47.273085,
            480.0
          ],
          [
            8.552932,
            47.273079,
            480.0
          ],
          [
            8.553488,
            47.273091,
            480.0
          ],
          [
            8.553848,
            47.273098,
            480.0
          ],
          [
            8.554019,
            47.273073,
            480.0
          ],
          [
            8.55444,
            47.272945,
            480.0
          ],
          [
            8.554612,
            47.272878,
            480.0
          ],
          [
            8.554782,
            47.272805,
            480.0
          ],
          [
            8.555069,
            47.272665,
            480.0
          ],
          [
            8.555213,
            47.272597,
            480.0
          ],
          [
            8.555331,
            47.272518,
            480.0
          ],
          [
            8.555564,
            47.272372,
            480.0
          ],
          [
            8.555771,
            47.272214,
            480.0
          ],
          [
            8.55622,
            47.27183,
            480.0
          ],
          [
            8.556507,
            47.271568,
            480.0
          ],
          [
            8.556767,
            47.271281,
            480.0
          ],
          [
            8.556866,
            47.271122,
            480.0
          ],
          [
            8.556911,
            47.271062,
            480.0
          ],
          [
            8.557459,
            47.270354,
            481.0
          ],
          [
            8.557666,
            47.270068,
            481.0
          ],
          [
            8.558008,
            47.269727,
            482.0
          ],
          [
            8.558222,
            47.269568,
            482.0
          ],
          [
            8.558321,
            47.269471,
            482.0
          ],
          [
            8.558645,
            47.269062,
            482.0
          ],
          [
            8.558771,
            47.268879,
            482.0
          ],
          [
            8.558987,
            47.268471,
            483.0
          ],
          [
            8.559113,
            47.268221,
            483.0
          ],
          [
            8.559184,
            47.268081,
            483.0
          ],
          [
            8.559283,
            47.267703,
            483.0
          ],
          [
            8.559354,
            47.267459,
            483.0
          ],
          [
            8.559444,
            47.267289,
            484.0
          ],
          [
            8.55957,
            47.267112,
            484.0
          ],
          [
            8.559777,
            47.266819,
            484.0
          ],
          [
            8.559768,
            47.266709,
            484.0
          ],
          [
            8.559616,
            47.266721,
            484.0
          ],
          [
            8.55949,
            47.266715,
            484.0
          ],
          [
            8.559031,
            47.266654,
            484.0
          ],
          [
            8.558941,
            47.266642,
            484.0
          ],
          [
            8.558878,
            47.266636,
            484.0
          ],
          [
            8.55887,
            47.266685,
            484.0
          ],
          [
            8.558771,
            47.266923,
            483.0
          ],
          [
            8.558698,
            47.267088,
            483.0
          ],
          [
            8.558528,
            47.267289,
            483.0
          ],
          [
            8.558465,
            47.267343,
            483.0
          ],
          [
            8.558375,
            47.267416,
            483.0
          ],
          [
            8.558339,
            47.267502,
            483.0
          ],
          [
            8.557953,
            47.267879,
            483.0
          ],
          [
            8.557684,
            47.26816,
            482.0
          ],
          [
            8.557621,
            47.268227,
            482.0
          ]
        ]
      }
    }
  ]
}