{
  "type": "FeatureCollection",
  "features": [
    {
      "type": "Feature",
      "properties": {},
      "geometry": {
        "type": "LineString",
        "coordinates": [
          [
            7.499306,
            47.488995,
            379.0
          ],
          [
            7.499316,
            47.488977,
            377.0
          ],
          [
            7.499298,
            47.488971,
            377.0
          ],
          [
            7.499271,
            47.488959,
            377.0
          ],
          [
            7.499235,
            47.488953,
            377.0
          ],
          [
            7.499226,
            47.488953,
            377.0
          ],
          [
            7.499029,
            47.48891,
            377.0
          ],
          [
            7.498939,
            47.488886,
            377.0
          ],
          [
            7.498597,
            47.488765,
            378.0
          ],
          [
            7.498543,
            47.488746,
            378.0
          ],
          [
            7.498516,
            47.48874,
            378.0
          ],
          [
            7.498463,
            47.48874,
            378.0
          ],
          [
            7.498436,
            47.48871,
            378.0
          ],
          [
            7.498417,
            47.488674,
            378.0
          ],
          [
            7.498436,
            47.488649,
            378.0
          ],
          [
            7.498229,
            47.488588,
            379.0
          ],
          [
            7.49822,
            47.488588,
            379.0
          ],
          [
            7.498121,
            47.488588,
            379.0
          ],
          [
            7.498031,
            47.488218,
            382.0
          ],
          [
            7.498013,
            47.488127,
            383.0
          ],
          [
            7.497995,
            47.48806,
            383.0
          ],
          [
            7.49796,
            47.487817,
            385.0
          ],
          [
            7.497914,
            47.487611,
            386.0
          ],
          [
            7.497851,
            47.487453,
            388.0
          ],
          [
            7.497843,
            47.487429,
            388.0
          ],
          [
            7.497627,
            47.487083,
            391.0
          ],
          [
            7.497492,
            47.486901,
            393.0
          ],
          [
            7.496962,
            47.486373,
            399.0
          ],
          [
            7.496746,
            47.486215,
            401.0
          ],
          [
            7.49636,
            47.485936,
            406.0
          ],
          [
            7.49575,
            47.485505,
            415.0
          ],
          [
            7.495094,
            47.484989,
            425.0
          ],
          [
            7.495031,
            47.484934,
            426.0
          ],
          [
            7.494681,
            47.484637,
            431.0
          ],
          [
            7.494645,
            47.484588,
            432.0
          ],
          [
            7.494599,
            47.484534,
            433.0
          ],
          [
            7.494581,
            47.484436,
            434.0
          ],
          [
            7.494608,
            47.484327,
            436.0
          ],
          [
            7.494734,
            47.484157,
            438.0
          ],
          [
            7.494985,
            47.483926,
            442.0
          ],
          [
            7.495094,
            47.483811,
            444.0
          ],
          [
            7.495507,
            47.483459,
            450.0
          ],
          [
            7.495579,
            47.483398,
            451.0
          ],
          [
            7.495633,
            47.483307,
            452.0
          ],
          [
            7.495633,
            47.483228,
            453.0
          ],
          [
            7.495597,
            47.483107,
            455.0
          ],
          [
            7.49557,
            47.483021,
            456.0
          ],
          [
            7.495453,
            47.482743,
            459.0
          ],
          [
            7.49522,
            47.482238,
            465.0
          ],
          [
            7.495157,
            47.482178,
            466.0
          ],
          [
            7.495165,
            47.482105,
            467.0
          ],
          [
            7.495075,
            47.481923,
            469.0
          ],
          [
            7.495067,
            47.481783,
            472.0
          ],
          [
            7.495084,
            47.481686,
            473.0
          ],
          [
            7.495157,
            47.481534,
            476.0
          ],
          [
            7.495345,
            47.481334,
            481.0
          ],
          [
            7.495381,
            47.481267,
            482.0
          ],
          [
            7.495426,
            47.481152,
            483.0
          ],
          [
            7.495444,
            47.480988,
            486.0
          ],
          [
            7.495371,
            47.480679,
            491.0
          ],
          [
            7.49521,
            47.480442,
            495.0
          ],
          [
            7.494842,
            47.479993,
            507.0
          ],
          [
            7.494725,
            47.479907,
            510.0
          ],
          [
            7.494608,
            47.47981,
            510.0
          ],
          [
            7.494348,
            47.479659,
            510.0
          ],
          [
            7.494268,
            47.479592,
            510.0
          ],
          [
            7.494205,
            47.479415,
            510.0
          ],
          [
            7.494096,
            47.479179,
            510.0
          ],
          [
            7.493935,
            47.478894,
            510.0
          ],
          [
            7.4938,
            47.478747,
            510.0
          ],
          [
            7.493576,
            47.47856,
            510.0
          ],
          [
            7.493387,
            47.478401,
            510.0
          ],
          [
            7.493109,
            47.478268,
            510.0
          ],
          [
            7.49291,
            47.478183,
            510.0
          ],
          [
            7.492398,
            47.477964,
            510.0
          ],
          [
            7.491626,
            47.477588,
            510.0
          ],
          [
            7.491438,
            47.477515,
            510.0
          ],
          [
            7.491203,
            47.477436,
            510.0
          ],
          [
            7.491042,
            47.477406,
            510.0
          ],
          [
            7.490935,
            47.477394,
            510.0
          ],
          [
            7.490809,
            47.477369,
            510.0
          ],
          [
            7.490665,
            47.477333,
            510.0
          ],
          [
            7.490566,
            47.477272,
            510.0
          ],
          [
            7.490431,
            47.477133,
            510.0
          ],
          [
            7.490377,
            47.477066,
            510.0
          ],
          [
            7.490297,
            47.476914,
            510.0
          ],
          [
            7.490207,
            47.476695,
            510.0
          ],
          [
            7.490171,
            47.476634,
            510.0
          ],
          [
            7.4901,
            47.476532,
            510.0
          ],
          [
            7.49,
            47.476489,
            510.0
          ],
          [
            7.48991,
            47.476447,
            510.0
          ],
          [
            7.489865,
            47.476392,
            510.0
          ],
          [
            7.489811,
            47.476313,
            510.0
          ],
          [
            7.489264,
            47.475427,
            510.0
          ],
          [
            7.489165,
            47.475269,
            510.0
          ],
          [
            7.489147,
            47.475208,
            510.0
          ],
          [
            7.489228,
            47.47522,
            514.0
          ],
          [
            7.489291,
            47.47522,
            517.0
          ],
          [
            7.489335,
            47.475208,
            518.0
          ],
          [
            7.489362,
            47.475183,
            518.0
          ],
          [
            7.489389,
            47.475141,
            519.0
          ],
          [
            7.489398,
            47.475111,
            519.0
          ],
          [
            7.489408,
            47.475099,
            520.0
          ],
          [
            7.489398,
            47.475074,
            520.0
          ],
          [
            7.489416,
            47.475074,
            519.0
          ],
          [
            7.489452,
            47.47508,
            518.0
          ],
          [
            7.489479,
            47.475074,
            517.0
          ],
          [
            7.48956,
            47.474977,
            510.0
          ],
          [
            7.489658,
            47.474849,
            510.0
          ],
          [
            7.489748,
            47.474716,
            510.0
          ],
          [
            7.489847,
            47.474589,
            510.0
          ],
          [
            7.489937,
            47.474449,
            510.0
          ],
          [
            7.489947,
            47.47437,
            510.0
          ],
          [
            7.489928,
            47.474261,
            510.0
          ],
          [
            7.490117,
            47.474322,
            518.0
          ],
          [
            7.490243,
            47.474151,
            517.0
          ],
          [
            7.49026,
            47.474097,
            517.0
          ],
          [
            7.490234,
            47.474048,
            517.0
          ],
          [
            7.490108,
            47.473957,
            516.0
          ],
          [
            7.489865,
            47.473696,
            515.0
          ],
          [
            7.489784,
            47.473623,
            515.0
          ],
          [
            7.489658,
            47.473453,
            514.0
          ],
          [
            7.489515,
            47.473162,
            512.0
          ],
          [
            7.489488,
            47.473107,
            512.0
          ],
          [
            7.489434,
            47.472846,
            511.0
          ],
          [
            7.489398,
            47.472567,
            510.0
          ],
          [
            7.489084,
            47.472208,
            510.0
          ],
          [
            7.488922,
            47.471868,
            510.0
          ],
          [
            7.488815,
            47.471638,
            510.0
          ],
          [
            7.488589,
            47.471389,
            510.0
          ],
          [
            7.488419,
            47.471261,
            510.0
          ],
          [
            7.488249,
            47.471127,
            510.0
          ],
          [
            7.487853,
            47.470952,
            510.0
          ],
          [
            7.487449,
            47.470757,
            510.0
          ],
          [
            7.487251,
            47.470618,
            510.0
          ],
          [
            7.487,
            47.470284,
            510.0
          ],
          [
            7.486945,
            47.470144,
            510.0
          ],
          [
            7.486901,
            47.469944,
            510.0
          ],
          [
            7.486918,
            47.469773,
            510.0
          ],
          [
            7.486964,
            47.469688,
            510.0
          ],
          [
            7.487054,
            47.469628,
            510.0
          ],
          [
            7.487018,
            47.469573,
            509.0
          ],
          [
            7.486973,
            47.469488,
            510.0
          ],
          [
            7.487008,
            47.469403,
            511.0
          ],
          [
            7.487081,
            47.469288,
            511.0
          ],
          [
            7.487125,
            47.469245,
            511.0
          ],
          [
            7.487188,
            47.469215,
            511.0
          ],
          [
            7.487297,
            47.469185,
            512.0
          ],
          [
            7.487368,
            47.469172,
            512.0
          ],
          [
            7.487314,
            47.469124,
            512.0
          ],
          [
            7.487413,
            47.468875,
            514.0
          ],
          [
            7.487484,
            47.468625,
            515.0
          ],
          [
            7.487458,
            47.468438,
            516.0
          ],
          [
            7.48735,
            47.468267,
            517.0
          ],
          [
            7.487224,
            47.46814,
            518.0
          ],
          [
            7.486838,
            47.467763,
            522.0
          ],
          [
            7.486677,
            47.467575,
            524.0
          ],
          [
            7.486002,
            47.466622,
            534.0
          ],
          [
            7.485715,
            47.466276,
            538.0
          ],
          [
            7.485652,
            47.466105,
            540.0
          ],
          [
            7.485536,
            47.46596,
            541.0
          ],
          [
            7.48541,
            47.465869,
            542.0
          ],
          [
            7.485221,
            47.465729,
            544.0
          ],
          [
            7.484907,
            47.465559,
            547.0
          ],
          [
            7.484844,
            47.465541,
            547.0
          ],
          [
            7.484637,
            47.465511,
            549.0
          ],
          [
            7.484574,
            47.465504,
            549.0
          ],
          [
            7.484314,
            47.465462,
            551.0
          ],
          [
            7.484197,
            47.465419,
            551.0
          ],
          [
            7.484116,
            47.465395,
            551.0
          ],
          [
            7.483901,
            47.465255,
            553.0
          ],
          [
            7.483784,
            47.465158,
            553.0
          ],
          [
            7.483729,
            47.46511,
            554.0
          ],
          [
            7.483694,
            47.465061,
            554.0
          ],
          [
            7.483631,
            47.464933,
            555.0
          ],
          [
            7.483586,
            47.464824,
            555.0
          ],
          [
            7.483542,
            47.46483,
            555.0
          ],
          [
            7.483515,
            47.464848,
            556.0
          ],
          [
            7.483478,
            47.464873,
            556.0
          ],
          [
            7.483469,
            47.464891,
            556.0
          ],
          [
            7.483469,
            47.464915,
            556.0
          ],
          [
            7.483469,
            47.465201,
            558.0
          ],
          [
            7.483461,
            47.465231,
            558.0
          ],
          [
            7.483415,
            47.465377,
            559.0
          ],
          [
            7.483371,
            47.465432,
            559.0
          ],
          [
            7.483226,
            47.465468,
            560.0
          ],
          [
            7.483102,
            47.465468,
            560.0
          ],
          [
            7.482626,
            47.465432,
            560.0
          ],
          [
            7.482436,
            47.465432,
            560.0
          ],
          [
            7.482211,
            47.465304,
            564.0
          ],
          [
            7.48197,
            47.465189,
            568.0
          ],
          [
            7.481825,
            47.46514,
            570.0
          ],
          [
            7.481618,
            47.465098,
            570.0
          ],
          [
            7.481618,
            47.465098,
            570.0
          ],
          [
            7.481592,
            47.465092,
            570.0
          ],
          [
            7.481322,
            47.465037,
            571.0
          ],
          [
            7.481205,
            47.464982,
            571.0
          ],
          [
            7.480909,
            47.464873,
            571.0
          ],
          [
            7.480765,
            47.46483,
            571.0
          ],
          [
            7.480649,
            47.464824,
            572.0
          ],
          [
            7.480452,
            47.464745,
            572.0
          ],
          [
            7.480155,
            47.464648,
            572.0
          ],
          [
            7.479993,
            47.464581,
            572.0
          ],
          [
            7.479391,
            47.464417,
            573.0
          ],
          [
            7.479131,
            47.464345,
            574.0
          ],
          [
            7.478933,
            47.464296,
            574.0
          ],
          [
            7.478645,
            47.464241,
            574.0
          ],
          [
            7.478457,
            47.464253,
            574.0
          ],
          [
            7.478115,
            47.464204,
            575.0
          ],
          [
            7.47781,
            47.464174,
            575.0
          ],
          [
            7.477612,
            47.464223,
            575.0
          ],
          [
            7.477406,
            47.464186,
            576.0
          ],
          [
            7.477343,
            47.464156,
            576.0
          ],
          [
            7.476794,
            47.463919,
            576.0
          ],
          [
            7.476131,
            47.463731,
            577.0
          ],
          [
            7.475241,
            47.463445,
            578.0
          ],
          [
            7.475062,
            47.463373,
            579.0
          ],
          [
            7.474693,
            47.463257,
            579.0
          ],
          [
            7.474217,
            47.463142,
            580.0
          ],
          [
            7.473758,
            47.463008,
            581.0
          ],
          [
            7.473318,
            47.462911,
            583.0
          ],
          [
            7.473022,
            47.462857,
            585.0
          ],
          [
            7.472949,
            47.46282,
            585.0
          ],
          [
            7.47286,
            47.462784,
            586.0
          ],
          [
            7.472735,
            47.462759,
            586.0
          ],
          [
            7.472672,
            47.462716,
            587.0
          ],
          [
            7.472349,
            47.462504,
            589.0
          ],
          [
            7.47198,
            47.462273,
            593.0
          ],
          [
            7.47162,
            47.46211,
            598.0
          ],
          [
            7.47145,
            47.461939,
            602.0
          ],
          [
            7.471217,
            47.461757,
            606.0
          ],
          [
            7.470857,
            47.461648,
            611.0
          ],
          [
            7.470776,
            47.461617,
            612.0
          ],
          [
            7.470605,
            47.46152,
            615.0
          ],
          [
            7.470462,
            47.461502,
            616.0
          ],
          [
            7.470219,
            47.461587,
            608.0
          ],
          [
            7.469707,
            47.461872,
            598.0
          ],
          [
            7.469582,
            47.462018,
            595.0
          ],
          [
            7.469402,
            47.462122,
            592.0
          ],
          [
            7.46932,
            47.462006,
            595.0
          ],
          [
            7.469204,
            47.461897,
            597.0
          ],
          [
            7.46897,
            47.461763,
            601.0
          ],
          [
            7.468441,
            47.461447,
            608.0
          ],
          [
            7.468054,
            47.461393,
            605.0
          ],
          [
            7.466294,
            47.46098,
            589.0
          ],
          [
            7.46607,
            47.460944,
            587.0
          ],
          [
            7.465701,
            47.46095,
            584.0
          ],
          [
            7.465332,
            47.460986,
            581.0
          ],
          [
            7.464389,
            47.460494,
            590.0
          ],
          [
            7.46376,
            47.460123,
            594.0
          ],
          [
            7.463167,
            47.459832,
            598.0
          ],
          [
            7.462988,
            47.459759,
            599.0
          ],
          [
            7.462764,
            47.459692,
            600.0
          ],
          [
            7.462575,
            47.459631,
            601.0
          ],
          [
            7.461865,
            47.45923,
            606.0
          ],
          [
            7.461506,
            47.459097,
            608.0
          ],
          [
            7.461649,
            47.459261,
            601.0
          ],
          [
            7.461775,
            47.45948,
            596.0
          ],
          [
            7.46173,
            47.459662,
            592.0
          ],
          [
            7.461632,
            47.459856,
            588.0
          ],
          [
            7.461433,
            47.460032,
            584.0
          ],
          [
            7.461217,
            47.460123,
            581.0
          ],
          [
            7.461047,
            47.459959,
            583.0
          ],
          [
            7.460976,
            47.459972,
            583.0
          ],
          [
            7.46093,
            47.459959,
            583.0
          ],
          [
            7.460715,
            47.459735,
            582.0
          ],
          [
            7.460355,
            47.459504,
            582.0
          ],
          [
            7.460167,
            47.459389,
            582.0
          ],
          [
            7.460104,
            47.459334,
            582.0
          ],
          [
            7.459996,
            47.459249,
            582.0
          ],
          [
            7.459619,
            47.458878,
            581.0
          ],
          [
            7.459529,
            47.458824,
            581.0
          ],
          [
            7.45943,
            47.458799,
            581.0
          ],
          [
            7.459349,
            47.458787,
            581.0
          ],
          [
            7.459215,
            47.458781,
            581.0
          ],
          [
            7.459089,
            47.458781,
            581.0
          ],
          [
            7.458631,
            47.458781,
            581.0
          ],
          [
            7.458506,
            47.458775,
            581.0
          ],
          [
            7.45837,
            47.458757,
            581.0
          ],
          [
            7.458227,
            47.458739,
            580.0
          ],
          [
            7.458074,
            47.458721,
            580.0
          ],
          [
            7.457238,
            47.458623,
            578.0
          ],
          [
            7.456753,
            47.458587,
            575.0
          ],
          [
            7.456466,
            47.458574,
            573.0
          ],
          [
            7.45617,
            47.458562,
            572.0
          ],
          [
            7.455864,
            47.458562,
            570.0
          ],
          [
            7.455684,
            47.458593,
            568.0
          ],
          [
            7.455343,
            47.458684,
            565.0
          ],
          [
            7.455145,
            47.458715,
            563.0
          ],
          [
            7.454786,
            47.458733,
            560.0
          ],
          [
            7.454256,
            47.458739,
            557.0
          ],
          [
            7.453646,
            47.458775,
            554.0
          ],
          [
            7.453439,
            47.458787,
            553.0
          ],
          [
            7.453233,
            47.458793,
            552.0
          ],
          [
            7.453106,
            47.458799,
            552.0
          ],
          [
            7.45299,
            47.458787,
            551.0
          ],
          [
            7.452873,
            47.458769,
            550.0
          ],
          [
            7.452738,
            47.458739,
            549.0
          ],
          [
            7.452388,
            47.458666,
            547.0
          ],
          [
            7.452307,
            47.458654,
            546.0
          ],
          [
            7.452235,
            47.458648,
            546.0
          ],
          [
            7.452136,
            47.45866,
            545.0
          ],
          [
            7.451948,
            47.458721,
            544.0
          ],
          [
            7.451812,
            47.458763,
            543.0
          ],
          [
            7.451659,
            47.458793,
            541.0
          ],
          [
            7.451472,
            47.45883,
            540.0
          ],
          [
            7.451265,
            47.458836,
            538.0
          ],
          [
            7.45087,
            47.458848,
            534.0
          ],
          [
            7.45042,
            47.45883,
            529.0
          ],
          [
            7.449998,
            47.458793,
            524.0
          ],
          [
            7.449665,
            47.458739,
            520.0
          ],
          [
            7.449468,
            47.458715,
            518.0
          ],
          [
            7.449351,
            47.458715,
            517.0
          ],
          [
            7.449135,
            47.458757,
            514.0
          ],
          [
            7.449109,
            47.45869,
            515.0
          ],
          [
            7.449145,
            47.458587,
            517.0
          ],
          [
            7.449252,
            47.458435,
            520.0
          ],
          [
            7.449271,
            47.458326,
            520.0
          ],
          [
            7.449271,
            47.458271,
            519.0
          ],
          [
            7.449271,
            47.45821,
            519.0
          ],
          [
            7.448822,
            47.458143,
            518.0
          ],
          [
            7.448462,
            47.458101,
            517.0
          ],
          [
            7.44822,
            47.458107,
            517.0
          ],
          [
            7.447996,
            47.458167,
            516.0
          ],
          [
            7.447824,
            47.458247,
            516.0
          ],
          [
            7.447654,
            47.458344,
            515.0
          ],
          [
            7.447401,
            47.458544,
            514.0
          ],
          [
            7.447168,
            47.458733,
            514.0
          ],
          [
            7.447061,
            47.458818,
            513.0
          ],
          [
            7.446944,
            47.458896,
            513.0
          ],
          [
            7.446746,
            47.458988,
            512.0
          ],
          [
            7.446468,
            47.459061,
            512.0
          ],
          [
            7.446351,
            47.459085,
            511.0
          ],
          [
            7.446261,
            47.45917,
            511.0
          ],
          [
            7.446216,
            47.459279,
            511.0
          ],
          [
            7.446135,
            47.459315,
            511.0
          ],
          [
            7.445956,
            47.459358,
            510.0
          ],
          [
            7.445776,
            47.45934,
            511.0
          ],
          [
            7.445659,
            47.459279,
            512.0
          ],
          [
            7.445606,
            47.459218,
            512.0
          ],
          [
            7.445587,
            47.459127,
            516.0
          ],
          [
            7.44548,
            47.458739,
            519.0
          ],
          [
            7.445506,
            47.458605,
            520.0
          ],
          [
            7.445506,
            47.458605,
            520.0
          ],
          [
            7.445506,
            47.458605,
            520.0
          ],
          [
            7.445543,
            47.458562,
            520.0
          ],
          [
            7.445596,
            47.458526,
            520.0
          ],
          [
            7.445669,
            47.458508,
            521.0
          ],
          [
            7.445749,
            47.458502,
            522.0
          ],
          [
            7.445893,
            47.458502,
            524.0
          ],
          [
            7.445992,
            47.458495,
            525.0
          ],
          [
            7.44609,
            47.458465,
            526.0
          ],
          [
            7.446342,
            47.458314,
            530.0
          ],
          [
            7.446432,
            47.458277,
            531.0
          ],
          [
            7.446612,
            47.458235,
            533.0
          ],
          [
            7.446764,
            47.458186,
            535.0
          ],
          [
            7.446872,
            47.458107,
            536.0
          ],
          [
            7.446935,
            47.458016,
            538.0
          ],
          [
            7.446962,
            47.457919,
            539.0
          ],
          [
            7.446935,
            47.457809,
            541.0
          ],
          [
            7.446864,
            47.457694,
            543.0
          ],
          [
            7.446899,
            47.457561,
            547.0
          ],
          [
            7.447124,
            47.457154,
            552.0
          ],
          [
            7.447168,
            47.457032,
            553.0
          ],
          [
            7.447806,
            47.456503,
            559.0
          ],
          [
            7.448443,
            47.455926,
            568.0
          ],
          [
            7.448633,
            47.455702,
            574.0
          ],
          [
            7.448875,
            47.455483,
            580.0
          ],
          [
            7.449099,
            47.455252,
            586.0
          ],
          [
            7.449378,
            47.455015,
            593.0
          ],
          [
            7.44972,
            47.454809,
            599.0
          ],
          [
            7.449791,
            47.454772,
            601.0
          ],
          [
            7.44999,
            47.454584,
            607.0
          ],
          [
            7.450393,
            47.45431,
            616.0
          ],
          [
            7.450654,
            47.454135,
            622.0
          ],
          [
            7.45078,
            47.454007,
            625.0
          ],
          [
            7.450833,
            47.453928,
            627.0
          ],
          [
            7.450879,
            47.453819,
            630.0
          ],
          [
            7.451022,
            47.453363,
            643.0
          ],
          [
            7.451049,
            47.453248,
            646.0
          ],
          [
            7.451112,
            47.453108,
            649.0
          ],
          [
            7.451202,
            47.452975,
            653.0
          ],
          [
            7.451283,
            47.452871,
            656.0
          ],
          [
            7.451355,
            47.452786,
            658.0
          ],
          [
            7.451489,
            47.452683,
            661.0
          ],
          [
            7.451722,
            47.452543,
            665.0
          ],
          [
            7.452288,
            47.452239,
            673.0
          ],
          [
            7.45273,
            47.451948,
            679.0
          ],
          [
            7.45307,
            47.451736,
            685.0
          ],
          [
            7.453439,
            47.451456,
            692.0
          ],
          [
            7.453619,
            47.451322,
            696.0
          ],
          [
            7.45387,
            47.451188,
            700.0
          ],
          [
            7.454212,
            47.451025,
            705.0
          ],
          [
            7.454309,
            47.450988,
            706.0
          ],
          [
            7.454462,
            47.450946,
            708.0
          ],
          [
            7.454751,
            47.450897,
            711.0
          ],
          [
            7.455038,
            47.45086,
            714.0
          ],
          [
            7.45529,
            47.450799,
            717.0
          ],
          [
            7.455496,
            47.450733,
            719.0
          ],
          [
            7.455613,
            47.450684,
            721.0
          ],
          [
            7.45572,
            47.45066,
            722.0
          ],
          [
            7.455828,
            47.45066,
            723.0
          ],
          [
            7.45599,
            47.450666,
            724.0
          ],
          [
            7.456214,
            47.45049,
            726.0
          ],
          [
            7.456313,
            47.450417,
            727.0
          ],
          [
            7.456439,
            47.450362,
            728.0
          ],
          [
            7.456556,
            47.45032,
            729.0
          ],
          [
            7.456646,
            47.450302,
            730.0
          ],
          [
            7.456753,
            47.450289,
            730.0
          ],
          [
            7.456888,
            47.450289,
            731.0
          ],
          [
            7.457023,
            47.450296,
            732.0
          ],
          [
            7.457122,
            47.450314,
            733.0
          ],
          [
            7.457221,
            47.450338,
            734.0
          ],
          [
            7.457328,
            47.45038,
            734.0
          ],
          [
            7.457598,
            47.450514,
            736.0
          ],
          [
            7.45794,
            47.450684,
            739.0
          ],
          [
            7.45803,
            47.450727,
            740.0
          ],
          [
            7.45812,
            47.450751,
            740.0
          ],
          [
            7.4582,
            47.450763,
            740.0
          ],
          [
            7.458299,
            47.450763,
            740.0
          ],
          [
            7.458407,
            47.450757,
            740.0
          ],
          [
            7.458506,
            47.450727,
            740.0
          ],
          [
            7.458577,
            47.45069,
            740.0
          ],
          [
            7.458829,
            47.450721,
            742.0
          ],
          [
            7.459223,
            47.450769,
            745.0
          ],
          [
            7.459556,
            47.450836,
            747.0
          ],
          [
            7.460293,
            47.451012,
            752.0
          ],
          [
            7.46102,
            47.451225,
            757.0
          ],
          [
            7.461353,
            47.45131,
            759.0
          ],
          [
            7.461596,
            47.451365,
            760.0
          ],
          [
            7.461766,
            47.451395,
            760.0
          ],
          [
            7.46182,
            47.451407,
            760.0
          ],
          [
            7.461883,
            47.451407,
            760.0
          ],
          [
            7.461928,
            47.451407,
            760.0
          ],
          [
            7.461991,
            47.451395,
            760.0
          ],
          [
            7.462089,
            47.451359,
            760.0
          ],
          [
            7.462225,
            47.451304,
            760.0
          ],
          [
            7.462349,
            47.451255,
            760.0
          ],
          [
            7.462422,
            47.451237,
            760.0
          ],
          [
            7.462502,
            47.451225,
            760.0
          ],
          [
            7.462611,
            47.451219,
            760.0
          ],
          [
            7.462943,
            47.451219,
            760.0
          ],
          [
            7.463177,
            47.451212,
            759.0
          ],
          [
            7.463464,
            47.451206,
            758.0
          ],
          [
            7.463841,
            47.451206,
            755.0
          ],
          [
            7.464012,
            47.451206,
            755.0
          ],
          [
            7.464156,
            47.451206,
            754.0
          ],
          [
            7.464254,
            47.451188,
            753.0
          ],
          [
            7.464523,
            47.451115,
            752.0
          ],
          [
            7.464632,
            47.451079,
            751.0
          ],
          [
            7.464641,
            47.451073,
            751.0
          ],
          [
            7.464802,
            47.451006,
            750.0
          ],
          [
            7.464919,
            47.450927,
            748.0
          ],
          [
            7.465036,
            47.45086,
            747.0
          ],
          [
            7.465225,
            47.450793,
            746.0
          ],
          [
            7.465485,
            47.450702,
            743.0
          ],
          [
            7.465611,
            47.450636,
            742.0
          ],
          [
            7.465655,
            47.450612,
            741.0
          ],
          [
            7.465791,
            47.450533,
            740.0
          ],
          [
            7.465898,
            47.450405,
            740.0
          ],
          [
            7.465952,
            47.450302,
            740.0
          ],
          [
            7.465988,
            47.45018,
            740.0
          ],
          [
            7.466007,
            47.450107,
            740.0
          ],
          [
            7.46589,
            47.450052,
            740.0
          ],
          [
            7.465844,
            47.45004,
            740.0
          ],
          [
            7.465791,
            47.450028,
            740.0
          ],
          [
            7.465691,
            47.450022,
            740.0
          ],
          [
            7.465575,
            47.45001,
            740.0
          ],
          [
            7.465485,
            47.450004,
            740.0
          ],
          [
            7.465431,
            47.449998,
            740.0
          ],
          [
            7.465395,
            47.449985,
            740.0
          ],
          [
            7.465359,
            47.449973,
            740.0
          ],
          [
            7.465315,
            47.449943,
            740.0
          ],
          [
            7.465189,
            47.449864,
            740.0
          ],
          [
            7.465009,
            47.449731,
            740.0
          ],
          [
            7.464838,
            47.449609,
            738.0
          ],
          [
            7.464641,
            47.449433,
            737.0
          ],
          [
            7.464515,
            47.449324,
            735.0
          ],
          [
            7.464246,
            47.449135,
            733.0
          ],
          [
            7.464075,
            47.449002,
            732.0
          ],
          [
            7.463967,
            47.448917,
            731.0
          ],
          [
            7.463221,
            47.44837,
            721.0
          ],
          [
            7.462907,
            47.448176,
            716.0
          ],
          [
            7.462745,
            47.448096,
            713.0
          ],
          [
            7.462404,
            47.44792,
            708.0
          ],
          [
            7.461722,
            47.447586,
            699.0
          ],
          [
            7.46138,
            47.44738,
            693.0
          ],
          [
            7.461011,
            47.447131,
            686.0
          ],
          [
            7.460715,
            47.446887,
            680.0
          ],
          [
            7.460554,
            47.446772,
            680.0
          ],
          [
            7.46068,
            47.446547,
            680.0
          ],
          [
            7.460707,
            47.446474,
            680.0
          ],
          [
            7.460715,
            47.446413,
            681.0
          ],
          [
            7.460707,
            47.446335,
            681.0
          ],
          [
            7.46067,
            47.446213,
            683.0
          ],
          [
            7.460617,
            47.446091,
            684.0
          ],
          [
            7.460491,
            47.445891,
            687.0
          ],
          [
            7.460338,
            47.445745,
            689.0
          ],
          [
            7.460078,
            47.445545,
            692.0
          ],
          [
            7.459907,
            47.445442,
            693.0
          ],
          [
            7.459673,
            47.44532,
            696.0
          ],
          [
            7.459449,
            47.445217,
            698.0
          ],
          [
            7.459125,
            47.445059,
            700.0
          ],
          [
            7.459017,
            47.445005,
            700.0
          ],
          [
            7.458982,
            47.444962,
            700.0
          ],
          [
            7.458963,
            47.444907,
            700.0
          ],
          [
            7.458982,
            47.444858,
            700.0
          ],
          [
            7.459009,
            47.444816,
            700.0
          ],
          [
            7.459044,
            47.444785,
            700.0
          ],
          [
            7.459107,
            47.444761,
            700.0
          ],
          [
            7.45917,
            47.444755,
            700.0
          ],
          [
            7.459233,
            47.444761,
            700.0
          ],
          [
            7.459359,
            47.444797,
            700.0
          ],
          [
            7.459808,
            47.444986,
            700.0
          ],
          [
            7.46023,
            47.445168,
            697.0
          ],
          [
            7.460508,
            47.445308,
            694.0
          ],
          [
            7.460741,
            47.445381,
            693.0
          ],
          [
            7.460913,
            47.445399,
            691.0
          ],
          [
            7.461066,
            47.445393,
            690.0
          ],
          [
            7.461173,
            47.445369,
            689.0
          ],
          [
            7.461254,
            47.445344,
            689.0
          ],
          [
            7.461336,
            47.445308,
            688.0
          ],
          [
            7.461596,
            47.445192,
            685.0
          ],
          [
            7.461856,
            47.445053,
            682.0
          ],
          [
            7.462242,
            47.444822,
            678.0
          ],
          [
            7.462538,
            47.444628,
            675.0
          ],
          [
            7.462754,
            47.444494,
            672.0
          ],
          [
            7.463033,
            47.444336,
            670.0
          ],
          [
            7.463185,
            47.444257,
            668.0
          ],
          [
            7.46324,
            47.444245,
            668.0
          ],
          [
            7.463311,
            47.444233,
            667.0
          ],
          [
            7.463707,
            47.444209,
            664.0
          ],
          [
            7.464425,
            47.444178,
            659.0
          ],
          [
            7.464829,
            47.44416,
            657.0
          ],
          [
            7.465718,
            47.444135,
            653.0
          ],
          [
            7.466994,
            47.444111,
            647.0
          ],
          [
            7.467911,
            47.444099,
            642.0
          ],
          [
            7.468854,
            47.444093,
            638.0
          ],
          [
            7.46924,
            47.444105,
            637.0
          ],
          [
            7.469617,
            47.444123,
            636.0
          ],
          [
            7.470066,
            47.44416,
            634.0
          ],
          [
            7.470471,
            47.444209,
            632.0
          ],
          [
            7.470875,
            47.444269,
            631.0
          ],
          [
            7.471387,
            47.444354,
            629.0
          ],
          [
            7.471953,
            47.444451,
            627.0
          ],
          [
            7.47233,
            47.44453,
            626.0
          ],
          [
            7.472599,
            47.444597,
            625.0
          ],
          [
            7.472905,
            47.444664,
            623.0
          ],
          [
            7.473039,
            47.444676,
            623.0
          ],
          [
            7.473139,
            47.444682,
            623.0
          ],
          [
            7.473247,
            47.444664,
            622.0
          ],
          [
            7.473318,
            47.444634,
            622.0
          ],
          [
            7.473381,
            47.444579,
            621.0
          ],
          [
            7.473399,
            47.444536,
            621.0
          ],
          [
            7.473399,
            47.444536,
            621.0
          ],
          [
            7.473426,
            47.444481,
            621.0
          ],
          [
            7.473444,
            47.444372,
            620.0
          ],
          [
            7.473426,
            47.444306,
            620.0
          ],
          [
            7.473408,
            47.444263,
            619.0
          ],
          [
            7.473301,
            47.444111,
            618.0
          ],
          [
            7.473049,
            47.443808,
            616.0
          ],
          [
            7.472995,
            47.443753,
            616.0
          ],
          [
            7.472888,
            47.443679,
            615.0
          ],
          [
            7.472806,
            47.443655,
            614.0
          ],
          [
            7.472653,
            47.443613,
            614.0
          ],
          [
            7.471962,
            47.443425,
            610.0
          ],
          [
            7.471307,
            47.443254,
            609.0
          ],
          [
            7.470758,
            47.443078,
            608.0
          ],
          [
            7.470112,
            47.442878,
            607.0
          ],
          [
            7.469573,
            47.442744,
            606.0
          ],
          [
            7.469123,
            47.442623,
            605.0
          ],
          [
            7.468764,
            47.442495,
            604.0
          ],
          [
            7.468602,
            47.442398,
            604.0
          ],
          [
            7.46845,
            47.442283,
            603.0
          ],
          [
            7.468315,
            47.442179,
            603.0
          ],
          [
            7.468091,
            47.442057,
            602.0
          ],
          [
            7.467938,
            47.441985,
            602.0
          ],
          [
            7.467596,
            47.441839,
            601.0
          ],
          [
            7.467228,
            47.441638,
            600.0
          ],
          [
            7.466896,
            47.441474,
            599.0
          ],
          [
            7.466518,
            47.441292,
            597.0
          ],
          [
            7.466393,
            47.441237,
            596.0
          ],
          [
            7.466267,
            47.441201,
            595.0
          ],
          [
            7.466015,
            47.441128,
            594.0
          ],
          [
            7.465754,
            47.441092,
            593.0
          ],
          [
            7.465548,
            47.441049,
            592.0
          ],
          [
            7.465324,
            47.441031,
            591.0
          ],
          [
            7.464875,
            47.441007,
            589.0
          ],
          [
            7.464632,
            47.440983,
            587.0
          ],
          [
            7.464093,
            47.440903,
            583.0
          ],
          [
            7.464012,
            47.440891,
            582.0
          ],
          [
            7.463949,
            47.44086,
            581.0
          ],
          [
            7.463896,
            47.44083,
            581.0
          ],
          [
            7.463868,
            47.4408,
            581.0
          ],
          [
            7.46385,
            47.440763,
            580.0
          ],
          [
            7.46385,
            47.440727,
            580.0
          ],
          [
            7.463859,
            47.440678,
            579.0
          ],
          [
            7.463923,
            47.440527,
            578.0
          ],
          [
            7.463957,
            47.440423,
            576.0
          ],
          [
            7.46403,
            47.440168,
            574.0
          ],
          [
            7.464057,
            47.440095,
            573.0
          ],
          [
            7.464093,
            47.440034,
            572.0
          ],
          [
            7.464137,
            47.439992,
            572.0
          ],
          [
            7.464192,
            47.439943,
            571.0
          ],
          [
            7.464317,
            47.439864,
            570.0
          ],
          [
            7.464838,
            47.439566,
            565.0
          ],
          [
            7.464928,
            47.439512,
            564.0
          ],
          [
            7.464955,
            47.439481,
            563.0
          ],
          [
            7.464973,
            47.439439,
            563.0
          ],
          [
            7.464973,
            47.439384,
            562.0
          ],
          [
            7.464965,
            47.439305,
            561.0
          ],
          [
            7.464838,
            47.439275,
            560.0
          ],
          [
            7.464731,
            47.43925,
            559.0
          ],
          [
            7.464551,
            47.439232,
            558.0
          ],
          [
            7.464273,
            47.43922,
            556.0
          ],
          [
            7.463859,
            47.439196,
            553.0
          ],
          [
            7.46333,
            47.439153,
            549.0
          ],
          [
            7.463212,
            47.439153,
            548.0
          ],
          [
            7.463095,
            47.439177,
            548.0
          ],
          [
            7.463185,
            47.439099,
            547.0
          ],
          [
            7.463267,
            47.439044,
            546.0
          ],
          [
            7.463896,
            47.43877,
            541.0
          ],
          [
            7.464227,
            47.438631,
            539.0
          ],
          [
            7.464515,
            47.43854,
            537.0
          ],
          [
            7.464838,
            47.438467,
            535.0
          ],
          [
            7.465395,
            47.438424,
            531.0
          ],
          [
            7.465917,
            47.438369,
            529.0
          ],
          [
            7.466662,
            47.43823,
            528.0
          ],
          [
            7.467066,
            47.438163,
            527.0
          ],
          [
            7.467246,
            47.438145,
            527.0
          ],
          [
            7.467408,
            47.438139,
            526.0
          ],
          [
            7.467542,
            47.438145,
            526.0
          ],
          [
            7.467632,
            47.438157,
            526.0
          ],
          [
            7.467695,
            47.438181,
            526.0
          ],
          [
            7.467739,
            47.438206,
            526.0
          ],
          [
            7.467775,
            47.438236,
            526.0
          ],
          [
            7.467802,
            47.438284,
            525.0
          ],
          [
            7.467821,
            47.438333,
            525.0
          ],
          [
            7.467839,
            47.438491,
            525.0
          ],
          [
            7.467875,
            47.43871,
            524.0
          ],
          [
            7.467902,
            47.438795,
            524.0
          ],
          [
            7.467928,
            47.43885,
            524.0
          ],
          [
            7.467955,
            47.438898,
            524.0
          ],
          [
            7.468001,
            47.438941,
            523.0
          ],
          [
            7.468091,
            47.439002,
            523.0
          ],
          [
            7.468198,
            47.43905,
            523.0
          ],
          [
            7.46827,
            47.439074,
            523.0
          ],
          [
            7.468324,
            47.43908,
            523.0
          ],
          [
            7.468378,
            47.439068,
            523.0
          ],
          [
            7.468431,
            47.43905,
            523.0
          ],
          [
            7.468477,
            47.439008,
            522.0
          ],
          [
            7.468512,
            47.438965,
            522.0
          ],
          [
            7.468575,
            47.438886,
            522.0
          ],
          [
            7.46863,
            47.438837,
            522.0
          ],
          [
            7.468691,
            47.438776,
            522.0
          ],
          [
            7.468989,
            47.438588,
            521.0
          ],
          [
            7.46907,
            47.438522,
            521.0
          ],
          [
            7.46916,
            47.43843,
            520.0
          ],
          [
            7.46941,
            47.438157,
            520.0
          ],
          [
            7.469465,
            47.438115,
            520.0
          ],
          [
            7.469527,
            47.438084,
            520.0
          ],
          [
            7.46959,
            47.43806,
            520.0
          ],
          [
            7.469653,
            47.438041,
            520.0
          ],
          [
            7.469716,
            47.438035,
            520.0
          ],
          [
            7.469779,
            47.438041,
            520.0
          ],
          [
            7.469842,
            47.438041,
            520.0
          ],
          [
            7.469923,
            47.43806,
            520.0
          ],
          [
            7.469986,
            47.438078,
            520.0
          ],
          [
            7.470049,
            47.438103,
            520.0
          ],
          [
            7.470273,
            47.43823,
            520.0
          ],
          [
            7.470408,
            47.438297,
            520.0
          ],
          [
            7.470561,
            47.438363,
            520.0
          ],
          [
            7.470678,
            47.438412,
            520.0
          ],
          [
            7.470785,
            47.438436,
            520.0
          ],
          [
            7.470848,
            47.438449,
            520.0
          ],
          [
            7.470902,
            47.438449,
            520.0
          ],
          [
            7.470947,
            47.438436,
            520.0
          ],
          [
            7.470983,
            47.438412,
            520.0
          ],
          [
            7.471001,
            47.438387,
            520.0
          ],
          [
            7.471018,
            47.438357,
            520.0
          ],
          [
            7.471028,
            47.43829,
            520.0
          ],
          [
            7.47092,
            47.43747,
            520.0
          ],
          [
            7.470776,
            47.437185,
            521.0
          ],
          [
            7.470741,
            47.437057,
            522.0
          ],
          [
            7.470776,
            47.436924,
            523.0
          ],
          [
            7.47101,
            47.436741,
            526.0
          ],
          [
            7.47136,
            47.436383,
            523.0
          ],
          [
            7.47145,
            47.436279,
            522.0
          ],
          [
            7.47145,
            47.436279,
            522.0
          ],
          [
            7.471494,
            47.436231,
            521.0
          ],
          [
            7.471666,
            47.436103,
            520.0
          ],
          [
            7.471764,
            47.436049,
            519.0
          ],
          [
            7.472097,
            47.435842,
            516.0
          ],
          [
            7.472232,
            47.435757,
            514.0
          ],
          [
            7.472384,
            47.435684,
            513.0
          ],
          [
            7.472429,
            47.435648,
            512.0
          ],
          [
            7.472447,
            47.435568,
            511.0
          ],
          [
            7.472375,
            47.435428,
            509.0
          ],
          [
            7.472196,
            47.435222,
            506.0
          ],
          [
            7.472115,
            47.4351,
            504.0
          ],
          [
            7.47206,
            47.43493,
            502.0
          ],
          [
            7.47206,
            47.434791,
            500.0
          ],
          [
            7.472079,
            47.434657,
            499.0
          ],
          [
            7.472142,
            47.434444,
            498.0
          ],
          [
            7.472276,
            47.434243,
            495.0
          ],
          [
            7.472429,
            47.434049,
            492.0
          ],
          [
            7.472536,
            47.433885,
            489.0
          ],
          [
            7.472645,
            47.433679,
            485.0
          ],
          [
            7.472762,
            47.433545,
            481.0
          ],
          [
            7.472932,
            47.433253,
            474.0
          ],
          [
            7.473336,
            47.432701,
            460.0
          ],
          [
            7.473597,
            47.432312,
            453.0
          ],
          [
            7.473597,
            47.432275,
            452.0
          ],
          [
            7.47357,
            47.432226,
            452.0
          ],
          [
            7.473552,
            47.432184,
            452.0
          ],
          [
            7.47357,
            47.432135,
            451.0
          ],
          [
            7.473624,
            47.432117,
            451.0
          ],
          [
            7.473678,
            47.432165,
            450.0
          ],
          [
            7.47375,
            47.432202,
            450.0
          ],
          [
            7.473857,
            47.43222,
            450.0
          ],
          [
            7.473957,
            47.432202,
            450.0
          ],
          [
            7.47489,
            47.43205,
            447.0
          ],
          [
            7.475358,
            47.431935,
            446.0
          ],
          [
            7.475815,
            47.431783,
            444.0
          ],
          [
            7.476104,
            47.431703,
            443.0
          ],
          [
            7.476444,
            47.431655,
            442.0
          ],
          [
            7.477423,
            47.43154,
            439.0
          ],
          [
            7.478043,
            47.431424,
            438.0
          ],
          [
            7.478655,
            47.431278,
            438.0
          ],
          [
            7.479194,
            47.431187,
            437.0
          ],
          [
            7.479436,
            47.431163,
            436.0
          ],
          [
            7.479526,
            47.431181,
            436.0
          ],
          [
            7.479651,
            47.43123,
            436.0
          ],
          [
            7.479804,
            47.431205,
            436.0
          ],
          [
            7.48001,
            47.431157,
            436.0
          ],
          [
            7.480199,
            47.43109,
            435.0
          ],
          [
            7.480702,
            47.430926,
            434.0
          ],
          [
            7.481349,
            47.430695,
            430.0
          ],
          [
            7.482733,
            47.430288,
            426.0
          ],
          [
            7.483792,
            47.429935,
            424.0
          ],
          [
            7.484295,
            47.429808,
            422.0
          ],
          [
            7.484467,
            47.429753,
            422.0
          ],
          [
            7.484655,
            47.42968,
            421.0
          ],
          [
            7.484861,
            47.429583,
            421.0
          ],
          [
            7.485805,
            47.429084,
            418.0
          ],
          [
            7.486434,
            47.428726,
            415.0
          ],
          [
            7.486605,
            47.428629,
            415.0
          ],
          [
            7.486721,
            47.428586,
            414.0
          ],
          [
            7.486855,
            47.428556,
            414.0
          ],
          [
            7.487171,
            47.428507,
            413.0
          ],
          [
            7.487547,
            47.428447,
            412.0
          ],
          [
            7.487836,
            47.428398,
            411.0
          ],
          [
            7.488033,
            47.428349,
            410.0
          ],
          [
            7.488213,
            47.4283,
            410.0
          ],
          [
            7.488446,
            47.428221,
            410.0
          ],
          [
            7.488679,
            47.428149,
            410.0
          ],
          [
            7.489039,
            47.428112,
            410.0
          ],
          [
            7.489534,
            47.42807,
            410.0
          ],
          [
            7.489784,
            47.427997,
            410.0
          ],
          [
            7.489991,
            47.427942,
            410.0
          ],
          [
            7.490207,
            47.427899,
            410.0
          ],
          [
            7.490459,
            47.427881,
            410.0
          ],
          [
            7.491105,
            47.427772,
            410.0
          ],
          [
            7.491734,
            47.427729,
            410.0
          ],
          [
            7.491868,
            47.427717,
            410.0
          ],
          [
            7.492398,
            47.427578,
            410.0
          ],
          [
            7.492273,
            47.427474,
            410.0
          ],
          [
            7.492228,
            47.427413,
            410.0
          ],
          [
            7.492264,
            47.427365,
            410.0
          ],
          [
            7.49266,
            47.427328,
            410.0
          ],
          [
            7.493046,
            47.427274,
            410.0
          ],
          [
            7.493826,
            47.427109,
            412.0
          ],
          [
            7.494788,
            47.426982,
            417.0
          ],
          [
            7.494815,
            47.426982,
            417.0
          ],
          [
            7.494932,
            47.426945,
            417.0
          ],
          [
            7.495013,
            47.426909,
            418.0
          ],
          [
            7.495237,
            47.426782,
            419.0
          ],
          [
            7.495543,
            47.426635,
            420.0
          ],
          [
            7.495902,
            47.426483,
            420.0
          ],
          [
            7.496989,
            47.426441,
            420.0
          ],
          [
            7.497222,
            47.426423,
            420.0
          ],
          [
            7.497492,
            47.42638,
            420.0
          ],
          [
            7.497797,
            47.426307,
            420.0
          ],
          [
            7.498174,
            47.426222,
            420.0
          ],
          [
            7.49831,
            47.426179,
            420.0
          ],
          [
            7.49839,
            47.426131,
            420.0
          ],
          [
            7.498426,
            47.426058,
            420.0
          ],
          [
            7.499029,
            47.425328,
            420.0
          ],
          [
            7.499063,
            47.425268,
            420.0
          ],
          [
            7.499073,
            47.425195,
            415.0
          ],
          [
            7.499063,
            47.425128,
            410.0
          ],
          [
            7.498929,
            47.42511,
            410.0
          ],
          [
            7.498436,
            47.425056,
            410.0
          ],
          [
            7.498264,
            47.425025,
            410.0
          ],
          [
            7.498094,
            47.424989,
            410.0
          ],
          [
            7.497843,
            47.424903,
            410.0
          ],
          [
            7.497501,
            47.424745,
            410.0
          ],
          [
            7.497249,
            47.424399,
            410.0
          ],
          [
            7.497241,
            47.424387,
            410.0
          ],
          [
            7.497429,
            47.424205,
            404.0
          ],
          [
            7.497501,
            47.424107,
            401.0
          ],
          [
            7.497627,
            47.423967,
            393.0
          ],
          [
            7.497725,
            47.423991,
            389.0
          ],
          [
            7.497977,
            47.42404,
            379.0
          ],
          [
            7.498031,
            47.423997,
            377.0
          ],
          [
            7.498111,
            47.4239,
            372.0
          ],
          [
            7.498157,
            47.423828,
            369.0
          ],
          [
            7.49822,
            47.423718,
            368.0
          ],
          [
            7.498256,
            47.423676,
            368.0
          ],
          [
            7.498346,
            47.423682,
            367.0
          ],
          [
            7.498983,
            47.423737,
            362.0
          ],
          [
            7.499037,
            47.423737,
            362.0
          ],
          [
            7.49901,
            47.4237,
            361.0
          ],
          [
            7.49901,
            47.423664,
            361.0
          ],
          [
            7.499029,
            47.423596,
            360.0
          ],
          [
            7.499055,
            47.423511,
            359.0
          ],
          [
            7.4991,
            47.423384,
            357.0
          ],
          [
            7.499136,
            47.423335,
            356.0
          ],
          [
            7.499765,
            47.423487,
            355.0
          ],
          [
            7.499899,
            47.423499,
            354.0
          ],
          [
            7.500214,
            47.423572,
            354.0
          ],
          [
            7.500232,
            47.423554,
            354.0
          ],
          [
            7.500241,
            47.423542,
            354.0
          ],
          [
            7.500241,
            47.423536,
            353.0
          ],
          [
            7.500258,
            47.423536,
            353.0
          ],
          [
            7.500321,
            47.423554,
            353.0
          ],
          [
            7.500358,
            47.42356,
            353.0
          ],
          [
            7.50043,
            47.423578,
            353.0
          ],
          [
            7.500493,
            47.423596,
            353.0
          ],
          [
            7.500555,
            47.423439,
            352.0
          ],
          [
            7.500591,
            47.423342,
            352.0
          ],
          [
            7.500583,
            47.423317,
            351.0
          ],
          [
            7.500574,
            47.423226,
            351.0
          ],
          [
            7.500537,
            47.42322,
            350.0
          ],
          [
            7.500537,
            47.423183,
            350.0
          ],
          [
            7.500564,
            47.423068,
            350.0
          ],
          [
            7.500574,
            47.423037,
            350.0
          ],
          [
            7.500484,
            47.423031,
            350.0
          ],
          [
            7.500484,
            47.422995,
            350.0
          ],
          [
            7.50052,
            47.422186,
            350.0
          ],
          [
            7.500591,
            47.421469,
            350.0
          ],
          [
            7.500618,
            47.421293,
            350.0
          ],
          [
            7.500618,
            47.421099,
            351.0
          ],
          [
            7.500618,
            47.421081,
            351.0
          ],
          [
            7.50061,
            47.421068,
            351.0
          ],
          [
            7.5006,
            47.421044,
            351.0
          ],
          [
            7.5006,
            47.420983,
            352.0
          ],
          [
            7.500591,
            47.42091,
            352.0
          ],
          [
            7.500574,
            47.420825,
            352.0
          ],
          [
            7.500555,
            47.420795,
            353.0
          ],
          [
            7.500511,
            47.42074,
            353.0
          ],
          [
            7.500484,
            47.420637,
            354.0
          ],
          [
            7.500484,
            47.4206,
            354.0
          ],
          [
            7.500555,
            47.420551,
            354.0
          ],
          [
            7.500618,
            47.420466,
            355.0
          ],
          [
            7.500681,
            47.420448,
            355.0
          ],
          [
            7.500761,
            47.420424,
            352.0
          ],
          [
            7.500834,
            47.420412,
            350.0
          ],
          [
            7.501229,
            47.4204,
            350.0
          ],
          [
            7.501589,
            47.420393,
            351.0
          ],
          [
            7.501705,
            47.420393,
            351.0
          ],
          [
            7.501732,
            47.420393,
            351.0
          ],
          [
            7.501858,
            47.420351,
            351.0
          ],
          [
            7.501929,
            47.420327,
            351.0
          ],
          [
            7.502046,
            47.420284,
            352.0
          ],
          [
            7.502352,
            47.420089,
            352.0
          ],
          [
            7.502495,
            47.419998,
            352.0
          ],
          [
            7.502595,
            47.419968,
            353.0
          ],
          [
            7.502658,
            47.419932,
            353.0
          ],
          [
            7.502729,
            47.419889,
            354.0
          ],
          [
            7.502738,
            47.419847,
            354.0
          ],
          [
            7.502702,
            47.419756,
            355.0
          ],
          [
            7.502828,
            47.419737,
            355.0
          ]
        ]
      }
    }
  ]
}