{
  "type": "FeatureCollection",
  "features": [
    {
      "type": "Feature",
      "properties": {},
      "geometry": {
        "type": "LineString",
        "coordinates": [
          [
            8.516936,
            47.09893,
            450.0
          ],
          [
            8.516999,
            47.098863,
            449.0
          ],
          [
            8.51725,
            47.098961,
            450.0
          ],
          [
            8.517277,
            47.098973,
            450.0
          ],
          [
            8.517323,
            47.098924,
            450.0
          ],
          [
            8.517395,
            47.098949,
            450.0
          ],
          [
            8.517485,
            47.098955,
            451.0
          ],
          [
            8.517529,
            47.098973,
            452.0
          ],
          [
            8.517646,
            47.099046,
            454.0
          ],
          [
            8.517673,
            47.099059,
            455.0
          ],
          [
            8.517736,
            47.099089,
            457.0
          ],
          [
            8.517808,
            47.09912,
            459.0
          ],
          [
            8.517816,
            47.099132,
            459.0
          ],
          [
            8.517843,
            47.099156,
            458.0
          ],
          [
            8.517942,
            47.099101,
            459.0
          ],
          [
            8.518041,
            47.099028,
            460.0
          ],
          [
            8.518122,
            47.098955,
            461.0
          ],
          [
            8.518374,
            47.098723,
            464.0
          ],
          [
            8.518445,
            47.09868,
            465.0
          ],
          [
            8.518535,
            47.098625,
            466.0
          ],
          [
            8.518661,
            47.098576,
            468.0
          ],
          [
            8.518724,
            47.098539,
            468.0
          ],
          [
            8.518778,
            47.098496,
            469.0
          ],
          [
            8.518823,
            47.098447,
            470.0
          ],
          [
            8.518885,
            47.098362,
            471.0
          ],
          [
            8.518787,
            47.098245,
            471.0
          ],
          [
            8.518787,
            47.098141,
            470.0
          ],
          [
            8.518823,
            47.098068,
            470.0
          ],
          [
            8.518831,
            47.098056,
            470.0
          ],
          [
            8.51902,
            47.097732,
            470.0
          ],
          [
            8.519218,
            47.097652,
            470.0
          ],
          [
            8.51946,
            47.097738,
            470.0
          ],
          [
            8.519694,
            47.097799,
            476.0
          ],
          [
            8.519766,
            47.097854,
            478.0
          ],
          [
            8.519757,
            47.097939,
            480.0
          ],
          [
            8.51999,
            47.098025,
            484.0
          ],
          [
            8.520152,
            47.098105,
            487.0
          ],
          [
            8.520143,
            47.098154,
            488.0
          ],
          [
            8.520162,
            47.098154,
            488.0
          ],
          [
            8.520225,
            47.09816,
            489.0
          ],
          [
            8.520341,
            47.098141,
            490.0
          ],
          [
            8.520368,
            47.098123,
            490.0
          ],
          [
            8.520412,
            47.098099,
            491.0
          ],
          [
            8.520493,
            47.098013,
            492.0
          ],
          [
            8.520844,
            47.097561,
            500.0
          ],
          [
            8.521015,
            47.097335,
            504.0
          ],
          [
            8.521095,
            47.097231,
            506.0
          ],
          [
            8.521095,
            47.097151,
            507.0
          ],
          [
            8.521059,
            47.097047,
            508.0
          ],
          [
            8.520988,
            47.096955,
            510.0
          ],
          [
            8.520961,
            47.096918,
            510.0
          ],
          [
            8.520952,
            47.096876,
            511.0
          ],
          [
            8.520907,
            47.096625,
            515.0
          ],
          [
            8.520915,
            47.096515,
            516.0
          ],
          [
            8.520952,
            47.096417,
            517.0
          ],
          [
            8.521051,
            47.096343,
            519.0
          ],
          [
            8.521078,
            47.096325,
            519.0
          ],
          [
            8.521383,
            47.096172,
            523.0
          ],
          [
            8.521859,
            47.095989,
            528.0
          ],
          [
            8.522003,
            47.095959,
            529.0
          ],
          [
            8.522156,
            47.095934,
            531.0
          ],
          [
            8.52229,
            47.095916,
            532.0
          ],
          [
            8.522433,
            47.095916,
            533.0
          ],
          [
            8.522497,
            47.095922,
            534.0
          ],
          [
            8.522586,
            47.095922,
            535.0
          ],
          [
            8.522703,
            47.095922,
            536.0
          ],
          [
            8.522802,
            47.095903,
            537.0
          ],
          [
            8.522856,
            47.095897,
            537.0
          ],
          [
            8.52291,
            47.095867,
            538.0
          ],
          [
            8.522982,
            47.09583,
            538.0
          ],
          [
            8.523081,
            47.095738,
            540.0
          ],
          [
            8.523449,
            47.095316,
            545.0
          ],
          [
            8.523592,
            47.095151,
            548.0
          ],
          [
            8.523745,
            47.094968,
            550.0
          ],
          [
            8.523988,
            47.094687,
            553.0
          ],
          [
            8.524114,
            47.094619,
            555.0
          ],
          [
            8.524204,
            47.094607,
            555.0
          ],
          [
            8.524294,
            47.094613,
            556.0
          ],
          [
            8.524806,
            47.094815,
            560.0
          ],
          [
            8.524976,
            47.09487,
            561.0
          ],
          [
            8.52512,
            47.094882,
            562.0
          ],
          [
            8.525263,
            47.094876,
            563.0
          ],
          [
            8.525479,
            47.094864,
            565.0
          ],
          [
            8.525821,
            47.094913,
            567.0
          ],
          [
            8.526162,
            47.094974,
            569.0
          ],
          [
            8.526504,
            47.095029,
            572.0
          ],
          [
            8.526683,
            47.095041,
            575.0
          ],
          [
            8.526925,
            47.094992,
            577.0
          ],
          [
            8.527024,
            47.095102,
            581.0
          ],
          [
            8.526988,
            47.095187,
            583.0
          ],
          [
            8.52689,
            47.095328,
            586.0
          ],
          [
            8.526818,
            47.095438,
            588.0
          ],
          [
            8.526665,
            47.095616,
            592.0
          ],
          [
            8.526602,
            47.095683,
            594.0
          ],
          [
            8.526405,
            47.095744,
            597.0
          ],
          [
            8.526278,
            47.095812,
            599.0
          ],
          [
            8.526135,
            47.096063,
            606.0
          ],
          [
            8.526099,
            47.096252,
            610.0
          ],
          [
            8.526018,
            47.096362,
            612.0
          ],
          [
            8.525991,
            47.096459,
            614.0
          ],
          [
            8.526009,
            47.096527,
            615.0
          ],
          [
            8.526081,
            47.096563,
            616.0
          ],
          [
            8.526387,
            47.096582,
            620.0
          ],
          [
            8.526441,
            47.096625,
            621.0
          ],
          [
            8.526557,
            47.096631,
            623.0
          ],
          [
            8.526691,
            47.096612,
            624.0
          ],
          [
            8.526934,
            47.096533,
            628.0
          ],
          [
            8.527033,
            47.096533,
            629.0
          ],
          [
            8.527276,
            47.096631,
            635.0
          ],
          [
            8.527393,
            47.096655,
            637.0
          ],
          [
            8.5275,
            47.096649,
            639.0
          ],
          [
            8.527779,
            47.09657,
            645.0
          ],
          [
            8.527932,
            47.096545,
            648.0
          ],
          [
            8.528022,
            47.096551,
            649.0
          ],
          [
            8.528318,
            47.096417,
            653.0
          ],
          [
            8.528552,
            47.09635,
            656.0
          ],
          [
            8.528695,
            47.096386,
            658.0
          ],
          [
            8.528768,
            47.096447,
            660.0
          ],
          [
            8.528821,
            47.096453,
            661.0
          ],
          [
            8.529064,
            47.096398,
            664.0
          ],
          [
            8.529118,
            47.096368,
            665.0
          ],
          [
            8.529171,
            47.096319,
            667.0
          ],
          [
            8.529154,
            47.096209,
            669.0
          ],
          [
            8.529144,
            47.09602,
            672.0
          ],
          [
            8.529181,
            47.095959,
            673.0
          ],
          [
            8.529288,
            47.095671,
            678.0
          ],
          [
            8.529288,
            47.095542,
            680.0
          ],
          [
            8.529244,
            47.09534,
            682.0
          ],
          [
            8.529261,
            47.095291,
            683.0
          ],
          [
            8.529423,
            47.095273,
            684.0
          ],
          [
            8.52954,
            47.095218,
            686.0
          ],
          [
            8.529638,
            47.09512,
            687.0
          ],
          [
            8.529827,
            47.0949,
            690.0
          ],
          [
            8.529989,
            47.094839,
            691.0
          ],
          [
            8.530267,
            47.094803,
            693.0
          ],
          [
            8.530465,
            47.094717,
            695.0
          ],
          [
            8.530527,
            47.094656,
            696.0
          ],
          [
            8.530582,
            47.094564,
            697.0
          ],
          [
            8.530573,
            47.094381,
            699.0
          ],
          [
            8.530626,
            47.094209,
            700.0
          ],
          [
            8.530752,
            47.094111,
            700.0
          ],
          [
            8.53095,
            47.094026,
            700.0
          ],
          [
            8.531112,
            47.093928,
            700.0
          ],
          [
            8.531481,
            47.093873,
            700.0
          ],
          [
            8.531804,
            47.093787,
            700.0
          ],
          [
            8.532091,
            47.093671,
            700.0
          ],
          [
            8.532181,
            47.093647,
            700.0
          ],
          [
            8.532324,
            47.09361,
            700.0
          ],
          [
            8.532693,
            47.093579,
            701.0
          ],
          [
            8.532827,
            47.093512,
            701.0
          ],
          [
            8.53307,
            47.093445,
            701.0
          ],
          [
            8.533267,
            47.093372,
            701.0
          ],
          [
            8.533385,
            47.093292,
            701.0
          ],
          [
            8.533483,
            47.093078,
            702.0
          ],
          [
            8.533536,
            47.09298,
            702.0
          ],
          [
            8.533618,
            47.092998,
            702.0
          ],
          [
            8.533699,
            47.093035,
            702.0
          ],
          [
            8.533825,
            47.093102,
            702.0
          ],
          [
            8.533978,
            47.093139,
            702.0
          ],
          [
            8.534131,
            47.093145,
            702.0
          ],
          [
            8.534301,
            47.093139,
            702.0
          ],
          [
            8.534444,
            47.093115,
            703.0
          ],
          [
            8.534561,
            47.093102,
            703.0
          ],
          [
            8.534678,
            47.093029,
            703.0
          ],
          [
            8.534731,
            47.092955,
            703.0
          ],
          [
            8.534857,
            47.09287,
            703.0
          ],
          [
            8.534884,
            47.092827,
            703.0
          ],
          [
            8.534903,
            47.092778,
            703.0
          ],
          [
            8.535334,
            47.092741,
            708.0
          ],
          [
            8.535504,
            47.092778,
            710.0
          ],
          [
            8.535846,
            47.092992,
            715.0
          ],
          [
            8.536043,
            47.09309,
            717.0
          ],
          [
            8.536178,
            47.093115,
            719.0
          ],
          [
            8.536339,
            47.093121,
            721.0
          ],
          [
            8.536465,
            47.093084,
            723.0
          ],
          [
            8.536663,
            47.092931,
            726.0
          ],
          [
            8.536825,
            47.092845,
            729.0
          ],
          [
            8.537157,
            47.092698,
            734.0
          ],
          [
            8.537418,
            47.092515,
            738.0
          ],
          [
            8.537634,
            47.092405,
            742.0
          ],
          [
            8.537768,
            47.092326,
            744.0
          ],
          [
            8.537921,
            47.092265,
            746.0
          ],
          [
            8.53802,
            47.092258,
            747.0
          ],
          [
            8.538083,
            47.092289,
            748.0
          ],
          [
            8.53811,
            47.092368,
            750.0
          ],
          [
            8.538154,
            47.092503,
            753.0
          ],
          [
            8.538253,
            47.09279,
            758.0
          ],
          [
            8.538343,
            47.09287,
            760.0
          ],
          [
            8.53846,
            47.092931,
            764.0
          ],
          [
            8.53855,
            47.092913,
            766.0
          ],
          [
            8.538693,
            47.092717,
            773.0
          ],
          [
            8.538882,
            47.092588,
            777.0
          ],
          [
            8.539278,
            47.09246,
            787.0
          ],
          [
            8.539439,
            47.092417,
            791.0
          ],
          [
            8.539618,
            47.092417,
            795.0
          ],
          [
            8.539781,
            47.092448,
            799.0
          ],
          [
            8.53996,
            47.092503,
            802.0
          ],
          [
            8.540175,
            47.092674,
            808.0
          ],
          [
            8.540301,
            47.092772,
            811.0
          ],
          [
            8.540373,
            47.092802,
            811.0
          ],
          [
            8.540473,
            47.092827,
            813.0
          ],
          [
            8.540544,
            47.092833,
            813.0
          ],
          [
            8.540634,
            47.092876,
            814.0
          ],
          [
            8.540687,
            47.092907,
            815.0
          ],
          [
            8.540777,
            47.093023,
            817.0
          ],
          [
            8.541002,
            47.09317,
            820.0
          ],
          [
            8.541137,
            47.093249,
            824.0
          ],
          [
            8.541236,
            47.093286,
            826.0
          ],
          [
            8.541452,
            47.093317,
            831.0
          ],
          [
            8.541658,
            47.093359,
            836.0
          ],
          [
            8.541792,
            47.093415,
            839.0
          ],
          [
            8.541882,
            47.093457,
            841.0
          ],
          [
            8.541909,
            47.093518,
            842.0
          ],
          [
            8.541955,
            47.093543,
            842.0
          ],
          [
            8.541999,
            47.093567,
            843.0
          ],
          [
            8.542116,
            47.093604,
            845.0
          ],
          [
            8.542448,
            47.093781,
            849.0
          ],
          [
            8.542628,
            47.093891,
            850.0
          ],
          [
            8.542915,
            47.094019,
            850.0
          ],
          [
            8.542978,
            47.094001,
            850.0
          ],
          [
            8.543041,
            47.093971,
            850.0
          ],
          [
            8.543158,
            47.093964,
            850.0
          ],
          [
            8.543293,
            47.093909,
            850.0
          ],
          [
            8.543293,
            47.09383,
            850.0
          ],
          [
            8.543274,
            47.093805,
            850.0
          ],
          [
            8.543213,
            47.09375,
            850.0
          ],
          [
            8.543095,
            47.093708,
            851.0
          ],
          [
            8.543041,
            47.093659,
            852.0
          ],
          [
            8.543068,
            47.093604,
            853.0
          ],
          [
            8.543123,
            47.093628,
            853.0
          ],
          [
            8.543427,
            47.093702,
            857.0
          ],
          [
            8.543634,
            47.093781,
            860.0
          ],
          [
            8.54375,
            47.093836,
            862.0
          ],
          [
            8.543886,
            47.093891,
            865.0
          ],
          [
            8.543976,
            47.093946,
            867.0
          ],
          [
            8.544047,
            47.094075,
            871.0
          ],
          [
            8.544137,
            47.094148,
            874.0
          ],
          [
            8.544263,
            47.094191,
            876.0
          ],
          [
            8.544316,
            47.094191,
            877.0
          ],
          [
            8.544353,
            47.094166,
            878.0
          ],
          [
            8.544406,
            47.09413,
            880.0
          ],
          [
            8.544406,
            47.094068,
            881.0
          ],
          [
            8.544479,
            47.093971,
            884.0
          ],
          [
            8.544586,
            47.093946,
            886.0
          ],
          [
            8.544685,
            47.093989,
            889.0
          ],
          [
            8.544758,
            47.093989,
            890.0
          ],
          [
            8.544802,
            47.09394,
            891.0
          ],
          [
            8.544829,
            47.09375,
            896.0
          ],
          [
            8.544918,
            47.093671,
            899.0
          ],
          [
            8.545027,
            47.093634,
            901.0
          ],
          [
            8.545197,
            47.093634,
            904.0
          ],
          [
            8.545305,
            47.093622,
            906.0
          ],
          [
            8.545448,
            47.09361,
            908.0
          ],
          [
            8.545655,
            47.093634,
            911.0
          ],
          [
            8.545907,
            47.093628,
            915.0
          ],
          [
            8.546077,
            47.093628,
            917.0
          ],
          [
            8.546276,
            47.093604,
            919.0
          ],
          [
            8.546482,
            47.093573,
            922.0
          ],
          [
            8.546643,
            47.093524,
            924.0
          ],
          [
            8.546842,
            47.09347,
            927.0
          ],
          [
            8.547075,
            47.093408,
            931.0
          ],
          [
            8.547345,
            47.093298,
            937.0
          ],
          [
            8.547632,
            47.093194,
            942.0
          ],
          [
            8.547758,
            47.093176,
            944.0
          ],
          [
            8.54791,
            47.093139,
            946.0
          ],
          [
            8.548008,
            47.093133,
            947.0
          ],
          [
            8.54809,
            47.093145,
            948.0
          ],
          [
            8.548161,
            47.093164,
            949.0
          ],
          [
            8.548224,
            47.093213,
            951.0
          ],
          [
            8.548377,
            47.093353,
            955.0
          ],
          [
            8.548423,
            47.093384,
            956.0
          ],
          [
            8.548458,
            47.093384,
            956.0
          ],
          [
            8.548521,
            47.093384,
            957.0
          ],
          [
            8.548557,
            47.093366,
            958.0
          ],
          [
            8.548584,
            47.093304,
            959.0
          ],
          [
            8.54862,
            47.093188,
            961.0
          ],
          [
            8.548656,
            47.093078,
            962.0
          ],
          [
            8.548674,
            47.093004,
            963.0
          ],
          [
            8.548737,
            47.092986,
            963.0
          ],
          [
            8.548629,
            47.092827,
            965.0
          ],
          [
            8.548494,
            47.092674,
            967.0
          ],
          [
            8.548341,
            47.092533,
            968.0
          ],
          [
            8.548108,
            47.092393,
            971.0
          ],
          [
            8.548,
            47.092301,
            972.0
          ],
          [
            8.547874,
            47.092179,
            974.0
          ],
          [
            8.547748,
            47.091934,
            978.0
          ],
          [
            8.547461,
            47.091738,
            982.0
          ],
          [
            8.547209,
            47.091641,
            984.0
          ],
          [
            8.54676,
            47.091512,
            989.0
          ],
          [
            8.546589,
            47.091414,
            991.0
          ],
          [
            8.546526,
            47.091261,
            993.0
          ],
          [
            8.546553,
            47.09109,
            994.0
          ],
          [
            8.546482,
            47.090901,
            996.0
          ],
          [
            8.546311,
            47.09073,
            998.0
          ],
          [
            8.546276,
            47.090619,
            999.0
          ],
          [
            8.546293,
            47.090509,
            1000.0
          ],
          [
            8.5464,
            47.09035,
            1002.0
          ],
          [
            8.546517,
            47.09027,
            1003.0
          ],
          [
            8.546779,
            47.090185,
            1005.0
          ],
          [
            8.546966,
            47.090307,
            1007.0
          ],
          [
            8.547056,
            47.090338,
            1008.0
          ],
          [
            8.547146,
            47.090332,
            1008.0
          ],
          [
            8.547228,
            47.090295,
            1009.0
          ],
          [
            8.547326,
            47.090221,
            1010.0
          ],
          [
            8.547471,
            47.090087,
            1012.0
          ],
          [
            8.547739,
            47.089922,
            1016.0
          ],
          [
            8.547973,
            47.089836,
            1019.0
          ],
          [
            8.547973,
            47.089836,
            1019.0
          ],
          [
            8.548063,
            47.0898,
            1020.0
          ],
          [
            8.548423,
            47.089623,
            1027.0
          ],
          [
            8.5487,
            47.089543,
            1030.0
          ],
          [
            8.548817,
            47.089494,
            1031.0
          ],
          [
            8.548997,
            47.089372,
            1031.0
          ],
          [
            8.548809,
            47.089274,
            1032.0
          ],
          [
            8.548584,
            47.08917,
            1032.0
          ],
          [
            8.548063,
            47.088955,
            1034.0
          ],
          [
            8.549087,
            47.088534,
            1042.0
          ],
          [
            8.549796,
            47.088222,
            1044.0
          ],
          [
            8.549995,
            47.088136,
            1045.0
          ],
          [
            8.550497,
            47.088142,
            1046.0
          ],
          [
            8.55179,
            47.088093,
            1050.0
          ],
          [
            8.551943,
            47.088081,
            1050.0
          ],
          [
            8.552518,
            47.08805,
            1050.0
          ],
          [
            8.553247,
            47.087959,
            1050.0
          ],
          [
            8.553497,
            47.087953,
            1050.0
          ],
          [
            8.553687,
            47.087995,
            1050.0
          ],
          [
            8.55383,
            47.088069,
            1050.0
          ],
          [
            8.553992,
            47.088216,
            1050.0
          ],
          [
            8.554163,
            47.088344,
            1060.0
          ],
          [
            8.55427,
            47.088424,
            1061.0
          ],
          [
            8.554476,
            47.088576,
            1063.0
          ],
          [
            8.554809,
            47.08876,
            1065.0
          ],
          [
            8.554916,
            47.08879,
            1066.0
          ],
          [
            8.555222,
            47.08887,
            1068.0
          ],
          [
            8.555914,
            47.089029,
            1074.0
          ],
          [
            8.556255,
            47.089145,
            1077.0
          ],
          [
            8.55648,
            47.089255,
            1079.0
          ],
          [
            8.55683,
            47.089476,
            1083.0
          ],
          [
            8.556983,
            47.089592,
            1084.0
          ],
          [
            8.557109,
            47.089739,
            1086.0
          ],
          [
            8.55718,
            47.089922,
            1088.0
          ],
          [
            8.55675,
            47.090068,
            1089.0
          ],
          [
            8.556524,
            47.090179,
            1089.0
          ],
          [
            8.556237,
            47.090387,
            1090.0
          ],
          [
            8.556148,
            47.090479,
            1091.0
          ],
          [
            8.556121,
            47.090546,
            1092.0
          ],
          [
            8.556157,
            47.090625,
            1093.0
          ],
          [
            8.556237,
            47.090681,
            1094.0
          ],
          [
            8.556992,
            47.091035,
            1104.0
          ],
          [
            8.558052,
            47.09172,
            1121.0
          ],
          [
            8.558438,
            47.092002,
            1127.0
          ],
          [
            8.558574,
            47.092118,
            1129.0
          ],
          [
            8.55869,
            47.092258,
            1131.0
          ],
          [
            8.559203,
            47.093066,
            1145.0
          ],
          [
            8.559381,
            47.09328,
            1149.0
          ],
          [
            8.559499,
            47.093494,
            1151.0
          ],
          [
            8.559499,
            47.093598,
            1152.0
          ],
          [
            8.559543,
            47.093677,
            1153.0
          ],
          [
            8.559624,
            47.093714,
            1154.0
          ],
          [
            8.559723,
            47.093702,
            1155.0
          ],
          [
            8.559723,
            47.094001,
            1158.0
          ],
          [
            8.559795,
            47.094154,
            1159.0
          ],
          [
            8.559947,
            47.094374,
            1160.0
          ],
          [
            8.560208,
            47.094638,
            1160.0
          ],
          [
            8.560216,
            47.094693,
            1160.0
          ],
          [
            8.560145,
            47.094784,
            1160.0
          ],
          [
            8.560055,
            47.094906,
            1160.0
          ],
          [
            8.559983,
            47.095029,
            1160.0
          ],
          [
            8.559849,
            47.095145,
            1160.0
          ],
          [
            8.559803,
            47.095224,
            1160.0
          ],
          [
            8.559669,
            47.095316,
            1160.0
          ],
          [
            8.559633,
            47.095383,
            1160.0
          ],
          [
            8.55957,
            47.095463,
            1160.0
          ],
          [
            8.559633,
            47.095536,
            1160.0
          ],
          [
            8.559669,
            47.095597,
            1160.0
          ],
          [
            8.55966,
            47.09564,
            1160.0
          ],
          [
            8.559534,
            47.095659,
            1160.0
          ],
          [
            8.559319,
            47.095653,
            1160.0
          ],
          [
            8.559103,
            47.09572,
            1160.0
          ],
          [
            8.558968,
            47.095732,
            1160.0
          ],
          [
            8.558861,
            47.095757,
            1160.0
          ],
          [
            8.558798,
            47.095787,
            1160.0
          ],
          [
            8.558753,
            47.095836,
            1160.0
          ],
          [
            8.558698,
            47.095983,
            1160.0
          ],
          [
            8.558608,
            47.096142,
            1160.0
          ],
          [
            8.558574,
            47.09627,
            1160.0
          ],
          [
            8.5586,
            47.096619,
            1160.0
          ],
          [
            8.558663,
            47.096918,
            1160.0
          ],
          [
            8.558671,
            47.097157,
            1160.0
          ],
          [
            8.558717,
            47.097267,
            1160.0
          ],
          [
            8.558788,
            47.097304,
            1160.0
          ],
          [
            8.558834,
            47.097255,
            1167.0
          ],
          [
            8.558924,
            47.097218,
            1171.0
          ],
          [
            8.559264,
            47.0972,
            1175.0
          ],
          [
            8.559444,
            47.097157,
            1177.0
          ],
          [
            8.55966,
            47.097041,
            1180.0
          ],
          [
            8.560127,
            47.096716,
            1190.0
          ],
          [
            8.560216,
            47.096631,
            1191.0
          ],
          [
            8.560675,
            47.096154,
            1193.0
          ],
          [
            8.560675,
            47.096154,
            1193.0
          ],
          [
            8.560711,
            47.096118,
            1193.0
          ],
          [
            8.561107,
            47.095799,
            1194.0
          ],
          [
            8.561214,
            47.095695,
            1195.0
          ],
          [
            8.561304,
            47.095634,
            1195.0
          ],
          [
            8.561708,
            47.095475,
            1196.0
          ],
          [
            8.561798,
            47.095402,
            1197.0
          ],
          [
            8.561861,
            47.095316,
            1197.0
          ],
          [
            8.561906,
            47.095175,
            1198.0
          ],
          [
            8.561906,
            47.095102,
            1198.0
          ],
          [
            8.562023,
            47.094778,
            1199.0
          ],
          [
            8.562094,
            47.094509,
            1201.0
          ],
          [
            8.562113,
            47.09427,
            1209.0
          ],
          [
            8.56214,
            47.094191,
            1211.0
          ],
          [
            8.5624,
            47.093958,
            1218.0
          ],
          [
            8.562499,
            47.093787,
            1223.0
          ],
          [
            8.562652,
            47.093604,
            1229.0
          ],
          [
            8.562742,
            47.093506,
            1232.0
          ],
          [
            8.562885,
            47.093292,
            1241.0
          ],
          [
            8.563289,
            47.092643,
            1250.0
          ],
          [
            8.563406,
            47.092411,
            1250.0
          ],
          [
            8.563612,
            47.09183,
            1250.0
          ],
          [
            8.563721,
            47.091224,
            1254.0
          ],
          [
            8.563729,
            47.090992,
            1256.0
          ],
          [
            8.563702,
            47.090399,
            1260.0
          ],
          [
            8.563721,
            47.090258,
            1262.0
          ],
          [
            8.563801,
            47.09005,
            1268.0
          ],
          [
            8.563855,
            47.089812,
            1274.0
          ],
          [
            8.563855,
            47.089757,
            1276.0
          ],
          [
            8.563864,
            47.089347,
            1287.0
          ],
          [
            8.563864,
            47.089243,
            1290.0
          ],
          [
            8.563908,
            47.089078,
            1297.0
          ],
          [
            8.563882,
            47.088931,
            1305.0
          ],
          [
            8.563972,
            47.088772,
            1317.0
          ],
          [
            8.56399,
            47.088674,
            1323.0
          ],
          [
            8.563972,
            47.088393,
            1336.0
          ],
          [
            8.563918,
            47.088222,
            1346.0
          ],
          [
            8.563927,
            47.088069,
            1357.0
          ],
          [
            8.563954,
            47.088026,
            1362.0
          ],
          [
            8.564027,
            47.087977,
            1368.0
          ],
          [
            8.564205,
            47.087891,
            1376.0
          ],
          [
            8.56425,
            47.087848,
            1379.0
          ],
          [
            8.564331,
            47.087634,
            1381.0
          ],
          [
            8.564484,
            47.087353,
            1383.0
          ],
          [
            8.564763,
            47.087023,
            1385.0
          ],
          [
            8.564816,
            47.086907,
            1386.0
          ],
          [
            8.564807,
            47.086766,
            1387.0
          ],
          [
            8.564727,
            47.086631,
            1388.0
          ],
          [
            8.564474,
            47.086423,
            1389.0
          ],
          [
            8.563847,
            47.085665,
            1425.0
          ],
          [
            8.563738,
            47.085561,
            1429.0
          ],
          [
            8.563487,
            47.085426,
            1438.0
          ],
          [
            8.563451,
            47.085353,
            1442.0
          ],
          [
            8.563406,
            47.085181,
            1453.0
          ],
          [
            8.563406,
            47.08512,
            1458.0
          ],
          [
            8.563478,
            47.084974,
            1468.0
          ],
          [
            8.563352,
            47.084258,
            1516.0
          ],
          [
            8.563325,
            47.084215,
            1520.0
          ],
          [
            8.563262,
            47.084166,
            1521.0
          ],
          [
            8.562975,
            47.083983,
            1524.0
          ],
          [
            8.562777,
            47.083763,
            1527.0
          ],
          [
            8.562723,
            47.083628,
            1528.0
          ],
          [
            8.562706,
            47.083432,
            1531.0
          ],
          [
            8.562535,
            47.08309,
            1534.0
          ],
          [
            8.562508,
            47.082906,
            1535.0
          ],
          [
            8.562516,
            47.082833,
            1536.0
          ],
          [
            8.562606,
            47.082637,
            1538.0
          ],
          [
            8.562625,
            47.082552,
            1538.0
          ],
          [
            8.562616,
            47.082368,
            1540.0
          ],
          [
            8.56266,
            47.08224,
            1546.0
          ],
          [
            8.562642,
            47.082099,
            1551.0
          ],
          [
            8.562589,
            47.08205,
            1554.0
          ],
          [
            8.562687,
            47.082001,
            1557.0
          ],
          [
            8.562885,
            47.081964,
            1560.0
          ],
          [
            8.563082,
            47.081836,
            1560.0
          ],
          [
            8.563208,
            47.081787,
            1560.0
          ],
          [
            8.563343,
            47.081768,
            1560.0
          ],
          [
            8.563271,
            47.081762,
            1560.0
          ],
          [
            8.562553,
            47.081609,
            1560.0
          ],
          [
            8.561996,
            47.081481,
            1560.0
          ],
          [
            8.561996,
            47.081481,
            1560.0
          ],
          [
            8.561887,
            47.081457,
            1560.0
          ],
          [
            8.561071,
            47.081206,
            1555.0
          ],
          [
            8.560648,
            47.081034,
            1552.0
          ],
          [
            8.560342,
            47.080888,
            1550.0
          ],
          [
            8.560245,
            47.080802,
            1548.0
          ],
          [
            8.56019,
            47.080753,
            1547.0
          ],
          [
            8.560073,
            47.080912,
            1544.0
          ],
          [
            8.559983,
            47.080924,
            1543.0
          ],
          [
            8.559866,
            47.080912,
            1541.0
          ],
          [
            8.559696,
            47.080826,
            1537.0
          ],
          [
            8.559553,
            47.080851,
            1534.0
          ],
          [
            8.55948,
            47.080771,
            1529.0
          ],
          [
            8.5594,
            47.080527,
            1517.0
          ],
          [
            8.559417,
            47.080294,
            1503.0
          ],
          [
            8.559363,
            47.080191,
            1495.0
          ],
          [
            8.559237,
            47.080044,
            1484.0
          ],
          [
            8.559274,
            47.079964,
            1479.0
          ],
          [
            8.559363,
            47.079891,
            1474.0
          ],
          [
            8.55939,
            47.079811,
            1469.0
          ],
          [
            8.559381,
            47.079737,
            1466.0
          ],
          [
            8.559337,
            47.079664,
            1463.0
          ],
          [
            8.559247,
            47.079584,
            1459.0
          ],
          [
            8.559211,
            47.079523,
            1457.0
          ],
          [
            8.559013,
            47.079425,
            1451.0
          ],
          [
            8.558987,
            47.079395,
            1450.0
          ],
          [
            8.558987,
            47.07937,
            1448.0
          ],
          [
            8.558995,
            47.07934,
            1445.0
          ],
          [
            8.559004,
            47.079315,
            1442.0
          ],
          [
            8.558995,
            47.079279,
            1439.0
          ],
          [
            8.558995,
            47.07926,
            1438.0
          ],
          [
            8.55904,
            47.079248,
            1436.0
          ],
          [
            8.559103,
            47.079236,
            1432.0
          ],
          [
            8.559166,
            47.079212,
            1429.0
          ],
          [
            8.559193,
            47.079187,
            1427.0
          ],
          [
            8.559211,
            47.079151,
            1425.0
          ],
          [
            8.559237,
            47.07912,
            1423.0
          ],
          [
            8.559264,
            47.079083,
            1420.0
          ],
          [
            8.559203,
            47.078985,
            1413.0
          ],
          [
            8.559193,
            47.078961,
            1411.0
          ],
          [
            8.559174,
            47.078924,
            1409.0
          ],
          [
            8.559203,
            47.078887,
            1406.0
          ],
          [
            8.559184,
            47.078838,
            1404.0
          ],
          [
            8.559166,
            47.078802,
            1402.0
          ],
          [
            8.559193,
            47.078771,
            1400.0
          ],
          [
            8.559166,
            47.078734,
            1398.0
          ],
          [
            8.559184,
            47.078704,
            1397.0
          ],
          [
            8.559229,
            47.078673,
            1395.0
          ],
          [
            8.559211,
            47.078649,
            1394.0
          ],
          [
            8.559211,
            47.078569,
            1390.0
          ],
          [
            8.559121,
            47.078202,
            1376.0
          ],
          [
            8.55914,
            47.078043,
            1369.0
          ],
          [
            8.559085,
            47.077952,
            1363.0
          ],
          [
            8.559085,
            47.077909,
            1360.0
          ],
          [
            8.559094,
            47.077872,
            1359.0
          ],
          [
            8.559157,
            47.077847,
            1357.0
          ],
          [
            8.559203,
            47.077829,
            1356.0
          ],
          [
            8.559247,
            47.077817,
            1354.0
          ],
          [
            8.559247,
            47.077798,
            1354.0
          ],
          [
            8.559184,
            47.077749,
            1351.0
          ],
          [
            8.55914,
            47.077725,
            1350.0
          ],
          [
            8.559121,
            47.07767,
            1347.0
          ],
          [
            8.55913,
            47.077639,
            1346.0
          ],
          [
            8.559166,
            47.077603,
            1344.0
          ],
          [
            8.559174,
            47.077578,
            1343.0
          ],
          [
            8.559157,
            47.077529,
            1340.0
          ],
          [
            8.559157,
            47.07748,
            1339.0
          ],
          [
            8.559121,
            47.077456,
            1338.0
          ],
          [
            8.559058,
            47.077407,
            1336.0
          ],
          [
            8.558995,
            47.077345,
            1334.0
          ],
          [
            8.558941,
            47.077284,
            1331.0
          ],
          [
            8.558861,
            47.077168,
            1327.0
          ],
          [
            8.558816,
            47.077131,
            1325.0
          ],
          [
            8.558807,
            47.077095,
            1323.0
          ],
          [
            8.558851,
            47.077077,
            1322.0
          ],
          [
            8.55887,
            47.077064,
            1321.0
          ],
          [
            8.558834,
            47.077028,
            1319.0
          ],
          [
            8.558851,
            47.077009,
            1318.0
          ],
          [
            8.558861,
            47.076991,
            1317.0
          ],
          [
            8.558905,
            47.076973,
            1316.0
          ],
          [
            8.558914,
            47.076893,
            1313.0
          ],
          [
            8.558933,
            47.076869,
            1312.0
          ],
          [
            8.558914,
            47.076838,
            1310.0
          ],
          [
            8.558861,
            47.076795,
            1308.0
          ],
          [
            8.55887,
            47.076752,
            1307.0
          ],
          [
            8.558887,
            47.076722,
            1305.0
          ],
          [
            8.558897,
            47.076691,
            1304.0
          ],
          [
            8.558834,
            47.076495,
            1296.0
          ],
          [
            8.558843,
            47.076354,
            1290.0
          ],
          [
            8.558816,
            47.076238,
            1286.0
          ],
          [
            8.558843,
            47.076152,
            1283.0
          ],
          [
            8.55896,
            47.076012,
            1276.0
          ],
          [
            8.558995,
            47.075933,
            1273.0
          ],
          [
            8.559004,
            47.075847,
            1269.0
          ],
          [
            8.558914,
            47.075614,
            1257.0
          ],
          [
            8.558905,
            47.075572,
            1255.0
          ],
          [
            8.55887,
            47.075535,
            1253.0
          ],
          [
            8.558861,
            47.07551,
            1252.0
          ],
          [
            8.558861,
            47.075467,
            1250.0
          ],
          [
            8.558878,
            47.075455,
            1249.0
          ],
          [
            8.55895,
            47.075443,
            1247.0
          ],
          [
            8.558987,
            47.075418,
            1245.0
          ],
          [
            8.558995,
            47.075376,
            1243.0
          ],
          [
            8.55896,
            47.075314,
            1240.0
          ],
          [
            8.558924,
            47.07529,
            1239.0
          ],
          [
            8.558878,
            47.075272,
            1237.0
          ],
          [
            8.558861,
            47.075229,
            1235.0
          ],
          [
            8.558905,
            47.07518,
            1232.0
          ],
          [
            8.558941,
            47.075125,
            1230.0
          ],
          [
            8.559067,
            47.075057,
            1225.0
          ],
          [
            8.559076,
            47.075027,
            1224.0
          ],
          [
            8.559085,
            47.074752,
            1211.0
          ],
          [
            8.559058,
            47.074715,
            1209.0
          ],
          [
            8.558933,
            47.074623,
            1203.0
          ],
          [
            8.558878,
            47.074562,
            1200.0
          ],
          [
            8.558798,
            47.074385,
            1193.0
          ],
          [
            8.558798,
            47.074329,
            1190.0
          ],
          [
            8.558851,
            47.074158,
            1183.0
          ],
          [
            8.558834,
            47.074005,
            1177.0
          ],
          [
            8.558771,
            47.073895,
            1172.0
          ],
          [
            8.558744,
            47.073804,
            1169.0
          ],
          [
            8.558753,
            47.073596,
            1160.0
          ],
          [
            8.558807,
            47.073418,
            1154.0
          ],
          [
            8.558753,
            47.072983,
            1136.0
          ],
          [
            8.558771,
            47.072733,
            1124.0
          ],
          [
            8.558735,
            47.072549,
            1116.0
          ],
          [
            8.558726,
            47.072409,
            1111.0
          ],
          [
            8.558608,
            47.072139,
            1100.0
          ],
          [
            8.558591,
            47.072047,
            1096.0
          ],
          [
            8.558663,
            47.071797,
            1084.0
          ],
          [
            8.558717,
            47.071711,
            1080.0
          ],
          [
            8.558878,
            47.071552,
            1071.0
          ],
          [
            8.558933,
            47.071485,
            1068.0
          ],
          [
            8.55895,
            47.071417,
            1065.0
          ],
          [
            8.55895,
            47.071319,
            1061.0
          ],
          [
            8.558924,
            47.071215,
            1052.0
          ],
          [
            8.558887,
            47.071062,
            1051.0
          ],
          [
            8.558735,
            47.070848,
            1044.0
          ],
          [
            8.558708,
            47.07072,
            1039.0
          ],
          [
            8.558735,
            47.070586,
            1034.0
          ],
          [
            8.559013,
            47.07001,
            1012.0
          ],
          [
            8.559058,
            47.069949,
            1010.0
          ],
          [
            8.559013,
            47.069814,
            1006.0
          ],
          [
            8.55896,
            47.069704,
            1003.0
          ],
          [
            8.559013,
            47.069515,
            997.0
          ],
          [
            8.558977,
            47.069404,
            993.0
          ],
          [
            8.558807,
            47.069239,
            985.0
          ],
          [
            8.55878,
            47.069153,
            982.0
          ],
          [
            8.558753,
            47.06897,
            975.0
          ],
          [
            8.558744,
            47.068896,
            972.0
          ],
          [
            8.558771,
            47.068707,
            966.0
          ],
          [
            8.558717,
            47.068505,
            958.0
          ],
          [
            8.558744,
            47.068401,
            954.0
          ],
          [
            8.558905,
            47.06826,
            949.0
          ],
          [
            8.558977,
            47.068236,
            948.0
          ],
          [
            8.559327,
            47.068285,
            945.0
          ],
          [
            8.559463,
            47.068309,
            944.0
          ],
          [
            8.55957,
            47.068291,
            943.0
          ],
          [
            8.559606,
            47.068309,
            943.0
          ],
          [
            8.560037,
            47.068377,
            940.0
          ],
          [
            8.560271,
            47.068291,
            939.0
          ],
          [
            8.560513,
            47.068309,
            938.0
          ],
          [
            8.560648,
            47.068272,
            937.0
          ],
          [
            8.560782,
            47.068242,
            937.0
          ],
          [
            8.561268,
            47.068181,
            935.0
          ],
          [
            8.561574,
            47.067985,
            934.0
          ],
          [
            8.5617,
            47.067972,
            933.0
          ],
          [
            8.56179,
            47.067954,
            933.0
          ],
          [
            8.561906,
            47.067948,
            932.0
          ],
          [
            8.561977,
            47.067942,
            932.0
          ],
          [
            8.562059,
            47.067923,
            932.0
          ],
          [
            8.562239,
            47.067887,
            931.0
          ],
          [
            8.562409,
            47.067777,
            930.0
          ],
          [
            8.562346,
            47.067716,
            929.0
          ],
          [
            8.562211,
            47.067679,
            927.0
          ],
          [
            8.56214,
            47.067618,
            925.0
          ],
          [
            8.562239,
            47.067422,
            919.0
          ],
          [
            8.561897,
            47.067104,
            910.0
          ],
          [
            8.561834,
            47.066951,
            906.0
          ],
          [
            8.561727,
            47.066908,
            904.0
          ],
          [
            8.561547,
            47.066712,
            899.0
          ],
          [
            8.561367,
            47.06659,
            895.0
          ],
          [
            8.561277,
            47.066388,
            890.0
          ],
          [
            8.561376,
            47.066296,
            888.0
          ],
          [
            8.561304,
            47.066149,
            885.0
          ],
          [
            8.561161,
            47.065984,
            881.0
          ],
          [
            8.560998,
            47.065813,
            876.0
          ],
          [
            8.560998,
            47.065672,
            872.0
          ],
          [
            8.561044,
            47.065562,
            869.0
          ],
          [
            8.560962,
            47.065513,
            867.0
          ],
          [
            8.560855,
            47.06544,
            865.0
          ],
          [
            8.560782,
            47.065323,
            861.0
          ],
          [
            8.560801,
            47.06525,
            859.0
          ],
          [
            8.560837,
            47.065231,
            858.0
          ],
          [
            8.560855,
            47.065152,
            855.0
          ],
          [
            8.560891,
            47.065072,
            852.0
          ],
          [
            8.560954,
            47.065041,
            851.0
          ],
          [
            8.561079,
            47.064986,
            846.0
          ],
          [
            8.561088,
            47.064901,
            842.0
          ],
          [
            8.561178,
            47.064834,
            839.0
          ],
          [
            8.561232,
            47.064815,
            837.0
          ],
          [
            8.561304,
            47.06476,
            835.0
          ],
          [
            8.56134,
            47.064663,
            832.0
          ],
          [
            8.561331,
            47.064601,
            830.0
          ],
          [
            8.561574,
            47.064479,
            824.0
          ],
          [
            8.561537,
            47.06443,
            822.0
          ],
          [
            8.561574,
            47.064369,
            820.0
          ],
          [
            8.561627,
            47.064332,
            819.0
          ],
          [
            8.561654,
            47.064307,
            818.0
          ],
          [
            8.561735,
            47.064289,
            816.0
          ],
          [
            8.561763,
            47.064215,
            814.0
          ],
          [
            8.561861,
            47.063989,
            808.0
          ],
          [
            8.56187,
            47.063934,
            806.0
          ],
          [
            8.561816,
            47.063867,
            805.0
          ],
          [
            8.561771,
            47.063849,
            804.0
          ],
          [
            8.561708,
            47.063855,
            803.0
          ],
          [
            8.561583,
            47.063757,
            800.0
          ],
          [
            8.561555,
            47.063647,
            796.0
          ],
          [
            8.561528,
            47.063592,
            794.0
          ],
          [
            8.561466,
            47.063512,
            791.0
          ],
          [
            8.56143,
            47.06342,
            787.0
          ],
          [
            8.561528,
            47.06323,
            779.0
          ],
          [
            8.561493,
            47.063108,
            773.0
          ],
          [
            8.561367,
            47.063028,
            768.0
          ],
          [
            8.561287,
            47.0629,
            762.0
          ],
          [
            8.561124,
            47.062857,
            758.0
          ],
          [
            8.560945,
            47.062821,
            755.0
          ],
          [
            8.560738,
            47.062643,
            749.0
          ],
          [
            8.560639,
            47.062459,
            745.0
          ],
          [
            8.560639,
            47.06241,
            744.0
          ],
          [
            8.560711,
            47.062257,
            740.0
          ],
          [
            8.560765,
            47.062104,
            737.0
          ],
          [
            8.560828,
            47.062031,
            735.0
          ],
          [
            8.560872,
            47.061988,
            734.0
          ],
          [
            8.560872,
            47.061848,
            731.0
          ],
          [
            8.561008,
            47.061627,
            724.0
          ],
          [
            8.561151,
            47.061425,
            715.0
          ],
          [
            8.56125,
            47.061217,
            709.0
          ],
          [
            8.561321,
            47.061137,
            707.0
          ],
          [
            8.561321,
            47.060973,
            705.0
          ],
          [
            8.561295,
            47.060844,
            703.0
          ],
          [
            8.561169,
            47.06055,
            697.0
          ],
          [
            8.561025,
            47.060317,
            692.0
          ],
          [
            8.560962,
            47.060103,
            687.0
          ],
          [
            8.560981,
            47.05981,
            679.0
          ],
          [
            8.560962,
            47.059602,
            672.0
          ],
          [
            8.560962,
            47.059479,
            668.0
          ],
          [
            8.560998,
            47.059424,
            666.0
          ],
          [
            8.561017,
            47.059302,
            663.0
          ],
          [
            8.561061,
            47.059198,
            660.0
          ],
          [
            8.560891,
            47.059173,
            658.0
          ],
          [
            8.560811,
            47.05921,
            658.0
          ],
          [
            8.560522,
            47.059344,
            655.0
          ],
          [
            8.560478,
            47.05935,
            655.0
          ],
          [
            8.560451,
            47.05935,
            655.0
          ],
          [
            8.560495,
            47.059283,
            654.0
          ],
          [
            8.560612,
            47.059173,
            653.0
          ],
          [
            8.560927,
            47.058763,
            648.0
          ],
          [
            8.560855,
            47.05869,
            646.0
          ],
          [
            8.560819,
            47.058616,
            643.0
          ],
          [
            8.560819,
            47.058524,
            641.0
          ],
          [
            8.560782,
            47.058463,
            639.0
          ],
          [
            8.560765,
            47.05842,
            638.0
          ],
          [
            8.560756,
            47.058402,
            637.0
          ],
          [
            8.560756,
            47.058396,
            637.0
          ],
          [
            8.560774,
            47.058323,
            635.0
          ],
          [
            8.560782,
            47.058274,
            633.0
          ],
          [
            8.560782,
            47.058231,
            632.0
          ],
          [
            8.560765,
            47.058152,
            630.0
          ],
          [
            8.560693,
            47.058078,
            628.0
          ],
          [
            8.560639,
            47.057986,
            626.0
          ],
          [
            8.560595,
            47.057888,
            624.0
          ],
          [
            8.560603,
            47.05779,
            622.0
          ],
          [
            8.560631,
            47.057759,
            622.0
          ],
          [
            8.560631,
            47.057735,
            621.0
          ],
          [
            8.560558,
            47.057625,
            619.0
          ],
          [
            8.560513,
            47.057582,
            618.0
          ],
          [
            8.560469,
            47.057392,
            616.0
          ],
          [
            8.560388,
            47.057337,
            615.0
          ],
          [
            8.560253,
            47.057301,
            614.0
          ],
          [
            8.560163,
            47.057246,
            613.0
          ],
          [
            8.560119,
            47.057197,
            612.0
          ],
          [
            8.560109,
            47.057142,
            611.0
          ],
          [
            8.5601,
            47.057056,
            610.0
          ],
          [
            8.560065,
            47.056897,
            609.0
          ],
          [
            8.559992,
            47.05675,
            608.0
          ],
          [
            8.559912,
            47.056645,
            607.0
          ],
          [
            8.559903,
            47.056597,
            607.0
          ],
          [
            8.559929,
            47.056505,
            606.0
          ],
          [
            8.560073,
            47.056187,
            604.0
          ],
          [
            8.560092,
            47.056101,
            603.0
          ],
          [
            8.560109,
            47.056046,
            603.0
          ],
          [
            8.560199,
            47.055985,
            602.0
          ],
          [
            8.560459,
            47.055746,
            600.0
          ],
          [
            8.560478,
            47.055709,
            600.0
          ],
          [
            8.560415,
            47.055593,
            598.0
          ],
          [
            8.560415,
            47.055556,
            597.0
          ],
          [
            8.560442,
            47.055514,
            596.0
          ],
          [
            8.560495,
            47.055459,
            594.0
          ],
          [
            8.560558,
            47.05525,
            589.0
          ],
          [
            8.560505,
            47.055103,
            584.0
          ],
          [
            8.560585,
            47.054981,
            580.0
          ],
          [
            8.560513,
            47.054785,
            573.0
          ],
          [
            8.560513,
            47.054706,
            570.0
          ],
          [
            8.560522,
            47.05462,
            568.0
          ],
          [
            8.560522,
            47.054535,
            566.0
          ],
          [
            8.560451,
            47.054437,
            564.0
          ],
          [
            8.560469,
            47.054394,
            563.0
          ],
          [
            8.560541,
            47.054302,
            560.0
          ],
          [
            8.560612,
            47.054216,
            558.0
          ],
          [
            8.560675,
            47.054124,
            556.0
          ],
          [
            8.560666,
            47.05402,
            554.0
          ],
          [
            8.560711,
            47.053953,
            552.0
          ],
          [
            8.560721,
            47.053885,
            551.0
          ],
          [
            8.560666,
            47.053824,
            550.0
          ],
          [
            8.560684,
            47.053775,
            549.0
          ],
          [
            8.560721,
            47.053696,
            548.0
          ],
          [
            8.560811,
            47.053494,
            544.0
          ],
          [
            8.560872,
            47.053433,
            543.0
          ],
          [
            8.560908,
            47.053402,
            542.0
          ],
          [
            8.560962,
            47.053335,
            541.0
          ],
          [
            8.560998,
            47.053292,
            540.0
          ],
          [
            8.561052,
            47.053175,
            538.0
          ],
          [
            8.560998,
            47.053047,
            534.0
          ],
          [
            8.560971,
            47.052955,
            532.0
          ],
          [
            8.560962,
            47.052888,
            531.0
          ],
          [
            8.560989,
            47.052772,
            528.0
          ],
          [
            8.560945,
            47.052723,
            526.0
          ],
          [
            8.560864,
            47.052711,
            525.0
          ],
          [
            8.560845,
            47.052717,
            524.0
          ],
          [
            8.560782,
            47.052741,
            523.0
          ],
          [
            8.560748,
            47.052747,
            522.0
          ],
          [
            8.560721,
            47.05276,
            522.0
          ],
          [
            8.560648,
            47.052766,
            520.0
          ],
          [
            8.560576,
            47.05276,
            520.0
          ],
          [
            8.560513,
            47.052711,
            520.0
          ],
          [
            8.560342,
            47.052545,
            519.0
          ],
          [
            8.560127,
            47.0526,
            519.0
          ],
          [
            8.56001,
            47.052631,
            519.0
          ],
          [
            8.559893,
            47.052655,
            519.0
          ],
          [
            8.559759,
            47.05268,
            518.0
          ],
          [
            8.559624,
            47.052705,
            518.0
          ],
          [
            8.559534,
            47.052717,
            518.0
          ],
          [
            8.559436,
            47.052729,
            518.0
          ],
          [
            8.559327,
            47.052735,
            518.0
          ],
          [
            8.559203,
            47.052754,
            517.0
          ],
          [
            8.55905,
            47.052766,
            517.0
          ],
          [
            8.558761,
            47.052784,
            517.0
          ],
          [
            8.5586,
            47.05279,
            516.0
          ],
          [
            8.558151,
            47.052821,
            516.0
          ],
          [
            8.557971,
            47.052827,
            515.0
          ],
          [
            8.557828,
            47.052833,
            515.0
          ],
          [
            8.557675,
            47.052827,
            515.0
          ],
          [
            8.557566,
            47.052821,
            515.0
          ],
          [
            8.557396,
            47.052821,
            514.0
          ],
          [
            8.556426,
            47.052784,
            513.0
          ],
          [
            8.556345,
            47.052778,
            513.0
          ],
          [
            8.556148,
            47.052772,
            512.0
          ],
          [
            8.556013,
            47.052754,
            512.0
          ],
          [
            8.555878,
            47.052735,
            512.0
          ],
          [
            8.555752,
            47.052711,
            512.0
          ],
          [
            8.555698,
            47.052698,
            512.0
          ],
          [
            8.554882,
            47.052392,
            510.0
          ],
          [
            8.554845,
            47.05238,
            510.0
          ],
          [
            8.554792,
            47.052367,
            510.0
          ],
          [
            8.554737,
            47.052355,
            510.0
          ],
          [
            8.554692,
            47.052343,
            510.0
          ],
          [
            8.554639,
            47.052337,
            510.0
          ],
          [
            8.554576,
            47.052331,
            510.0
          ],
          [
            8.554513,
            47.052331,
            510.0
          ],
          [
            8.554459,
            47.052337,
            510.0
          ],
          [
            8.554396,
            47.052343,
            509.0
          ],
          [
            8.554333,
            47.052355,
            509.0
          ],
          [
            8.55427,
            47.052367,
            509.0
          ],
          [
            8.554054,
            47.052423,
            509.0
          ],
          [
            8.553821,
            47.05249,
            509.0
          ],
          [
            8.553704,
            47.052521,
            508.0
          ],
          [
            8.553282,
            47.052637,
            508.0
          ],
          [
            8.551907,
            47.05301,
            505.0
          ],
          [
            8.55189,
            47.052974,
            505.0
          ],
          [
            8.551872,
            47.052943,
            505.0
          ],
          [
            8.551863,
            47.052943,
            505.0
          ],
          [
            8.551369,
            47.052668,
            505.0
          ],
          [
            8.55136,
            47.052662,
            505.0
          ],
          [
            8.55136,
            47.052662,
            505.0
          ],
          [
            8.550865,
            47.05238,
            504.0
          ],
          [
            8.550776,
            47.052337,
            504.0
          ],
          [
            8.550677,
            47.052294,
            504.0
          ],
          [
            8.550479,
            47.052208,
            504.0
          ],
          [
            8.550479,
            47.052153,
            504.0
          ],
          [
            8.549931,
            47.051848,
            503.0
          ],
          [
            8.549968,
            47.051786,
            503.0
          ],
          [
            8.550048,
            47.051658,
            504.0
          ],
          [
            8.550058,
            47.051633,
            504.0
          ],
          [
            8.550075,
            47.051596,
            504.0
          ],
          [
            8.550182,
            47.051248,
            504.0
          ],
          [
            8.550272,
            47.050966,
            504.0
          ],
          [
            8.550389,
            47.050605,
            504.0
          ],
          [
            8.550264,
            47.050574,
            505.0
          ],
          [
            8.550282,
            47.050543,
            505.0
          ],
          [
            8.550299,
            47.050507,
            505.0
          ],
          [
            8.550444,
            47.050543,
            505.0
          ],
          [
            8.550471,
            47.05055,
            505.0
          ],
          [
            8.550542,
            47.050562,
            505.0
          ],
          [
            8.550597,
            47.050574,
            505.0
          ],
          [
            8.550748,
            47.050623,
            505.0
          ],
          [
            8.550758,
            47.050605,
            505.0
          ],
          [
            8.550542,
            47.05036,
            506.0
          ],
          [
            8.550282,
            47.050097,
            506.0
          ],
          [
            8.550245,
            47.050054,
            506.0
          ],
          [
            8.549995,
            47.049785,
            507.0
          ],
          [
            8.549995,
            47.049785,
            507.0
          ],
          [
            8.549905,
            47.049687,
            507.0
          ],
          [
            8.549886,
            47.049662,
            507.0
          ],
          [
            8.549913,
            47.049656,
            507.0
          ],
          [
            8.550138,
            47.049564,
            508.0
          ],
          [
            8.550192,
            47.049546,
            508.0
          ],
          [
            8.550299,
            47.049509,
            508.0
          ],
          [
            8.550282,
            47.049491,
            508.0
          ],
          [
            8.550155,
            47.049314,
            508.0
          ],
          [
            8.549949,
            47.04905,
            509.0
          ],
          [
            8.550138,
            47.049026,
            510.0
          ],
          [
            8.550138,
            47.04905,
            510.0
          ],
          [
            8.549995,
            47.049099,
            510.0
          ]
        ]
      }
    }
  ]
}