{
  "type": "FeatureCollection",
  "features": [
    {
      "type": "Feature",
      "properties": {},
      "geometry": {
        "type": "LineString",
        "coordinates": [
          [
            8.477456,
            47.413707,
            492.0
          ],
          [
            8.477303,
            47.413689,
            491.0
          ],
          [
            8.477203,
            47.413634,
            491.0
          ],
          [
            8.477257,
            47.413555,
            491.0
          ],
          [
            8.477177,
            47.413537,
            491.0
          ],
          [
            8.477024,
            47.413507,
            490.0
          ],
          [
            8.477077,
            47.413415,
            490.0
          ],
          [
            8.476574,
            47.413306,
            488.0
          ],
          [
            8.476557,
            47.413342,
            488.0
          ],
          [
            8.476278,
            47.413294,
            487.0
          ],
          [
            8.476161,
            47.413275,
            487.0
          ],
          [
            8.475721,
            47.413215,
            486.0
          ],
          [
            8.475379,
            47.413172,
            485.0
          ],
          [
            8.474806,
            47.413099,
            483.0
          ],
          [
            8.474787,
            47.413148,
            483.0
          ],
          [
            8.474607,
            47.41313,
            483.0
          ],
          [
            8.473674,
            47.413033,
            480.0
          ],
          [
            8.473251,
            47.412978,
            479.0
          ],
          [
            8.472012,
            47.412795,
            475.0
          ],
          [
            8.471274,
            47.412692,
            473.0
          ],
          [
            8.470798,
            47.412625,
            472.0
          ],
          [
            8.470798,
            47.412625,
            472.0
          ],
          [
            8.470494,
            47.412583,
            471.0
          ],
          [
            8.470035,
            47.412516,
            470.0
          ],
          [
            8.469209,
            47.412351,
            466.0
          ],
          [
            8.46875,
            47.412266,
            464.0
          ],
          [
            8.468121,
            47.412139,
            461.0
          ],
          [
            8.467871,
            47.41209,
            459.0
          ],
          [
            8.467754,
            47.412066,
            458.0
          ],
          [
            8.467735,
            47.412029,
            458.0
          ],
          [
            8.467529,
            47.412023,
            458.0
          ],
          [
            8.467286,
            47.412023,
            458.0
          ],
          [
            8.467026,
            47.412023,
            458.0
          ],
          [
            8.466972,
            47.412023,
            458.0
          ],
          [
            8.466927,
            47.412023,
            457.0
          ],
          [
            8.466829,
            47.412005,
            455.0
          ],
          [
            8.466756,
            47.411987,
            453.0
          ],
          [
            8.466703,
            47.411968,
            452.0
          ],
          [
            8.466649,
            47.411944,
            450.0
          ],
          [
            8.466603,
            47.411914,
            450.0
          ],
          [
            8.466595,
            47.411895,
            449.0
          ],
          [
            8.46654,
            47.411823,
            448.0
          ],
          [
            8.466496,
            47.411768,
            448.0
          ],
          [
            8.46646,
            47.41172,
            447.0
          ],
          [
            8.466416,
            47.411622,
            446.0
          ],
          [
            8.466353,
            47.4115,
            444.0
          ],
          [
            8.466271,
            47.41133,
            442.0
          ],
          [
            8.466244,
            47.411258,
            441.0
          ],
          [
            8.466208,
            47.411197,
            440.0
          ],
          [
            8.466173,
            47.411148,
            440.0
          ],
          [
            8.466154,
            47.41113,
            440.0
          ],
          [
            8.46611,
            47.411093,
            439.0
          ],
          [
            8.46602,
            47.411026,
            438.0
          ],
          [
            8.465957,
            47.41099,
            437.0
          ],
          [
            8.465921,
            47.410959,
            437.0
          ],
          [
            8.465858,
            47.410929,
            436.0
          ],
          [
            8.46585,
            47.410905,
            436.0
          ],
          [
            8.465813,
            47.410856,
            436.0
          ],
          [
            8.46575,
            47.410747,
            435.0
          ],
          [
            8.465561,
            47.410503,
            433.0
          ],
          [
            8.465498,
            47.410443,
            433.0
          ],
          [
            8.465445,
            47.4104,
            432.0
          ],
          [
            8.465374,
            47.410364,
            432.0
          ],
          [
            8.465247,
            47.410303,
            431.0
          ],
          [
            8.465104,
            47.41023,
            430.0
          ],
          [
            8.464995,
            47.410145,
            429.0
          ],
          [
            8.464924,
            47.41006,
            427.0
          ],
          [
            8.464869,
            47.409987,
            426.0
          ],
          [
            8.464789,
            47.409908,
            425.0
          ],
          [
            8.464888,
            47.409884,
            426.0
          ],
          [
            8.464834,
            47.409829,
            424.0
          ],
          [
            8.464718,
            47.409817,
            424.0
          ],
          [
            8.464582,
            47.409799,
            423.0
          ],
          [
            8.464466,
            47.40978,
            422.0
          ],
          [
            8.463999,
            47.409664,
            416.0
          ],
          [
            8.463926,
            47.409646,
            416.0
          ],
          [
            8.4639,
            47.40961,
            417.0
          ],
          [
            8.463837,
            47.40961,
            417.0
          ],
          [
            8.463774,
            47.409591,
            417.0
          ],
          [
            8.463523,
            47.409525,
            416.0
          ],
          [
            8.463316,
            47.409482,
            416.0
          ],
          [
            8.463171,
            47.409452,
            416.0
          ],
          [
            8.463064,
            47.409403,
            415.0
          ],
          [
            8.462984,
            47.409355,
            414.0
          ],
          [
            8.462921,
            47.409275,
            414.0
          ],
          [
            8.462902,
            47.409245,
            414.0
          ],
          [
            8.462884,
            47.409214,
            414.0
          ],
          [
            8.462884,
            47.409196,
            414.0
          ],
          [
            8.462831,
            47.409214,
            412.0
          ],
          [
            8.462723,
            47.409251,
            413.0
          ],
          [
            8.462669,
            47.409269,
            415.0
          ],
          [
            8.462642,
            47.409312,
            415.0
          ],
          [
            8.462624,
            47.409318,
            415.0
          ],
          [
            8.462597,
            47.409324,
            415.0
          ],
          [
            8.462588,
            47.409336,
            415.0
          ],
          [
            8.462588,
            47.409349,
            415.0
          ],
          [
            8.462597,
            47.409361,
            415.0
          ],
          [
            8.462615,
            47.409367,
            415.0
          ],
          [
            8.462642,
            47.409367,
            414.0
          ],
          [
            8.46266,
            47.409355,
            414.0
          ],
          [
            8.46266,
            47.409343,
            414.0
          ],
          [
            8.462651,
            47.40933,
            414.0
          ],
          [
            8.462597,
            47.409038,
            413.0
          ],
          [
            8.462552,
            47.408984,
            413.0
          ],
          [
            8.462454,
            47.40885,
            412.0
          ],
          [
            8.462418,
            47.408807,
            412.0
          ],
          [
            8.462399,
            47.408777,
            412.0
          ],
          [
            8.462382,
            47.408746,
            411.0
          ],
          [
            8.462274,
            47.408613,
            411.0
          ],
          [
            8.462211,
            47.408522,
            410.0
          ],
          [
            8.462068,
            47.40837,
            408.0
          ],
          [
            8.46195,
            47.408327,
            407.0
          ],
          [
            8.461852,
            47.408431,
            407.0
          ],
          [
            8.461636,
            47.408309,
            407.0
          ],
          [
            8.461555,
            47.408272,
            407.0
          ],
          [
            8.461439,
            47.408217,
            407.0
          ],
          [
            8.461349,
            47.408217,
            407.0
          ],
          [
            8.461169,
            47.40823,
            407.0
          ],
          [
            8.460953,
            47.408266,
            408.0
          ],
          [
            8.46098,
            47.408193,
            407.0
          ],
          [
            8.461177,
            47.407889,
            401.0
          ],
          [
            8.46133,
            47.407828,
            400.0
          ],
          [
            8.46133,
            47.407701,
            400.0
          ],
          [
            8.461313,
            47.407263,
            400.0
          ],
          [
            8.4609,
            47.407269,
            400.0
          ],
          [
            8.46046,
            47.407251,
            400.0
          ],
          [
            8.459984,
            47.407221,
            400.0
          ],
          [
            8.459839,
            47.407184,
            400.0
          ],
          [
            8.459821,
            47.407087,
            400.0
          ],
          [
            8.459812,
            47.407008,
            400.0
          ],
          [
            8.459768,
            47.406929,
            400.0
          ],
          [
            8.459714,
            47.406819,
            400.0
          ],
          [
            8.459479,
            47.406448,
            400.0
          ],
          [
            8.459471,
            47.406418,
            400.0
          ],
          [
            8.459381,
            47.40623,
            400.0
          ],
          [
            8.459282,
            47.405998,
            400.0
          ],
          [
            8.459229,
            47.405822,
            400.0
          ],
          [
            8.459085,
            47.405451,
            399.0
          ],
          [
            8.459039,
            47.405281,
            398.0
          ],
          [
            8.459022,
            47.405245,
            398.0
          ],
          [
            8.458824,
            47.404576,
            396.0
          ],
          [
            8.458806,
            47.404533,
            395.0
          ],
          [
            8.45877,
            47.404424,
            395.0
          ],
          [
            8.458689,
            47.404169,
            394.0
          ],
          [
            8.458582,
            47.403974,
            393.0
          ],
          [
            8.458437,
            47.403804,
            393.0
          ],
          [
            8.458286,
            47.403646,
            392.0
          ],
          [
            8.458078,
            47.403421,
            391.0
          ],
          [
            8.458016,
            47.40336,
            391.0
          ],
          [
            8.457908,
            47.403305,
            390.0
          ],
          [
            8.457871,
            47.403208,
            390.0
          ],
          [
            8.45736,
            47.402898,
            390.0
          ],
          [
            8.457072,
            47.402734,
            390.0
          ],
          [
            8.456605,
            47.40246,
            390.0
          ],
          [
            8.45647,
            47.402381,
            390.0
          ],
          [
            8.456353,
            47.402302,
            390.0
          ],
          [
            8.455779,
            47.401955,
            390.0
          ],
          [
            8.455716,
            47.401907,
            390.0
          ],
          [
            8.455689,
            47.401846,
            390.0
          ],
          [
            8.455617,
            47.401791,
            390.0
          ],
          [
            8.45559,
            47.401767,
            390.0
          ],
          [
            8.455456,
            47.401694,
            390.0
          ],
          [
            8.454269,
            47.400983,
            390.0
          ],
          [
            8.453938,
            47.4008,
            390.0
          ],
          [
            8.453856,
            47.400788,
            390.0
          ],
          [
            8.453739,
            47.400782,
            391.0
          ],
          [
            8.453623,
            47.400776,
            391.0
          ],
          [
            8.45356,
            47.400776,
            391.0
          ],
          [
            8.453317,
            47.400782,
            391.0
          ],
          [
            8.45311,
            47.400788,
            391.0
          ],
          [
            8.452114,
            47.400812,
            391.0
          ],
          [
            8.452005,
            47.400812,
            391.0
          ],
          [
            8.451835,
            47.400818,
            391.0
          ],
          [
            8.451592,
            47.400825,
            391.0
          ],
          [
            8.451539,
            47.400825,
            391.0
          ],
          [
            8.451468,
            47.400825,
            391.0
          ],
          [
            8.451198,
            47.400831,
            391.0
          ],
          [
            8.451179,
            47.400831,
            391.0
          ],
          [
            8.450946,
            47.400837,
            391.0
          ],
          [
            8.450569,
            47.400861,
            391.0
          ],
          [
            8.450101,
            47.40091,
            391.0
          ],
          [
            8.449921,
            47.400928,
            391.0
          ],
          [
            8.449913,
            47.400928,
            390.0
          ],
          [
            8.449625,
            47.400964,
            390.0
          ],
          [
            8.449508,
            47.400977,
            390.0
          ],
          [
            8.449212,
            47.401013,
            390.0
          ],
          [
            8.449204,
            47.401013,
            390.0
          ],
          [
            8.448942,
            47.401043,
            390.0
          ],
          [
            8.448665,
            47.401074,
            390.0
          ],
          [
            8.448476,
            47.401098,
            391.0
          ],
          [
            8.448485,
            47.401177,
            391.0
          ],
          [
            8.448422,
            47.401201,
            391.0
          ],
          [
            8.448368,
            47.40125,
            391.0
          ],
          [
            8.448332,
            47.401305,
            391.0
          ],
          [
            8.448296,
            47.401372,
            391.0
          ],
          [
            8.448152,
            47.401335,
            391.0
          ],
          [
            8.448,
            47.401293,
            391.0
          ],
          [
            8.448116,
            47.401092,
            391.0
          ],
          [
            8.448116,
            47.401055,
            391.0
          ],
          [
            8.448116,
            47.401037,
            391.0
          ],
          [
            8.448152,
            47.400977,
            391.0
          ],
          [
            8.448152,
            47.400971,
            391.0
          ],
          [
            8.448162,
            47.400958,
            391.0
          ],
          [
            8.448189,
            47.40091,
            391.0
          ],
          [
            8.448197,
            47.400898,
            391.0
          ],
          [
            8.44817,
            47.400892,
            391.0
          ],
          [
            8.448152,
            47.400873,
            391.0
          ],
          [
            8.448134,
            47.400843,
            391.0
          ],
          [
            8.448126,
            47.4008,
            391.0
          ],
          [
            8.448126,
            47.400721,
            391.0
          ],
          [
            8.448143,
            47.400454,
            391.0
          ],
          [
            8.448162,
            47.40024,
            391.0
          ],
          [
            8.448179,
            47.399931,
            390.0
          ],
          [
            8.448189,
            47.399852,
            390.0
          ],
          [
            8.448215,
            47.39973,
            390.0
          ],
          [
            8.448152,
            47.399718,
            390.0
          ],
          [
            8.447766,
            47.399687,
            390.0
          ],
          [
            8.447793,
            47.399517,
            390.0
          ],
          [
            8.44781,
            47.39939,
            390.0
          ],
          [
            8.447837,
            47.399219,
            390.0
          ],
          [
            8.447802,
            47.399219,
            390.0
          ],
          [
            8.447658,
            47.399207,
            390.0
          ],
          [
            8.447658,
            47.399195,
            390.0
          ],
          [
            8.447667,
            47.39917,
            390.0
          ],
          [
            8.447667,
            47.399146,
            390.0
          ],
          [
            8.448009,
            47.39917,
            390.0
          ],
          [
            8.448017,
            47.399134,
            390.0
          ],
          [
            8.448026,
            47.399043,
            390.0
          ],
          [
            8.448044,
            47.399019,
            390.0
          ],
          [
            8.448072,
            47.398958,
            390.0
          ],
          [
            8.44808,
            47.398921,
            390.0
          ],
          [
            8.448089,
            47.398879,
            390.0
          ],
          [
            8.448089,
            47.398617,
            390.0
          ],
          [
            8.44808,
            47.39852,
            390.0
          ],
          [
            8.448089,
            47.398216,
            391.0
          ],
          [
            8.448089,
            47.398179,
            391.0
          ],
          [
            8.448036,
            47.398173,
            391.0
          ],
          [
            8.448,
            47.398106,
            391.0
          ],
          [
            8.44782,
            47.398119,
            391.0
          ],
          [
            8.447802,
            47.398076,
            391.0
          ],
          [
            8.447784,
            47.398022,
            391.0
          ],
          [
            8.447776,
            47.398009,
            391.0
          ],
          [
            8.447766,
            47.397997,
            391.0
          ],
          [
            8.447739,
            47.397942,
            391.0
          ],
          [
            8.44773,
            47.397918,
            391.0
          ],
          [
            8.447776,
            47.3979,
            391.0
          ],
          [
            8.44782,
            47.397869,
            391.0
          ],
          [
            8.447847,
            47.397826,
            391.0
          ],
          [
            8.447892,
            47.397699,
            392.0
          ],
          [
            8.44791,
            47.397626,
            392.0
          ],
          [
            8.447919,
            47.397571,
            392.0
          ],
          [
            8.447919,
            47.397352,
            393.0
          ],
          [
            8.447927,
            47.397328,
            393.0
          ],
          [
            8.447927,
            47.397243,
            393.0
          ],
          [
            8.447936,
            47.397176,
            393.0
          ],
          [
            8.447927,
            47.397152,
            393.0
          ],
          [
            8.447927,
            47.397134,
            393.0
          ],
          [
            8.447946,
            47.396738,
            394.0
          ],
          [
            8.447927,
            47.396726,
            394.0
          ],
          [
            8.44791,
            47.396726,
            394.0
          ],
          [
            8.447892,
            47.396726,
            394.0
          ],
          [
            8.447892,
            47.396671,
            395.0
          ],
          [
            8.447892,
            47.396635,
            395.0
          ],
          [
            8.44791,
            47.396592,
            395.0
          ],
          [
            8.447919,
            47.396428,
            395.0
          ],
          [
            8.44791,
            47.396391,
            395.0
          ],
          [
            8.4479,
            47.396361,
            395.0
          ],
          [
            8.447873,
            47.396288,
            396.0
          ],
          [
            8.447856,
            47.396246,
            396.0
          ],
          [
            8.447829,
            47.396203,
            396.0
          ],
          [
            8.447802,
            47.396173,
            396.0
          ],
          [
            8.447847,
            47.396136,
            396.0
          ],
          [
            8.447873,
            47.396094,
            396.0
          ],
          [
            8.447892,
            47.396045,
            396.0
          ],
          [
            8.44791,
            47.396021,
            397.0
          ],
          [
            8.447919,
            47.396021,
            397.0
          ],
          [
            8.447946,
            47.396021,
            397.0
          ],
          [
            8.447963,
            47.396009,
            397.0
          ],
          [
            8.44799,
            47.39599,
            397.0
          ],
          [
            8.448009,
            47.395948,
            397.0
          ],
          [
            8.448036,
            47.395917,
            398.0
          ],
          [
            8.448063,
            47.395881,
            398.0
          ],
          [
            8.448072,
            47.395856,
            398.0
          ],
          [
            8.448063,
            47.395826,
            398.0
          ],
          [
            8.448099,
            47.395729,
            399.0
          ],
          [
            8.448116,
            47.395711,
            399.0
          ],
          [
            8.448215,
            47.395412,
            401.0
          ],
          [
            8.448223,
            47.395376,
            401.0
          ],
          [
            8.448242,
            47.395303,
            402.0
          ],
          [
            8.44826,
            47.395218,
            402.0
          ],
          [
            8.44826,
            47.395188,
            403.0
          ],
          [
            8.448252,
            47.395163,
            403.0
          ],
          [
            8.448252,
            47.395133,
            403.0
          ],
          [
            8.448278,
            47.395115,
            403.0
          ],
          [
            8.448287,
            47.395091,
            403.0
          ],
          [
            8.448296,
            47.39503,
            404.0
          ],
          [
            8.448313,
            47.395005,
            404.0
          ],
          [
            8.448332,
            47.394889,
            405.0
          ],
          [
            8.448323,
            47.394865,
            405.0
          ],
          [
            8.448332,
            47.394798,
            406.0
          ],
          [
            8.44835,
            47.394701,
            407.0
          ],
          [
            8.448376,
            47.394598,
            407.0
          ],
          [
            8.448386,
            47.394574,
            408.0
          ],
          [
            8.448403,
            47.394494,
            408.0
          ],
          [
            8.448422,
            47.394421,
            409.0
          ],
          [
            8.448439,
            47.394312,
            410.0
          ],
          [
            8.448439,
            47.394306,
            410.0
          ],
          [
            8.448466,
            47.394142,
            411.0
          ],
          [
            8.448476,
            47.394063,
            411.0
          ],
          [
            8.448485,
            47.394014,
            412.0
          ],
          [
            8.448485,
            47.393935,
            412.0
          ],
          [
            8.448476,
            47.39388,
            413.0
          ],
          [
            8.448458,
            47.393807,
            413.0
          ],
          [
            8.448439,
            47.393728,
            414.0
          ],
          [
            8.448395,
            47.393643,
            415.0
          ],
          [
            8.448332,
            47.393546,
            415.0
          ],
          [
            8.448252,
            47.393418,
            416.0
          ],
          [
            8.44817,
            47.393308,
            417.0
          ],
          [
            8.448116,
            47.393229,
            418.0
          ],
          [
            8.448063,
            47.393157,
            418.0
          ],
          [
            8.448044,
            47.393138,
            418.0
          ],
          [
            8.448026,
            47.393108,
            419.0
          ],
          [
            8.448026,
            47.393084,
            419.0
          ],
          [
            8.448017,
            47.39306,
            419.0
          ],
          [
            8.448017,
            47.393017,
            419.0
          ],
          [
            8.448036,
            47.393011,
            419.0
          ],
          [
            8.448044,
            47.392992,
            419.0
          ],
          [
            8.448053,
            47.392998,
            419.0
          ],
          [
            8.448089,
            47.393005,
            419.0
          ],
          [
            8.448126,
            47.393011,
            419.0
          ],
          [
            8.448152,
            47.393017,
            420.0
          ],
          [
            8.448197,
            47.393047,
            420.0
          ],
          [
            8.448223,
            47.393023,
            420.0
          ],
          [
            8.44826,
            47.392992,
            420.0
          ],
          [
            8.448502,
            47.392773,
            422.0
          ],
          [
            8.448583,
            47.3927,
            422.0
          ],
          [
            8.448619,
            47.392682,
            422.0
          ],
          [
            8.448655,
            47.392658,
            422.0
          ],
          [
            8.448619,
            47.392628,
            422.0
          ],
          [
            8.448583,
            47.392561,
            423.0
          ],
          [
            8.448529,
            47.392524,
            423.0
          ],
          [
            8.448439,
            47.392469,
            423.0
          ],
          [
            8.448376,
            47.392396,
            423.0
          ],
          [
            8.448323,
            47.392414,
            423.0
          ],
          [
            8.448269,
            47.392433,
            423.0
          ],
          [
            8.44817,
            47.392341,
            423.0
          ],
          [
            8.448107,
            47.392244,
            424.0
          ],
          [
            8.44808,
            47.392202,
            424.0
          ],
          [
            8.447982,
            47.392062,
            425.0
          ],
          [
            8.447954,
            47.392001,
            425.0
          ],
          [
            8.447936,
            47.391946,
            425.0
          ],
          [
            8.4479,
            47.391788,
            426.0
          ],
          [
            8.44791,
            47.391746,
            426.0
          ],
          [
            8.447954,
            47.391691,
            427.0
          ],
          [
            8.447703,
            47.391472,
            429.0
          ],
          [
            8.447506,
            47.391368,
            430.0
          ],
          [
            8.447181,
            47.391235,
            433.0
          ],
          [
            8.447084,
            47.391204,
            434.0
          ],
          [
            8.44694,
            47.391186,
            436.0
          ],
          [
            8.446688,
            47.391192,
            438.0
          ],
          [
            8.44605,
            47.391198,
            443.0
          ],
          [
            8.445753,
            47.391217,
            446.0
          ],
          [
            8.445592,
            47.391217,
            447.0
          ],
          [
            8.445457,
            47.391204,
            448.0
          ],
          [
            8.445152,
            47.391168,
            451.0
          ],
          [
            8.444856,
            47.391101,
            454.0
          ],
          [
            8.444657,
            47.391059,
            455.0
          ],
          [
            8.444541,
            47.391047,
            456.0
          ],
          [
            8.444281,
            47.39104,
            458.0
          ],
          [
            8.443994,
            47.391077,
            461.0
          ],
          [
            8.443732,
            47.391113,
            464.0
          ],
          [
            8.443552,
            47.391113,
            465.0
          ],
          [
            8.443409,
            47.391101,
            467.0
          ],
          [
            8.44287,
            47.39104,
            471.0
          ],
          [
            8.4426,
            47.39101,
            473.0
          ],
          [
            8.442502,
            47.391004,
            474.0
          ],
          [
            8.44226,
            47.390864,
            475.0
          ],
          [
            8.442233,
            47.390827,
            476.0
          ],
          [
            8.442034,
            47.39059,
            478.0
          ],
          [
            8.441864,
            47.390304,
            480.0
          ],
          [
            8.441424,
            47.389617,
            485.0
          ],
          [
            8.441082,
            47.389125,
            488.0
          ],
          [
            8.440795,
            47.388693,
            491.0
          ],
          [
            8.440652,
            47.388565,
            492.0
          ],
          [
            8.43995,
            47.388346,
            496.0
          ],
          [
            8.439178,
            47.3882,
            499.0
          ],
          [
            8.438694,
            47.388091,
            502.0
          ],
          [
            8.438118,
            47.387902,
            504.0
          ],
          [
            8.438028,
            47.387859,
            505.0
          ],
          [
            8.437965,
            47.387804,
            505.0
          ],
          [
            8.437948,
            47.38775,
            505.0
          ],
          [
            8.437948,
            47.387689,
            506.0
          ],
          [
            8.437902,
            47.387659,
            505.0
          ],
          [
            8.437822,
            47.387659,
            505.0
          ],
          [
            8.437669,
            47.387647,
            504.0
          ],
          [
            8.437516,
            47.387635,
            503.0
          ],
          [
            8.43739,
            47.38761,
            502.0
          ],
          [
            8.43722,
            47.387556,
            501.0
          ],
          [
            8.43704,
            47.387525,
            500.0
          ],
          [
            8.43696,
            47.387513,
            500.0
          ],
          [
            8.436824,
            47.38744,
            500.0
          ],
          [
            8.436744,
            47.387397,
            500.0
          ],
          [
            8.436734,
            47.387318,
            500.0
          ],
          [
            8.436753,
            47.387178,
            500.0
          ],
          [
            8.436707,
            47.387124,
            500.0
          ],
          [
            8.43651,
            47.387093,
            500.0
          ],
          [
            8.436457,
            47.387057,
            500.0
          ],
          [
            8.43643,
            47.387027,
            500.0
          ],
          [
            8.43642,
            47.387014,
            500.0
          ],
          [
            8.436411,
            47.387002,
            500.0
          ],
          [
            8.436411,
            47.38699,
            500.0
          ],
          [
            8.436411,
            47.386941,
            500.0
          ],
          [
            8.436438,
            47.386771,
            500.0
          ],
          [
            8.43652,
            47.386704,
            501.0
          ],
          [
            8.43669,
            47.386582,
            504.0
          ],
          [
            8.436843,
            47.386461,
            506.0
          ],
          [
            8.436357,
            47.385926,
            506.0
          ],
          [
            8.436078,
            47.385609,
            507.0
          ],
          [
            8.435962,
            47.385421,
            507.0
          ],
          [
            8.435864,
            47.385171,
            507.0
          ],
          [
            8.435728,
            47.384776,
            507.0
          ],
          [
            8.435549,
            47.384295,
            508.0
          ],
          [
            8.435504,
            47.384222,
            508.0
          ],
          [
            8.435388,
            47.384004,
            508.0
          ],
          [
            8.434947,
            47.383614,
            509.0
          ],
          [
            8.434587,
            47.383328,
            509.0
          ],
          [
            8.434237,
            47.383097,
            509.0
          ],
          [
            8.434067,
            47.382982,
            509.0
          ],
          [
            8.434013,
            47.382933,
            510.0
          ],
          [
            8.433977,
            47.382872,
            510.0
          ],
          [
            8.433977,
            47.382775,
            510.0
          ],
          [
            8.434004,
            47.382695,
            510.0
          ],
          [
            8.43413,
            47.382489,
            510.0
          ],
          [
            8.434273,
            47.382246,
            508.0
          ],
          [
            8.43413,
            47.382209,
            507.0
          ],
          [
            8.433977,
            47.382178,
            505.0
          ],
          [
            8.43378,
            47.382124,
            502.0
          ],
          [
            8.433339,
            47.381984,
            497.0
          ],
          [
            8.432799,
            47.381808,
            491.0
          ],
          [
            8.432593,
            47.381741,
            488.0
          ],
          [
            8.432539,
            47.381722,
            488.0
          ],
          [
            8.432369,
            47.381661,
            486.0
          ],
          [
            8.432189,
            47.381607,
            483.0
          ],
          [
            8.432054,
            47.38157,
            482.0
          ],
          [
            8.431839,
            47.381528,
            479.0
          ],
          [
            8.431704,
            47.381516,
            477.0
          ],
          [
            8.431308,
            47.381491,
            472.0
          ],
          [
            8.431094,
            47.381479,
            470.0
          ],
          [
            8.430914,
            47.381473,
            468.0
          ],
          [
            8.430761,
            47.381479,
            466.0
          ],
          [
            8.430654,
            47.381497,
            465.0
          ],
          [
            8.430608,
            47.381509,
            464.0
          ],
          [
            8.430438,
            47.381564,
            462.0
          ],
          [
            8.430275,
            47.381631,
            460.0
          ],
          [
            8.430141,
            47.381655,
            458.0
          ],
          [
            8.429916,
            47.382154,
            456.0
          ],
          [
            8.429862,
            47.382325,
            455.0
          ],
          [
            8.42979,
            47.382313,
            454.0
          ],
          [
            8.429692,
            47.382671,
            451.0
          ],
          [
            8.429673,
            47.382836,
            450.0
          ],
          [
            8.429629,
            47.382878,
            449.0
          ],
          [
            8.429575,
            47.382872,
            448.0
          ],
          [
            8.429432,
            47.382854,
            447.0
          ],
          [
            8.429279,
            47.382842,
            445.0
          ],
          [
            8.429243,
            47.382805,
            445.0
          ],
          [
            8.42918,
            47.382781,
            445.0
          ],
          [
            8.429107,
            47.382763,
            445.0
          ],
          [
            8.428794,
            47.382701,
            444.0
          ],
          [
            8.428497,
            47.382641,
            443.0
          ],
          [
            8.428362,
            47.382604,
            443.0
          ],
          [
            8.428264,
            47.38258,
            443.0
          ],
          [
            8.428182,
            47.38255,
            443.0
          ],
          [
            8.428065,
            47.382507,
            443.0
          ],
          [
            8.427859,
            47.382422,
            442.0
          ],
          [
            8.427581,
            47.3823,
            442.0
          ],
          [
            8.427401,
            47.382172,
            442.0
          ],
          [
            8.427239,
            47.382069,
            440.0
          ],
          [
            8.427096,
            47.38196,
            440.0
          ],
          [
            8.426907,
            47.381784,
            440.0
          ],
          [
            8.426746,
            47.381619,
            439.0
          ],
          [
            8.426637,
            47.381497,
            439.0
          ],
          [
            8.425811,
            47.38182,
            434.0
          ],
          [
            8.42573,
            47.38185,
            434.0
          ],
          [
            8.425694,
            47.381881,
            433.0
          ],
          [
            8.425685,
            47.381911,
            433.0
          ],
          [
            8.425515,
            47.381917,
            432.0
          ],
          [
            8.425398,
            47.381966,
            431.0
          ],
          [
            8.425048,
            47.382112,
            428.0
          ],
          [
            8.424886,
            47.382172,
            427.0
          ],
          [
            8.424805,
            47.382209,
            426.0
          ],
          [
            8.424643,
            47.382276,
            425.0
          ],
          [
            8.424518,
            47.382331,
            424.0
          ],
          [
            8.424356,
            47.382392,
            423.0
          ],
          [
            8.42414,
            47.382428,
            421.0
          ],
          [
            8.424014,
            47.382465,
            420.0
          ],
          [
            8.42397,
            47.38244,
            420.0
          ],
          [
            8.423889,
            47.382416,
            420.0
          ],
          [
            8.423727,
            47.382392,
            420.0
          ],
          [
            8.423664,
            47.382233,
            420.0
          ],
          [
            8.42361,
            47.382136,
            420.0
          ],
          [
            8.423457,
            47.381844,
            420.0
          ],
          [
            8.42343,
            47.381716,
            420.0
          ],
          [
            8.423268,
            47.381869,
            420.0
          ],
          [
            8.423197,
            47.381948,
            420.0
          ],
          [
            8.423044,
            47.381881,
            420.0
          ],
          [
            8.422918,
            47.381826,
            420.0
          ],
          [
            8.422838,
            47.381844,
            420.0
          ],
          [
            8.422721,
            47.381826,
            419.0
          ],
          [
            8.422712,
            47.381875,
            419.0
          ],
          [
            8.422685,
            47.381935,
            419.0
          ],
          [
            8.422675,
            47.381929,
            419.0
          ],
          [
            8.422622,
            47.381923,
            419.0
          ],
          [
            8.422614,
            47.381917,
            419.0
          ],
          [
            8.422604,
            47.381917,
            419.0
          ],
          [
            8.422551,
            47.381905,
            419.0
          ],
          [
            8.422532,
            47.381905,
            419.0
          ],
          [
            8.422532,
            47.381881,
            419.0
          ],
          [
            8.422524,
            47.381863,
            419.0
          ],
          [
            8.422505,
            47.381844,
            419.0
          ],
          [
            8.422478,
            47.381826,
            419.0
          ],
          [
            8.422451,
            47.38182,
            419.0
          ],
          [
            8.422461,
            47.381814,
            419.0
          ],
          [
            8.422478,
            47.381784,
            419.0
          ],
          [
            8.422272,
            47.381741,
            419.0
          ],
          [
            8.421786,
            47.381649,
            419.0
          ],
          [
            8.421652,
            47.381625,
            419.0
          ],
          [
            8.421257,
            47.381528,
            420.0
          ],
          [
            8.421104,
            47.381473,
            420.0
          ],
          [
            8.421067,
            47.381455,
            420.0
          ],
          [
            8.420457,
            47.381199,
            420.0
          ],
          [
            8.420232,
            47.381187,
            420.0
          ],
          [
            8.419748,
            47.381352,
            420.0
          ],
          [
            8.419415,
            47.381467,
            421.0
          ],
          [
            8.41902,
            47.381534,
            422.0
          ],
          [
            8.418077,
            47.381643,
            426.0
          ],
          [
            8.416945,
            47.381814,
            430.0
          ],
          [
            8.416945,
            47.381814,
            430.0
          ],
          [
            8.416675,
            47.381857,
            431.0
          ],
          [
            8.416622,
            47.381857,
            432.0
          ],
          [
            8.416513,
            47.381857,
            432.0
          ],
          [
            8.416478,
            47.38185,
            432.0
          ],
          [
            8.416002,
            47.38179,
            434.0
          ],
          [
            8.415903,
            47.381771,
            434.0
          ],
          [
            8.415876,
            47.381686,
            435.0
          ],
          [
            8.416029,
            47.381297,
            437.0
          ],
          [
            8.415956,
            47.381273,
            437.0
          ],
          [
            8.415022,
            47.380457,
            450.0
          ],
          [
            8.414932,
            47.380439,
            452.0
          ],
          [
            8.414717,
            47.380512,
            452.0
          ],
          [
            8.414574,
            47.380512,
            454.0
          ],
          [
            8.414285,
            47.380494,
            460.0
          ],
          [
            8.413935,
            47.380439,
            466.0
          ],
          [
            8.413773,
            47.380427,
            469.0
          ],
          [
            8.41362,
            47.380403,
            472.0
          ],
          [
            8.413423,
            47.38033,
            477.0
          ],
          [
            8.413217,
            47.380281,
            481.0
          ],
          [
            8.412993,
            47.380178,
            484.0
          ],
          [
            8.412668,
            47.380141,
            489.0
          ],
          [
            8.412687,
            47.380062,
            488.0
          ],
          [
            8.411968,
            47.380031,
            494.0
          ],
          [
            8.411465,
            47.380171,
            499.0
          ],
          [
            8.411169,
            47.380196,
            504.0
          ],
          [
            8.411213,
            47.3805,
            506.0
          ],
          [
            8.411295,
            47.380865,
            508.0
          ],
          [
            8.411393,
            47.381011,
            509.0
          ],
          [
            8.411528,
            47.381138,
            510.0
          ],
          [
            8.411645,
            47.381218,
            510.0
          ],
          [
            8.411806,
            47.3814,
            510.0
          ],
          [
            8.411825,
            47.381552,
            510.0
          ],
          [
            8.411798,
            47.381917,
            510.0
          ],
          [
            8.411725,
            47.382112,
            510.0
          ],
          [
            8.411501,
            47.382209,
            510.0
          ],
          [
            8.411259,
            47.382239,
            510.0
          ],
          [
            8.410198,
            47.382075,
            510.0
          ],
          [
            8.409857,
            47.381917,
            510.0
          ],
          [
            8.409561,
            47.381674,
            510.0
          ],
          [
            8.409452,
            47.381613,
            510.0
          ],
          [
            8.409372,
            47.38134,
            510.0
          ],
          [
            8.409175,
            47.380695,
            510.0
          ],
          [
            8.409039,
            47.380245,
            510.0
          ],
          [
            8.408959,
            47.380019,
            510.0
          ],
          [
            8.408886,
            47.380019,
            510.0
          ],
          [
            8.408446,
            47.379934,
            514.0
          ],
          [
            8.408339,
            47.379922,
            514.0
          ],
          [
            8.40823,
            47.379916,
            515.0
          ],
          [
            8.408052,
            47.379916,
            516.0
          ],
          [
            8.40789,
            47.37994,
            517.0
          ],
          [
            8.407477,
            47.380031,
            520.0
          ],
          [
            8.406354,
            47.380384,
            522.0
          ],
          [
            8.406138,
            47.380457,
            522.0
          ],
          [
            8.405968,
            47.380579,
            521.0
          ],
          [
            8.405464,
            47.380786,
            516.0
          ],
          [
            8.405356,
            47.380883,
            514.0
          ],
          [
            8.404917,
            47.380986,
            512.0
          ],
          [
            8.404781,
            47.381017,
            511.0
          ],
          [
            8.404278,
            47.381224,
            507.0
          ],
          [
            8.404152,
            47.381297,
            506.0
          ],
          [
            8.403911,
            47.381443,
            504.0
          ],
          [
            8.403209,
            47.381814,
            490.0
          ],
          [
            8.403083,
            47.381911,
            490.0
          ],
          [
            8.40285,
            47.382057,
            490.0
          ],
          [
            8.401171,
            47.383048,
            484.0
          ],
          [
            8.399823,
            47.383864,
            478.0
          ],
          [
            8.399714,
            47.383973,
            477.0
          ],
          [
            8.399714,
            47.38407,
            477.0
          ],
          [
            8.399706,
            47.384234,
            477.0
          ],
          [
            8.399706,
            47.384332,
            476.0
          ],
          [
            8.399364,
            47.384521,
            473.0
          ],
          [
            8.399185,
            47.38466,
            471.0
          ],
          [
            8.398915,
            47.384904,
            466.0
          ],
          [
            8.398592,
            47.385208,
            458.0
          ],
          [
            8.398135,
            47.385518,
            448.0
          ],
          [
            8.397972,
            47.385585,
            445.0
          ],
          [
            8.397838,
            47.385567,
            443.0
          ],
          [
            8.397514,
            47.385427,
            438.0
          ],
          [
            8.397101,
            47.385323,
            433.0
          ],
          [
            8.396724,
            47.385238,
            430.0
          ],
          [
            8.396391,
            47.38522,
            430.0
          ],
          [
            8.396382,
            47.385116,
            430.0
          ],
          [
            8.396427,
            47.38511,
            430.0
          ],
          [
            8.396464,
            47.38511,
            430.0
          ],
          [
            8.396481,
            47.385104,
            430.0
          ],
          [
            8.39649,
            47.385098,
            430.0
          ],
          [
            8.396508,
            47.385092,
            430.0
          ],
          [
            8.396517,
            47.38508,
            430.0
          ],
          [
            8.396535,
            47.385062,
            430.0
          ],
          [
            8.396544,
            47.385044,
            430.0
          ],
          [
            8.396553,
            47.385025,
            430.0
          ],
          [
            8.396553,
            47.385007,
            430.0
          ],
          [
            8.396553,
            47.384995,
            430.0
          ],
          [
            8.396544,
            47.384977,
            430.0
          ],
          [
            8.396535,
            47.384959,
            430.0
          ],
          [
            8.396535,
            47.384946,
            430.0
          ],
          [
            8.396508,
            47.384916,
            430.0
          ],
          [
            8.396472,
            47.384898,
            430.0
          ],
          [
            8.396445,
            47.384885,
            430.0
          ],
          [
            8.39641,
            47.384879,
            430.0
          ],
          [
            8.396265,
            47.384892,
            430.0
          ],
          [
            8.396221,
            47.384466,
            430.0
          ],
          [
            8.396202,
            47.384283,
            430.0
          ]
        ]
      }
    }
  ]
}