{
  "type": "FeatureCollection",
  "features": [
    {
      "type": "Feature",
      "properties": {},
      "geometry": {
        "type": "LineString",
        "coordinates": [
          [
            8.437453,
            47.35738,
            483.0
          ],
          [
            8.437417,
            47.357393,
            483.0
          ],
          [
            8.437273,
            47.357435,
            483.0
          ],
          [
            8.437292,
            47.357472,
            484.0
          ],
          [
            8.43731,
            47.357496,
            486.0
          ],
          [
            8.437373,
            47.357478,
            484.0
          ],
          [
            8.437283,
            47.357338,
            481.0
          ],
          [
            8.43722,
            47.357241,
            480.0
          ],
          [
            8.43721,
            47.357216,
            479.0
          ],
          [
            8.43721,
            47.357186,
            478.0
          ],
          [
            8.43721,
            47.357174,
            477.0
          ],
          [
            8.437202,
            47.357155,
            477.0
          ],
          [
            8.437202,
            47.357143,
            477.0
          ],
          [
            8.437202,
            47.357137,
            477.0
          ],
          [
            8.437354,
            47.357125,
            476.0
          ],
          [
            8.437399,
            47.357107,
            476.0
          ],
          [
            8.437543,
            47.357058,
            475.0
          ],
          [
            8.437652,
            47.357039,
            475.0
          ],
          [
            8.437776,
            47.357003,
            474.0
          ],
          [
            8.438271,
            47.356845,
            472.0
          ],
          [
            8.438271,
            47.356802,
            471.0
          ],
          [
            8.438189,
            47.356687,
            471.0
          ],
          [
            8.438109,
            47.356577,
            470.0
          ],
          [
            8.438091,
            47.356553,
            470.0
          ],
          [
            8.437965,
            47.356492,
            470.0
          ],
          [
            8.437885,
            47.356419,
            470.0
          ],
          [
            8.437849,
            47.356309,
            470.0
          ],
          [
            8.437912,
            47.356236,
            470.0
          ],
          [
            8.437939,
            47.356133,
            470.0
          ],
          [
            8.437929,
            47.356115,
            470.0
          ],
          [
            8.437885,
            47.356024,
            470.0
          ],
          [
            8.437866,
            47.355999,
            470.0
          ],
          [
            8.438055,
            47.35595,
            470.0
          ],
          [
            8.438145,
            47.355944,
            470.0
          ],
          [
            8.439178,
            47.355792,
            470.0
          ],
          [
            8.439457,
            47.355707,
            470.0
          ],
          [
            8.439547,
            47.355664,
            470.0
          ],
          [
            8.4396,
            47.355603,
            470.0
          ],
          [
            8.439636,
            47.355573,
            470.0
          ],
          [
            8.439673,
            47.355543,
            470.0
          ],
          [
            8.439717,
            47.355561,
            470.0
          ],
          [
            8.440023,
            47.355433,
            470.0
          ],
          [
            8.440193,
            47.355354,
            470.0
          ],
          [
            8.440382,
            47.355293,
            470.0
          ],
          [
            8.44057,
            47.35525,
            470.0
          ],
          [
            8.440749,
            47.35522,
            470.0
          ],
          [
            8.440885,
            47.355208,
            470.0
          ],
          [
            8.441172,
            47.355208,
            470.0
          ],
          [
            8.441378,
            47.355189,
            470.0
          ],
          [
            8.441585,
            47.355177,
            470.0
          ],
          [
            8.441657,
            47.355141,
            470.0
          ],
          [
            8.441738,
            47.355232,
            470.0
          ],
          [
            8.442178,
            47.355354,
            470.0
          ],
          [
            8.44243,
            47.355378,
            470.0
          ],
          [
            8.442493,
            47.355372,
            470.0
          ],
          [
            8.442573,
            47.355366,
            470.0
          ],
          [
            8.443076,
            47.355324,
            470.0
          ],
          [
            8.443158,
            47.355305,
            470.0
          ],
          [
            8.443202,
            47.355293,
            470.0
          ],
          [
            8.443176,
            47.355262,
            470.0
          ],
          [
            8.443239,
            47.355226,
            470.0
          ],
          [
            8.443283,
            47.355195,
            470.0
          ],
          [
            8.443463,
            47.354825,
            472.0
          ],
          [
            8.443544,
            47.35466,
            474.0
          ],
          [
            8.443705,
            47.354544,
            475.0
          ],
          [
            8.443904,
            47.354477,
            476.0
          ],
          [
            8.444262,
            47.354514,
            478.0
          ],
          [
            8.444873,
            47.354556,
            482.0
          ],
          [
            8.444981,
            47.35455,
            483.0
          ],
          [
            8.445071,
            47.354544,
            484.0
          ],
          [
            8.445197,
            47.354514,
            485.0
          ],
          [
            8.445313,
            47.354477,
            487.0
          ],
          [
            8.445386,
            47.354429,
            488.0
          ],
          [
            8.445466,
            47.35435,
            489.0
          ],
          [
            8.445512,
            47.35432,
            490.0
          ],
          [
            8.445619,
            47.354289,
            491.0
          ],
          [
            8.445915,
            47.354241,
            495.0
          ],
          [
            8.446068,
            47.35421,
            497.0
          ],
          [
            8.446688,
            47.354021,
            506.0
          ],
          [
            8.446778,
            47.353972,
            508.0
          ],
          [
            8.446984,
            47.353857,
            512.0
          ],
          [
            8.44711,
            47.35376,
            516.0
          ],
          [
            8.447281,
            47.353583,
            521.0
          ],
          [
            8.44747,
            47.353498,
            522.0
          ],
          [
            8.44764,
            47.353473,
            524.0
          ],
          [
            8.447856,
            47.353382,
            526.0
          ],
          [
            8.448072,
            47.353303,
            528.0
          ],
          [
            8.448313,
            47.353169,
            530.0
          ],
          [
            8.448476,
            47.353048,
            532.0
          ],
          [
            8.448592,
            47.352969,
            533.0
          ],
          [
            8.448709,
            47.352846,
            534.0
          ],
          [
            8.448781,
            47.352749,
            535.0
          ],
          [
            8.448826,
            47.35264,
            536.0
          ],
          [
            8.448844,
            47.3525,
            538.0
          ],
          [
            8.449239,
            47.352201,
            540.0
          ],
          [
            8.4495,
            47.351946,
            541.0
          ],
          [
            8.44959,
            47.351812,
            542.0
          ],
          [
            8.450038,
            47.351629,
            543.0
          ],
          [
            8.450336,
            47.351501,
            544.0
          ],
          [
            8.45065,
            47.351301,
            545.0
          ],
          [
            8.450766,
            47.351228,
            545.0
          ],
          [
            8.450973,
            47.351155,
            546.0
          ],
          [
            8.451395,
            47.351051,
            547.0
          ],
          [
            8.451557,
            47.351002,
            547.0
          ],
          [
            8.451745,
            47.350929,
            548.0
          ],
          [
            8.451979,
            47.350814,
            548.0
          ],
          [
            8.452294,
            47.350631,
            549.0
          ],
          [
            8.452357,
            47.350571,
            549.0
          ],
          [
            8.452563,
            47.350467,
            550.0
          ],
          [
            8.453093,
            47.350314,
            552.0
          ],
          [
            8.453785,
            47.350169,
            556.0
          ],
          [
            8.454315,
            47.349992,
            558.0
          ],
          [
            8.454655,
            47.349901,
            560.0
          ],
          [
            8.455401,
            47.349804,
            560.0
          ],
          [
            8.4555,
            47.349712,
            560.0
          ],
          [
            8.457271,
            47.34847,
            560.0
          ],
          [
            8.457351,
            47.348397,
            560.0
          ],
          [
            8.457504,
            47.348385,
            560.0
          ],
          [
            8.457647,
            47.348367,
            560.0
          ],
          [
            8.457863,
            47.348337,
            560.0
          ],
          [
            8.458078,
            47.348282,
            560.0
          ],
          [
            8.45824,
            47.348221,
            560.0
          ],
          [
            8.458393,
            47.348172,
            560.0
          ],
          [
            8.458752,
            47.348057,
            560.0
          ],
          [
            8.45886,
            47.3481,
            560.0
          ],
          [
            8.459192,
            47.348416,
            560.0
          ],
          [
            8.459372,
            47.34858,
            560.0
          ],
          [
            8.459921,
            47.349073,
            560.0
          ],
          [
            8.459984,
            47.34911,
            560.0
          ],
          [
            8.460135,
            47.349164,
            560.0
          ],
          [
            8.460171,
            47.349177,
            560.0
          ],
          [
            8.460217,
            47.349116,
            560.0
          ],
          [
            8.46037,
            47.348939,
            560.0
          ],
          [
            8.46055,
            47.348745,
            560.0
          ],
          [
            8.46055,
            47.348745,
            560.0
          ],
          [
            8.460567,
            47.348733,
            560.0
          ],
          [
            8.460783,
            47.348525,
            561.0
          ],
          [
            8.46133,
            47.348051,
            561.0
          ],
          [
            8.461429,
            47.347972,
            561.0
          ],
          [
            8.461474,
            47.347947,
            561.0
          ],
          [
            8.461537,
            47.347905,
            561.0
          ],
          [
            8.461699,
            47.347807,
            561.0
          ],
          [
            8.461852,
            47.347728,
            561.0
          ],
          [
            8.462309,
            47.347497,
            561.0
          ],
          [
            8.462651,
            47.347314,
            562.0
          ],
          [
            8.46284,
            47.347241,
            562.0
          ],
          [
            8.462848,
            47.347253,
            562.0
          ],
          [
            8.462875,
            47.34729,
            562.0
          ],
          [
            8.462884,
            47.347302,
            562.0
          ],
          [
            8.463343,
            47.347131,
            562.0
          ],
          [
            8.464565,
            47.346602,
            562.0
          ],
          [
            8.464762,
            47.346517,
            563.0
          ],
          [
            8.465022,
            47.346425,
            563.0
          ],
          [
            8.465427,
            47.346255,
            563.0
          ],
          [
            8.465427,
            47.346255,
            563.0
          ],
          [
            8.465957,
            47.34603,
            563.0
          ],
          [
            8.466163,
            47.345932,
            563.0
          ],
          [
            8.466208,
            47.345963,
            562.0
          ],
          [
            8.466361,
            47.345884,
            562.0
          ],
          [
            8.466532,
            47.345792,
            562.0
          ],
          [
            8.466613,
            47.345762,
            562.0
          ],
          [
            8.466657,
            47.345738,
            562.0
          ],
          [
            8.466819,
            47.345622,
            561.0
          ],
          [
            8.466863,
            47.345586,
            561.0
          ],
          [
            8.466892,
            47.345555,
            561.0
          ],
          [
            8.466909,
            47.345513,
            562.0
          ],
          [
            8.466953,
            47.34547,
            563.0
          ],
          [
            8.466892,
            47.34544,
            564.0
          ],
          [
            8.466982,
            47.345354,
            564.0
          ],
          [
            8.467043,
            47.345275,
            564.0
          ],
          [
            8.467133,
            47.345159,
            564.0
          ],
          [
            8.467242,
            47.345014,
            564.0
          ],
          [
            8.46734,
            47.344898,
            564.0
          ],
          [
            8.467861,
            47.344423,
            564.0
          ],
          [
            8.468184,
            47.344131,
            564.0
          ],
          [
            8.468374,
            47.343972,
            565.0
          ],
          [
            8.468391,
            47.343954,
            565.0
          ],
          [
            8.468391,
            47.343954,
            565.0
          ],
          [
            8.468471,
            47.343893,
            565.0
          ],
          [
            8.46876,
            47.343632,
            565.0
          ],
          [
            8.468804,
            47.343595,
            565.0
          ],
          [
            8.468921,
            47.34348,
            565.0
          ],
          [
            8.468984,
            47.343419,
            565.0
          ],
          [
            8.469397,
            47.343011,
            565.0
          ],
          [
            8.469397,
            47.343011,
            565.0
          ],
          [
            8.469676,
            47.342737,
            565.0
          ],
          [
            8.469829,
            47.342572,
            566.0
          ],
          [
            8.469819,
            47.342566,
            566.0
          ],
          [
            8.469775,
            47.342548,
            566.0
          ],
          [
            8.469766,
            47.342542,
            566.0
          ],
          [
            8.469792,
            47.342512,
            566.0
          ],
          [
            8.469802,
            47.342518,
            566.0
          ],
          [
            8.469819,
            47.342506,
            565.0
          ],
          [
            8.469819,
            47.342506,
            565.0
          ],
          [
            8.469802,
            47.342518,
            566.0
          ],
          [
            8.469792,
            47.342512,
            566.0
          ],
          [
            8.469928,
            47.34236,
            565.0
          ],
          [
            8.469955,
            47.342335,
            565.0
          ],
          [
            8.470018,
            47.342275,
            565.0
          ],
          [
            8.470079,
            47.342183,
            565.0
          ],
          [
            8.470169,
            47.34203,
            565.0
          ],
          [
            8.470224,
            47.342049,
            566.0
          ],
          [
            8.470278,
            47.34197,
            566.0
          ],
          [
            8.470278,
            47.34197,
            566.0
          ],
          [
            8.470287,
            47.341958,
            566.0
          ],
          [
            8.470349,
            47.341988,
            563.0
          ],
          [
            8.470412,
            47.341915,
            563.0
          ],
          [
            8.470494,
            47.341836,
            563.0
          ],
          [
            8.470601,
            47.341757,
            563.0
          ],
          [
            8.470708,
            47.341696,
            563.0
          ],
          [
            8.470817,
            47.341648,
            563.0
          ],
          [
            8.470934,
            47.341599,
            563.0
          ],
          [
            8.471068,
            47.341544,
            563.0
          ],
          [
            8.471158,
            47.341495,
            561.0
          ],
          [
            8.471301,
            47.341416,
            562.0
          ],
          [
            8.471437,
            47.341331,
            564.0
          ],
          [
            8.471571,
            47.341215,
            567.0
          ],
          [
            8.471653,
            47.341142,
            567.0
          ],
          [
            8.471777,
            47.341002,
            567.0
          ],
          [
            8.471867,
            47.34088,
            567.0
          ],
          [
            8.47185,
            47.34088,
            567.0
          ],
          [
            8.471813,
            47.340862,
            567.0
          ],
          [
            8.471903,
            47.34074,
            567.0
          ],
          [
            8.472012,
            47.340631,
            567.0
          ],
          [
            8.472282,
            47.340503,
            567.0
          ],
          [
            8.472343,
            47.340466,
            567.0
          ],
          [
            8.472343,
            47.340466,
            567.0
          ],
          [
            8.472452,
            47.3404,
            567.0
          ],
          [
            8.472569,
            47.340314,
            567.0
          ],
          [
            8.472578,
            47.340314,
            567.0
          ],
          [
            8.472622,
            47.340339,
            567.0
          ],
          [
            8.472632,
            47.340345,
            567.0
          ],
          [
            8.472685,
            47.340284,
            567.0
          ],
          [
            8.472739,
            47.340217,
            567.0
          ],
          [
            8.472802,
            47.340144,
            568.0
          ],
          [
            8.473108,
            47.339864,
            568.0
          ],
          [
            8.473161,
            47.339815,
            568.0
          ],
          [
            8.473234,
            47.339773,
            568.0
          ],
          [
            8.473206,
            47.339748,
            568.0
          ],
          [
            8.473295,
            47.339687,
            568.0
          ],
          [
            8.473368,
            47.339614,
            568.0
          ],
          [
            8.473368,
            47.339614,
            568.0
          ],
          [
            8.473494,
            47.339498,
            568.0
          ],
          [
            8.473538,
            47.339456,
            568.0
          ],
          [
            8.473574,
            47.339474,
            568.0
          ],
          [
            8.473584,
            47.33948,
            568.0
          ],
          [
            8.473647,
            47.339395,
            568.0
          ],
          [
            8.473674,
            47.339346,
            568.0
          ],
          [
            8.473682,
            47.339304,
            568.0
          ],
          [
            8.473682,
            47.339255,
            568.0
          ],
          [
            8.473674,
            47.339206,
            568.0
          ],
          [
            8.47362,
            47.338963,
            568.0
          ],
          [
            8.47362,
            47.33892,
            568.0
          ],
          [
            8.47362,
            47.338878,
            568.0
          ],
          [
            8.473637,
            47.338841,
            568.0
          ],
          [
            8.473655,
            47.33881,
            568.0
          ],
          [
            8.473682,
            47.338774,
            568.0
          ],
          [
            8.473745,
            47.338725,
            568.0
          ],
          [
            8.473826,
            47.338652,
            568.0
          ],
          [
            8.47388,
            47.33861,
            568.0
          ],
          [
            8.473924,
            47.338579,
            568.0
          ],
          [
            8.473997,
            47.338543,
            568.0
          ],
          [
            8.474041,
            47.338512,
            568.0
          ],
          [
            8.474087,
            47.338476,
            568.0
          ],
          [
            8.47415,
            47.338421,
            568.0
          ],
          [
            8.474158,
            47.338403,
            568.0
          ],
          [
            8.474194,
            47.338263,
            569.0
          ],
          [
            8.474203,
            47.338232,
            569.0
          ],
          [
            8.474203,
            47.338196,
            569.0
          ],
          [
            8.474194,
            47.338153,
            569.0
          ],
          [
            8.474167,
            47.338092,
            569.0
          ],
          [
            8.474167,
            47.338068,
            569.0
          ],
          [
            8.474167,
            47.338037,
            568.0
          ],
          [
            8.474177,
            47.337989,
            567.0
          ],
          [
            8.474194,
            47.337952,
            567.0
          ],
          [
            8.47423,
            47.337897,
            566.0
          ],
          [
            8.474329,
            47.337764,
            566.0
          ],
          [
            8.474347,
            47.337745,
            566.0
          ],
          [
            8.474383,
            47.337721,
            566.0
          ],
          [
            8.474419,
            47.337715,
            566.0
          ],
          [
            8.474464,
            47.337709,
            566.0
          ],
          [
            8.474464,
            47.337697,
            566.0
          ],
          [
            8.47449,
            47.337654,
            566.0
          ],
          [
            8.4745,
            47.337636,
            566.0
          ],
          [
            8.474527,
            47.337599,
            566.0
          ],
          [
            8.474527,
            47.337593,
            566.0
          ],
          [
            8.474509,
            47.337575,
            566.0
          ],
          [
            8.47449,
            47.337544,
            566.0
          ],
          [
            8.47449,
            47.337514,
            566.0
          ],
          [
            8.474482,
            47.337508,
            566.0
          ],
          [
            8.474427,
            47.337496,
            566.0
          ],
          [
            8.474419,
            47.337496,
            565.0
          ],
          [
            8.474482,
            47.337349,
            565.0
          ],
          [
            8.474527,
            47.33724,
            565.0
          ],
          [
            8.474572,
            47.337094,
            565.0
          ],
          [
            8.474607,
            47.336948,
            562.0
          ],
          [
            8.474662,
            47.336534,
            558.0
          ],
          [
            8.474662,
            47.336534,
            558.0
          ],
          [
            8.47467,
            47.336497,
            557.0
          ],
          [
            8.474724,
            47.33615,
            555.0
          ],
          [
            8.474869,
            47.335676,
            551.0
          ],
          [
            8.474886,
            47.335523,
            550.0
          ],
          [
            8.474895,
            47.335352,
            550.0
          ],
          [
            8.474877,
            47.335194,
            549.0
          ],
          [
            8.474842,
            47.335049,
            549.0
          ],
          [
            8.47485,
            47.335049,
            553.0
          ],
          [
            8.474895,
            47.335036,
            553.0
          ],
          [
            8.474913,
            47.335036,
            553.0
          ],
          [
            8.474895,
            47.335,
            554.0
          ],
          [
            8.474877,
            47.334927,
            549.0
          ],
          [
            8.474823,
            47.334732,
            542.0
          ],
          [
            8.474779,
            47.334579,
            546.0
          ],
          [
            8.474769,
            47.334579,
            546.0
          ],
          [
            8.474716,
            47.334586,
            547.0
          ],
          [
            8.474716,
            47.334586,
            548.0
          ],
          [
            8.474716,
            47.334586,
            548.0
          ],
          [
            8.474697,
            47.334586,
            548.0
          ],
          [
            8.474689,
            47.334586,
            546.0
          ],
          [
            8.474635,
            47.334592,
            542.0
          ],
          [
            8.474626,
            47.334592,
            542.0
          ],
          [
            8.474616,
            47.334494,
            542.0
          ],
          [
            8.474607,
            47.334421,
            542.0
          ],
          [
            8.47458,
            47.334306,
            542.0
          ],
          [
            8.474527,
            47.334147,
            543.0
          ],
          [
            8.474527,
            47.334129,
            543.0
          ],
          [
            8.474473,
            47.333964,
            543.0
          ],
          [
            8.474427,
            47.3338,
            544.0
          ],
          [
            8.474374,
            47.333618,
            544.0
          ],
          [
            8.47432,
            47.333441,
            544.0
          ],
          [
            8.474284,
            47.333295,
            544.0
          ],
          [
            8.474248,
            47.333106,
            544.0
          ],
          [
            8.47424,
            47.332924,
            543.0
          ],
          [
            8.474221,
            47.332674,
            543.0
          ],
          [
            8.474194,
            47.332449,
            542.0
          ],
          [
            8.474177,
            47.332175,
            542.0
          ],
          [
            8.474158,
            47.331949,
            541.0
          ],
          [
            8.474158,
            47.331876,
            541.0
          ],
          [
            8.47414,
            47.331828,
            541.0
          ],
          [
            8.474123,
            47.331779,
            541.0
          ],
          [
            8.474104,
            47.331724,
            541.0
          ],
          [
            8.474104,
            47.331663,
            540.0
          ],
          [
            8.474104,
            47.331615,
            540.0
          ],
          [
            8.474113,
            47.33153,
            540.0
          ],
          [
            8.474113,
            47.331438,
            539.0
          ],
          [
            8.474104,
            47.331322,
            538.0
          ],
          [
            8.474096,
            47.331206,
            538.0
          ],
          [
            8.474087,
            47.331176,
            537.0
          ],
          [
            8.474077,
            47.331048,
            536.0
          ],
          [
            8.474077,
            47.331,
            536.0
          ],
          [
            8.474069,
            47.330921,
            535.0
          ],
          [
            8.47406,
            47.330756,
            534.0
          ],
          [
            8.47405,
            47.330653,
            534.0
          ],
          [
            8.474024,
            47.330518,
            534.0
          ],
          [
            8.473979,
            47.330385,
            534.0
          ],
          [
            8.473951,
            47.330318,
            534.0
          ],
          [
            8.473907,
            47.330251,
            534.0
          ],
          [
            8.473844,
            47.33016,
            533.0
          ],
          [
            8.473772,
            47.330075,
            533.0
          ],
          [
            8.47371,
            47.330007,
            533.0
          ],
          [
            8.473718,
            47.330001,
            534.0
          ],
          [
            8.473763,
            47.329977,
            535.0
          ],
          [
            8.473772,
            47.329971,
            535.0
          ],
          [
            8.473593,
            47.329843,
            535.0
          ],
          [
            8.473593,
            47.329843,
            535.0
          ],
          [
            8.473593,
            47.329843,
            534.0
          ],
          [
            8.473421,
            47.329733,
            534.0
          ],
          [
            8.473188,
            47.329612,
            533.0
          ],
          [
            8.473171,
            47.32963,
            533.0
          ],
          [
            8.473161,
            47.329654,
            533.0
          ],
          [
            8.473125,
            47.329648,
            533.0
          ],
          [
            8.47229,
            47.329197,
            530.0
          ],
          [
            8.472263,
            47.329185,
            530.0
          ],
          [
            8.47229,
            47.329161,
            530.0
          ],
          [
            8.472326,
            47.32913,
            530.0
          ],
          [
            8.472335,
            47.329124,
            530.0
          ],
          [
            8.472343,
            47.329118,
            531.0
          ],
          [
            8.472379,
            47.329088,
            531.0
          ],
          [
            8.472389,
            47.329082,
            531.0
          ],
          [
            8.472335,
            47.329057,
            531.0
          ],
          [
            8.472245,
            47.329021,
            530.0
          ],
          [
            8.472146,
            47.32899,
            530.0
          ],
          [
            8.472083,
            47.328966,
            530.0
          ],
          [
            8.471985,
            47.328911,
            530.0
          ],
          [
            8.471985,
            47.328911,
            530.0
          ],
          [
            8.47176,
            47.32879,
            530.0
          ],
          [
            8.471742,
            47.328771,
            530.0
          ],
          [
            8.471733,
            47.328753,
            530.0
          ],
          [
            8.471742,
            47.328735,
            530.0
          ],
          [
            8.47175,
            47.328723,
            530.0
          ],
          [
            8.47176,
            47.328705,
            530.0
          ],
          [
            8.47175,
            47.328699,
            530.0
          ],
          [
            8.471716,
            47.328686,
            530.0
          ],
          [
            8.471653,
            47.328747,
            530.0
          ],
          [
            8.471643,
            47.328778,
            530.0
          ],
          [
            8.471068,
            47.328467,
            530.0
          ],
          [
            8.471068,
            47.328467,
            530.0
          ],
          [
            8.470592,
            47.328211,
            530.0
          ],
          [
            8.470547,
            47.328248,
            530.0
          ],
          [
            8.470511,
            47.328223,
            530.0
          ],
          [
            8.470494,
            47.328205,
            530.0
          ],
          [
            8.470412,
            47.328169,
            530.0
          ],
          [
            8.470368,
            47.328138,
            530.0
          ],
          [
            8.470197,
            47.328083,
            530.0
          ],
          [
            8.470116,
            47.328053,
            530.0
          ],
          [
            8.470026,
            47.32801,
            530.0
          ],
          [
            8.470008,
            47.327998,
            530.0
          ],
          [
            8.469892,
            47.327913,
            530.0
          ],
          [
            8.469721,
            47.327803,
            530.0
          ],
          [
            8.469487,
            47.327681,
            530.0
          ],
          [
            8.469397,
            47.327626,
            530.0
          ],
          [
            8.46937,
            47.327614,
            530.0
          ],
          [
            8.469353,
            47.327596,
            530.0
          ],
          [
            8.4692,
            47.327499,
            530.0
          ],
          [
            8.469066,
            47.327389,
            530.0
          ],
          [
            8.468913,
            47.327249,
            530.0
          ],
          [
            8.46884,
            47.327164,
            530.0
          ],
          [
            8.468823,
            47.327127,
            530.0
          ],
          [
            8.46876,
            47.327048,
            530.0
          ],
          [
            8.468724,
            47.326987,
            530.0
          ],
          [
            8.468679,
            47.32692,
            530.0
          ],
          [
            8.468643,
            47.326805,
            530.0
          ],
          [
            8.468598,
            47.326786,
            530.0
          ],
          [
            8.46858,
            47.32675,
            530.0
          ],
          [
            8.468561,
            47.326622,
            530.0
          ],
          [
            8.468544,
            47.326482,
            530.0
          ],
          [
            8.468526,
            47.326391,
            530.0
          ],
          [
            8.468544,
            47.326391,
            530.0
          ],
          [
            8.468598,
            47.326384,
            530.0
          ],
          [
            8.468607,
            47.326384,
            530.0
          ],
          [
            8.468624,
            47.326384,
            530.0
          ],
          [
            8.46867,
            47.326378,
            530.0
          ],
          [
            8.468687,
            47.326378,
            530.0
          ],
          [
            8.468687,
            47.32636,
            530.0
          ],
          [
            8.468687,
            47.326342,
            530.0
          ],
          [
            8.468706,
            47.326323,
            530.0
          ],
          [
            8.468714,
            47.326305,
            530.0
          ],
          [
            8.468741,
            47.326293,
            530.0
          ],
          [
            8.468741,
            47.326281,
            530.0
          ],
          [
            8.468733,
            47.326226,
            530.0
          ],
          [
            8.468733,
            47.32622,
            530.0
          ],
          [
            8.468733,
            47.326208,
            530.0
          ],
          [
            8.468724,
            47.326171,
            530.0
          ],
          [
            8.468724,
            47.326153,
            530.0
          ],
          [
            8.468679,
            47.326147,
            530.0
          ],
          [
            8.468643,
            47.326123,
            530.0
          ],
          [
            8.468616,
            47.326092,
            530.0
          ],
          [
            8.468607,
            47.325983,
            530.0
          ],
          [
            8.468561,
            47.325715,
            530.0
          ],
          [
            8.468534,
            47.325593,
            530.0
          ],
          [
            8.468526,
            47.325544,
            530.0
          ],
          [
            8.468517,
            47.325507,
            530.0
          ],
          [
            8.46849,
            47.325459,
            530.0
          ],
          [
            8.468454,
            47.32541,
            530.0
          ],
          [
            8.468437,
            47.325361,
            530.0
          ],
          [
            8.468328,
            47.325045,
            530.0
          ],
          [
            8.468257,
            47.324868,
            530.0
          ],
          [
            8.468221,
            47.324777,
            530.0
          ],
          [
            8.468095,
            47.324442,
            530.0
          ],
          [
            8.468077,
            47.324369,
            530.0
          ],
          [
            8.468068,
            47.324321,
            530.0
          ],
          [
            8.468068,
            47.324308,
            530.0
          ],
          [
            8.468068,
            47.324217,
            530.0
          ],
          [
            8.468058,
            47.324168,
            530.0
          ],
          [
            8.468014,
            47.323991,
            530.0
          ],
          [
            8.467995,
            47.323937,
            530.0
          ],
          [
            8.467969,
            47.323894,
            530.0
          ],
          [
            8.467961,
            47.323876,
            530.0
          ],
          [
            8.467942,
            47.323827,
            530.0
          ],
          [
            8.467924,
            47.323772,
            530.0
          ],
          [
            8.467762,
            47.322719,
            530.0
          ],
          [
            8.467762,
            47.322676,
            530.0
          ],
          [
            8.467762,
            47.322658,
            530.0
          ],
          [
            8.467781,
            47.322585,
            530.0
          ],
          [
            8.467789,
            47.322524,
            530.0
          ],
          [
            8.467789,
            47.322451,
            530.0
          ],
          [
            8.467771,
            47.32239,
            530.0
          ],
          [
            8.467745,
            47.322341,
            530.0
          ],
          [
            8.467726,
            47.322293,
            530.0
          ],
          [
            8.467726,
            47.322238,
            530.0
          ],
          [
            8.467735,
            47.322019,
            530.0
          ],
          [
            8.467745,
            47.321896,
            530.0
          ],
          [
            8.467762,
            47.321787,
            530.0
          ],
          [
            8.467808,
            47.321519,
            530.0
          ],
          [
            8.467871,
            47.321196,
            530.0
          ],
          [
            8.467961,
            47.320722,
            530.0
          ],
          [
            8.468113,
            47.319894,
            531.0
          ],
          [
            8.468167,
            47.319643,
            531.0
          ],
          [
            8.468211,
            47.319303,
            531.0
          ],
          [
            8.468221,
            47.319022,
            532.0
          ],
          [
            8.46823,
            47.318827,
            532.0
          ],
          [
            8.468221,
            47.318718,
            532.0
          ],
          [
            8.468203,
            47.318639,
            532.0
          ],
          [
            8.468158,
            47.318511,
            532.0
          ],
          [
            8.468095,
            47.318383,
            532.0
          ],
          [
            8.468024,
            47.318255,
            533.0
          ],
          [
            8.468005,
            47.318231,
            533.0
          ],
          [
            8.467987,
            47.318206,
            533.0
          ],
          [
            8.467987,
            47.31817,
            533.0
          ],
          [
            8.467995,
            47.318139,
            533.0
          ],
          [
            8.468005,
            47.318121,
            533.0
          ],
          [
            8.468041,
            47.31809,
            533.0
          ],
          [
            8.468095,
            47.318054,
            533.0
          ],
          [
            8.468131,
            47.318017,
            533.0
          ],
          [
            8.468175,
            47.317969,
            533.0
          ],
          [
            8.468211,
            47.317914,
            533.0
          ],
          [
            8.46823,
            47.317859,
            533.0
          ],
          [
            8.468248,
            47.317804,
            533.0
          ],
          [
            8.468248,
            47.317744,
            533.0
          ],
          [
            8.468248,
            47.317671,
            533.0
          ],
          [
            8.468257,
            47.317518,
            534.0
          ],
          [
            8.468265,
            47.317402,
            534.0
          ],
          [
            8.468274,
            47.317323,
            534.0
          ],
          [
            8.468292,
            47.317268,
            534.0
          ],
          [
            8.468328,
            47.317207,
            534.0
          ],
          [
            8.468391,
            47.317141,
            534.0
          ],
          [
            8.468454,
            47.317086,
            534.0
          ],
          [
            8.468544,
            47.317043,
            534.0
          ],
          [
            8.468607,
            47.317019,
            534.0
          ],
          [
            8.46867,
            47.317001,
            534.0
          ],
          [
            8.46867,
            47.316995,
            534.0
          ],
          [
            8.468651,
            47.316958,
            534.0
          ],
          [
            8.468643,
            47.316928,
            535.0
          ],
          [
            8.468634,
            47.316915,
            535.0
          ],
          [
            8.468589,
            47.316928,
            535.0
          ],
          [
            8.468544,
            47.31694,
            535.0
          ],
          [
            8.468517,
            47.316946,
            535.0
          ],
          [
            8.468481,
            47.316946,
            535.0
          ],
          [
            8.468437,
            47.31694,
            535.0
          ],
          [
            8.46841,
            47.316922,
            535.0
          ],
          [
            8.468347,
            47.316879,
            536.0
          ],
          [
            8.468311,
            47.316855,
            536.0
          ],
          [
            8.468292,
            47.31683,
            536.0
          ],
          [
            8.468274,
            47.316806,
            536.0
          ],
          [
            8.468274,
            47.316775,
            536.0
          ],
          [
            8.468265,
            47.316757,
            536.0
          ],
          [
            8.468248,
            47.316586,
            537.0
          ],
          [
            8.468238,
            47.316519,
            537.0
          ],
          [
            8.46823,
            47.316495,
            538.0
          ],
          [
            8.468203,
            47.316379,
            538.0
          ],
          [
            8.468175,
            47.3163,
            538.0
          ],
          [
            8.468167,
            47.316288,
            538.0
          ],
          [
            8.468131,
            47.316172,
            539.0
          ],
          [
            8.468077,
            47.316057,
            540.0
          ],
          [
            8.468058,
            47.316014,
            540.0
          ],
          [
            8.467969,
            47.315807,
            541.0
          ],
          [
            8.467942,
            47.31574,
            542.0
          ],
          [
            8.467934,
            47.315697,
            542.0
          ],
          [
            8.467924,
            47.315703,
            542.0
          ],
          [
            8.467888,
            47.315703,
            542.0
          ],
          [
            8.467834,
            47.315709,
            542.0
          ],
          [
            8.467745,
            47.315715,
            542.0
          ],
          [
            8.467574,
            47.315697,
            543.0
          ],
          [
            8.467448,
            47.315697,
            543.0
          ],
          [
            8.467332,
            47.315703,
            544.0
          ],
          [
            8.467106,
            47.315734,
            544.0
          ],
          [
            8.466999,
            47.315746,
            544.0
          ],
          [
            8.466936,
            47.315734,
            543.0
          ],
          [
            8.466892,
            47.315715,
            543.0
          ],
          [
            8.466783,
            47.315654,
            543.0
          ],
          [
            8.466684,
            47.3156,
            543.0
          ],
          [
            8.466649,
            47.315581,
            543.0
          ],
          [
            8.466603,
            47.315563,
            543.0
          ],
          [
            8.466523,
            47.315533,
            544.0
          ],
          [
            8.466263,
            47.315442,
            544.0
          ],
          [
            8.466236,
            47.315429,
            544.0
          ],
          [
            8.466074,
            47.315423,
            544.0
          ],
          [
            8.465974,
            47.3156,
            543.0
          ],
          [
            8.465921,
            47.315588,
            543.0
          ],
          [
            8.465903,
            47.315588,
            543.0
          ],
          [
            8.464762,
            47.315326,
            544.0
          ],
          [
            8.464672,
            47.315302,
            544.0
          ],
          [
            8.464421,
            47.31521,
            544.0
          ],
          [
            8.464232,
            47.315094,
            545.0
          ],
          [
            8.464089,
            47.314966,
            545.0
          ],
          [
            8.464026,
            47.314942,
            545.0
          ],
          [
            8.463953,
            47.314936,
            545.0
          ],
          [
            8.464026,
            47.314808,
            545.0
          ],
          [
            8.464034,
            47.314717,
            545.0
          ],
          [
            8.463926,
            47.314674,
            545.0
          ],
          [
            8.46389,
            47.314656,
            545.0
          ],
          [
            8.463783,
            47.314595,
            545.0
          ],
          [
            8.463666,
            47.314546,
            545.0
          ],
          [
            8.463603,
            47.314522,
            545.0
          ],
          [
            8.463504,
            47.314492,
            545.0
          ],
          [
            8.463406,
            47.314473,
            545.0
          ],
          [
            8.463261,
            47.314455,
            545.0
          ],
          [
            8.463118,
            47.314473,
            544.0
          ],
          [
            8.462804,
            47.314546,
            544.0
          ],
          [
            8.462651,
            47.314589,
            544.0
          ],
          [
            8.462579,
            47.314607,
            544.0
          ],
          [
            8.462516,
            47.314626,
            544.0
          ],
          [
            8.462372,
            47.314546,
            544.0
          ],
          [
            8.461869,
            47.314284,
            543.0
          ],
          [
            8.461663,
            47.314168,
            543.0
          ],
          [
            8.461546,
            47.31412,
            542.0
          ],
          [
            8.461429,
            47.314053,
            542.0
          ],
          [
            8.461232,
            47.313949,
            542.0
          ],
          [
            8.461043,
            47.313858,
            542.0
          ],
          [
            8.460926,
            47.313822,
            542.0
          ],
          [
            8.460926,
            47.313791,
            542.0
          ],
          [
            8.460908,
            47.313749,
            542.0
          ],
          [
            8.460701,
            47.313529,
            544.0
          ],
          [
            8.460208,
            47.313048,
            549.0
          ],
          [
            8.460171,
            47.312993,
            549.0
          ],
          [
            8.460163,
            47.312951,
            549.0
          ],
          [
            8.46019,
            47.312908,
            550.0
          ],
          [
            8.460234,
            47.312878,
            550.0
          ],
          [
            8.460521,
            47.312725,
            549.0
          ],
          [
            8.460611,
            47.312658,
            549.0
          ],
          [
            8.46054,
            47.312597,
            549.0
          ],
          [
            8.459183,
            47.311677,
            546.0
          ],
          [
            8.459066,
            47.311604,
            546.0
          ],
          [
            8.459003,
            47.311562,
            546.0
          ],
          [
            8.458968,
            47.311568,
            546.0
          ],
          [
            8.458905,
            47.311556,
            546.0
          ],
          [
            8.45877,
            47.311525,
            546.0
          ],
          [
            8.458644,
            47.311489,
            546.0
          ],
          [
            8.458546,
            47.31144,
            545.0
          ],
          [
            8.457154,
            47.310539,
            543.0
          ],
          [
            8.456974,
            47.310429,
            542.0
          ],
          [
            8.456596,
            47.310197,
            542.0
          ],
          [
            8.456381,
            47.310082,
            541.0
          ],
          [
            8.455447,
            47.30954,
            540.0
          ],
          [
            8.454925,
            47.309229,
            540.0
          ],
          [
            8.454386,
            47.308791,
            540.0
          ],
          [
            8.454063,
            47.308528,
            540.0
          ],
          [
            8.453363,
            47.30781,
            540.0
          ],
          [
            8.452554,
            47.307006,
            540.0
          ],
          [
            8.452481,
            47.306926,
            540.0
          ],
          [
            8.451952,
            47.30625,
            540.0
          ],
          [
            8.451889,
            47.306189,
            540.0
          ],
          [
            8.451925,
            47.306153,
            540.0
          ],
          [
            8.451925,
            47.30611,
            540.0
          ],
          [
            8.451539,
            47.305556,
            543.0
          ],
          [
            8.451405,
            47.305203,
            544.0
          ],
          [
            8.451279,
            47.30488,
            545.0
          ],
          [
            8.451279,
            47.30488,
            545.0
          ],
          [
            8.451206,
            47.304673,
            546.0
          ],
          [
            8.451179,
            47.304472,
            547.0
          ],
          [
            8.45126,
            47.304179,
            548.0
          ],
          [
            8.451449,
            47.303845,
            549.0
          ],
          [
            8.451646,
            47.30354,
            552.0
          ],
          [
            8.451755,
            47.303369,
            554.0
          ],
          [
            8.451781,
            47.303314,
            554.0
          ],
          [
            8.451808,
            47.303235,
            554.0
          ],
          [
            8.451871,
            47.303095,
            553.0
          ],
          [
            8.451961,
            47.3029,
            552.0
          ],
          [
            8.452347,
            47.302364,
            548.0
          ],
          [
            8.452365,
            47.302279,
            547.0
          ],
          [
            8.452365,
            47.302206,
            546.0
          ],
          [
            8.452311,
            47.302133,
            545.0
          ],
          [
            8.45224,
            47.302078,
            544.0
          ],
          [
            8.452141,
            47.302041,
            543.0
          ],
          [
            8.452024,
            47.302023,
            542.0
          ],
          [
            8.451916,
            47.302029,
            541.0
          ],
          [
            8.451755,
            47.30206,
            536.0
          ],
          [
            8.451655,
            47.302041,
            536.0
          ],
          [
            8.45135,
            47.301992,
            537.0
          ],
          [
            8.451198,
            47.301968,
            537.0
          ],
          [
            8.451089,
            47.301937,
            538.0
          ],
          [
            8.450928,
            47.301828,
            538.0
          ],
          [
            8.450802,
            47.301749,
            539.0
          ],
          [
            8.450839,
            47.301694,
            539.0
          ],
          [
            8.450694,
            47.301615,
            538.0
          ],
          [
            8.450533,
            47.301487,
            538.0
          ],
          [
            8.45047,
            47.301426,
            537.0
          ],
          [
            8.450416,
            47.301359,
            537.0
          ],
          [
            8.450426,
            47.301304,
            536.0
          ],
          [
            8.450479,
            47.301311,
            537.0
          ],
          [
            8.450479,
            47.301286,
            537.0
          ],
          [
            8.450506,
            47.301262,
            537.0
          ],
          [
            8.450659,
            47.301109,
            536.0
          ],
          [
            8.450793,
            47.300981,
            535.0
          ],
          [
            8.450919,
            47.300829,
            534.0
          ],
          [
            8.451036,
            47.300677,
            533.0
          ],
          [
            8.451126,
            47.300537,
            532.0
          ],
          [
            8.451162,
            47.30047,
            531.0
          ],
          [
            8.451189,
            47.300354,
            531.0
          ],
          [
            8.451189,
            47.300287,
            530.0
          ],
          [
            8.451162,
            47.300214,
            530.0
          ],
          [
            8.451135,
            47.30014,
            529.0
          ],
          [
            8.451126,
            47.30011,
            529.0
          ],
          [
            8.451135,
            47.300085,
            529.0
          ],
          [
            8.451162,
            47.300067,
            529.0
          ],
          [
            8.451162,
            47.300061,
            529.0
          ],
          [
            8.451135,
            47.300037,
            529.0
          ],
          [
            8.451108,
            47.300019,
            528.0
          ],
          [
            8.451108,
            47.300012,
            528.0
          ],
          [
            8.451053,
            47.300012,
            528.0
          ],
          [
            8.451026,
            47.300006,
            528.0
          ],
          [
            8.450992,
            47.299988,
            527.0
          ],
          [
            8.450919,
            47.299921,
            527.0
          ],
          [
            8.45064,
            47.299647,
            523.0
          ],
          [
            8.450632,
            47.299623,
            523.0
          ],
          [
            8.450632,
            47.299605,
            523.0
          ],
          [
            8.450659,
            47.299574,
            522.0
          ],
          [
            8.45065,
            47.299568,
            522.0
          ],
          [
            8.450632,
            47.299544,
            522.0
          ],
          [
            8.450613,
            47.299513,
            521.0
          ],
          [
            8.450604,
            47.299507,
            521.0
          ],
          [
            8.45056,
            47.299507,
            521.0
          ],
          [
            8.450533,
            47.299501,
            521.0
          ],
          [
            8.450506,
            47.299477,
            521.0
          ],
          [
            8.450336,
            47.299245,
            518.0
          ],
          [
            8.450227,
            47.299105,
            516.0
          ],
          [
            8.450147,
            47.29902,
            515.0
          ],
          [
            8.450021,
            47.298916,
            514.0
          ],
          [
            8.449894,
            47.298843,
            512.0
          ],
          [
            8.449734,
            47.298752,
            511.0
          ],
          [
            8.449535,
            47.298673,
            510.0
          ],
          [
            8.449329,
            47.298581,
            509.0
          ],
          [
            8.449294,
            47.298557,
            509.0
          ],
          [
            8.449294,
            47.298514,
            509.0
          ],
          [
            8.449284,
            47.298496,
            509.0
          ],
          [
            8.449266,
            47.298471,
            508.0
          ],
          [
            8.449239,
            47.298435,
            508.0
          ],
          [
            8.449158,
            47.298386,
            507.0
          ],
          [
            8.449114,
            47.298343,
            507.0
          ],
          [
            8.449051,
            47.298276,
            506.0
          ],
          [
            8.448952,
            47.2981,
            504.0
          ],
          [
            8.448996,
            47.298075,
            505.0
          ],
          [
            8.449086,
            47.298063,
            505.0
          ],
          [
            8.44932,
            47.298057,
            505.0
          ],
          [
            8.449329,
            47.298045,
            506.0
          ],
          [
            8.449365,
            47.297972,
            506.0
          ],
          [
            8.449562,
            47.298015,
            506.0
          ],
          [
            8.449688,
            47.298033,
            507.0
          ],
          [
            8.449724,
            47.298033,
            507.0
          ],
          [
            8.449797,
            47.298033,
            507.0
          ],
          [
            8.44986,
            47.298027,
            507.0
          ],
          [
            8.449841,
            47.297996,
            507.0
          ],
          [
            8.449778,
            47.297838,
            508.0
          ],
          [
            8.449778,
            47.297728,
            509.0
          ],
          [
            8.449805,
            47.297576,
            509.0
          ],
          [
            8.44977,
            47.297515,
            509.0
          ],
          [
            8.449823,
            47.297472,
            510.0
          ],
          [
            8.449994,
            47.297441,
            511.0
          ],
          [
            8.450363,
            47.297375,
            515.0
          ],
          [
            8.45046,
            47.297356,
            517.0
          ],
          [
            8.45055,
            47.29732,
            518.0
          ],
          [
            8.450613,
            47.297289,
            519.0
          ],
          [
            8.450667,
            47.297235,
            520.0
          ],
          [
            8.450739,
            47.297089,
            523.0
          ],
          [
            8.450793,
            47.297015,
            525.0
          ],
          [
            8.450883,
            47.296936,
            527.0
          ],
          [
            8.450973,
            47.296863,
            529.0
          ],
          [
            8.451152,
            47.296741,
            530.0
          ],
          [
            8.451225,
            47.296698,
            530.0
          ],
          [
            8.451179,
            47.296631,
            530.0
          ],
          [
            8.451225,
            47.296497,
            530.0
          ],
          [
            8.451279,
            47.296108,
            531.0
          ],
          [
            8.451359,
            47.295456,
            532.0
          ],
          [
            8.451395,
            47.29517,
            532.0
          ],
          [
            8.451458,
            47.294877,
            532.0
          ],
          [
            8.451458,
            47.294816,
            533.0
          ],
          [
            8.451431,
            47.294779,
            533.0
          ],
          [
            8.451395,
            47.294755,
            533.0
          ],
          [
            8.451288,
            47.29473,
            533.0
          ],
          [
            8.451342,
            47.294633,
            534.0
          ],
          [
            8.451468,
            47.29442,
            536.0
          ],
          [
            8.451502,
            47.294371,
            537.0
          ],
          [
            8.451566,
            47.294347,
            537.0
          ],
          [
            8.451728,
            47.294079,
            538.0
          ],
          [
            8.451934,
            47.293427,
            540.0
          ],
          [
            8.451934,
            47.293427,
            540.0
          ],
          [
            8.451961,
            47.293354,
            540.0
          ],
          [
            8.451997,
            47.293226,
            540.0
          ],
          [
            8.45206,
            47.29311,
            540.0
          ],
          [
            8.45224,
            47.292817,
            540.0
          ],
          [
            8.452634,
            47.292428,
            543.0
          ],
          [
            8.452707,
            47.292349,
            544.0
          ],
          [
            8.452751,
            47.292263,
            544.0
          ],
          [
            8.452904,
            47.291976,
            546.0
          ],
          [
            8.453057,
            47.291818,
            548.0
          ],
          [
            8.453246,
            47.29169,
            549.0
          ],
          [
            8.453642,
            47.291459,
            550.0
          ],
          [
            8.453965,
            47.291227,
            550.0
          ],
          [
            8.454118,
            47.291111,
            550.0
          ],
          [
            8.454485,
            47.290904,
            550.0
          ],
          [
            8.454647,
            47.290782,
            550.0
          ],
          [
            8.454674,
            47.290703,
            550.0
          ],
          [
            8.45471,
            47.290642,
            549.0
          ],
          [
            8.454665,
            47.290466,
            544.0
          ],
          [
            8.454611,
            47.290374,
            542.0
          ],
          [
            8.454512,
            47.290326,
            539.0
          ],
          [
            8.454386,
            47.290301,
            534.0
          ],
          [
            8.454252,
            47.290295,
            530.0
          ],
          [
            8.454441,
            47.290088,
            530.0
          ],
          [
            8.454566,
            47.28996,
            530.0
          ],
          [
            8.454917,
            47.289619,
            530.0
          ],
          [
            8.455114,
            47.289381,
            530.0
          ],
          [
            8.455177,
            47.289302,
            530.0
          ],
          [
            8.455186,
            47.289229,
            530.0
          ],
          [
            8.45516,
            47.289119,
            530.0
          ],
          [
            8.455042,
            47.288906,
            530.0
          ],
          [
            8.45498,
            47.288711,
            528.0
          ],
          [
            8.454835,
            47.288107,
            523.0
          ],
          [
            8.454835,
            47.288004,
            522.0
          ],
          [
            8.454997,
            47.28748,
            519.0
          ],
          [
            8.45506,
            47.287334,
            518.0
          ],
          [
            8.455204,
            47.287169,
            517.0
          ],
          [
            8.455617,
            47.286773,
            515.0
          ],
          [
            8.455842,
            47.28653,
            513.0
          ],
          [
            8.455869,
            47.286414,
            513.0
          ],
          [
            8.455815,
            47.286365,
            513.0
          ],
          [
            8.455734,
            47.286328,
            512.0
          ],
          [
            8.455518,
            47.28631,
            512.0
          ],
          [
            8.45541,
            47.286298,
            511.0
          ],
          [
            8.455294,
            47.286279,
            511.0
          ],
          [
            8.455177,
            47.286188,
            510.0
          ],
          [
            8.455105,
            47.285987,
            509.0
          ],
          [
            8.455087,
            47.285859,
            508.0
          ],
          [
            8.455078,
            47.285792,
            508.0
          ],
          [
            8.455087,
            47.285603,
            507.0
          ],
          [
            8.455132,
            47.285585,
            507.0
          ],
          [
            8.45516,
            47.285469,
            506.0
          ],
          [
            8.455213,
            47.285298,
            505.0
          ],
          [
            8.45524,
            47.285176,
            504.0
          ],
          [
            8.455258,
            47.285054,
            504.0
          ],
          [
            8.455284,
            47.284854,
            503.0
          ],
          [
            8.455311,
            47.284634,
            501.0
          ],
          [
            8.455347,
            47.284397,
            500.0
          ],
          [
            8.455401,
            47.284183,
            500.0
          ],
          [
            8.455464,
            47.283988,
            499.0
          ],
          [
            8.455554,
            47.283745,
            499.0
          ],
          [
            8.455653,
            47.283519,
            498.0
          ],
          [
            8.45577,
            47.283293,
            498.0
          ],
          [
            8.455797,
            47.283232,
            498.0
          ],
          [
            8.455797,
            47.283184,
            498.0
          ],
          [
            8.455779,
            47.283123,
            498.0
          ],
          [
            8.455743,
            47.28308,
            497.0
          ],
          [
            8.455697,
            47.283037,
            497.0
          ],
          [
            8.455617,
            47.283007,
            497.0
          ],
          [
            8.455537,
            47.282977,
            497.0
          ],
          [
            8.455456,
            47.282946,
            497.0
          ],
          [
            8.45541,
            47.282922,
            497.0
          ],
          [
            8.455393,
            47.282897,
            497.0
          ],
          [
            8.45533,
            47.282891,
            497.0
          ],
          [
            8.45525,
            47.282873,
            497.0
          ],
          [
            8.455267,
            47.282861,
            497.0
          ],
          [
            8.455284,
            47.28283,
            497.0
          ],
          [
            8.455294,
            47.282806,
            497.0
          ],
          [
            8.455294,
            47.282727,
            496.0
          ],
          [
            8.455321,
            47.282611,
            496.0
          ],
          [
            8.455357,
            47.28252,
            496.0
          ],
          [
            8.45542,
            47.28241,
            496.0
          ],
          [
            8.455464,
            47.282343,
            496.0
          ],
          [
            8.455491,
            47.282312,
            496.0
          ],
          [
            8.455563,
            47.282233,
            496.0
          ],
          [
            8.4556,
            47.282178,
            495.0
          ],
          [
            8.455644,
            47.282099,
            495.0
          ],
          [
            8.455653,
            47.282081,
            495.0
          ],
          [
            8.455671,
            47.282056,
            495.0
          ],
          [
            8.455671,
            47.282032,
            495.0
          ],
          [
            8.455644,
            47.282014,
            495.0
          ],
          [
            8.455617,
            47.281995,
            495.0
          ],
          [
            8.455573,
            47.281983,
            495.0
          ],
          [
            8.4555,
            47.281965,
            495.0
          ],
          [
            8.455401,
            47.281922,
            495.0
          ],
          [
            8.45541,
            47.281916,
            495.0
          ],
          [
            8.455437,
            47.281886,
            495.0
          ],
          [
            8.455437,
            47.28188,
            495.0
          ],
          [
            8.455447,
            47.281874,
            495.0
          ],
          [
            8.455473,
            47.281843,
            494.0
          ],
          [
            8.455483,
            47.281837,
            494.0
          ],
          [
            8.455123,
            47.281685,
            493.0
          ],
          [
            8.455007,
            47.28163,
            492.0
          ],
          [
            8.454854,
            47.281551,
            492.0
          ],
          [
            8.45471,
            47.281472,
            491.0
          ],
          [
            8.454521,
            47.28135,
            490.0
          ],
          [
            8.454297,
            47.281209,
            490.0
          ],
          [
            8.454252,
            47.281179,
            490.0
          ],
          [
            8.454189,
            47.281112,
            490.0
          ],
          [
            8.454152,
            47.281063,
            490.0
          ],
          [
            8.454108,
            47.281063,
            490.0
          ],
          [
            8.454055,
            47.281057,
            490.0
          ],
          [
            8.454036,
            47.281057,
            490.0
          ],
          [
            8.454028,
            47.281057,
            490.0
          ],
          [
            8.453965,
            47.281057,
            490.0
          ],
          [
            8.453946,
            47.281057,
            490.0
          ],
          [
            8.453946,
            47.281014,
            490.0
          ],
          [
            8.453938,
            47.280838,
            490.0
          ],
          [
            8.453973,
            47.280801,
            490.0
          ],
          [
            8.453973,
            47.280734,
            490.0
          ],
          [
            8.453973,
            47.280618,
            490.0
          ],
          [
            8.453982,
            47.280491,
            490.0
          ],
          [
            8.453992,
            47.280448,
            490.0
          ],
          [
            8.45391,
            47.280375,
            490.0
          ],
          [
            8.453919,
            47.280314,
            490.0
          ],
          [
            8.453919,
            47.280082,
            490.0
          ],
          [
            8.453919,
            47.280002,
            490.0
          ],
          [
            8.453892,
            47.279875,
            490.0
          ],
          [
            8.453829,
            47.279631,
            490.0
          ],
          [
            8.453802,
            47.279509,
            490.0
          ],
          [
            8.453668,
            47.279479,
            490.0
          ],
          [
            8.453569,
            47.279467,
            490.0
          ],
          [
            8.453533,
            47.279485,
            490.0
          ],
          [
            8.453317,
            47.279479,
            490.0
          ],
          [
            8.453227,
            47.279473,
            490.0
          ],
          [
            8.453156,
            47.279454,
            490.0
          ],
          [
            8.453003,
            47.2794,
            490.0
          ],
          [
            8.452751,
            47.27932,
            490.0
          ],
          [
            8.452491,
            47.279235,
            490.0
          ],
          [
            8.452447,
            47.279229,
            490.0
          ],
          [
            8.452392,
            47.279235,
            490.0
          ],
          [
            8.452357,
            47.279247,
            490.0
          ],
          [
            8.452311,
            47.279235,
            490.0
          ],
          [
            8.452275,
            47.279223,
            490.0
          ],
          [
            8.452284,
            47.279198,
            490.0
          ],
          [
            8.452275,
            47.27918,
            490.0
          ],
          [
            8.452248,
            47.279155,
            490.0
          ],
          [
            8.452051,
            47.2791,
            490.0
          ],
          [
            8.451826,
            47.279021,
            490.0
          ],
          [
            8.451764,
            47.278997,
            490.0
          ],
          [
            8.451718,
            47.278966,
            490.0
          ],
          [
            8.451485,
            47.278765,
            490.0
          ],
          [
            8.451395,
            47.278692,
            490.0
          ],
          [
            8.451378,
            47.27865,
            490.0
          ],
          [
            8.451242,
            47.278565,
            490.0
          ],
          [
            8.45117,
            47.278522,
            490.0
          ],
          [
            8.451126,
            47.27851,
            491.0
          ],
          [
            8.451135,
            47.278461,
            491.0
          ],
          [
            8.451198,
            47.27837,
            491.0
          ],
          [
            8.450434,
            47.278034,
            493.0
          ],
          [
            8.450273,
            47.277955,
            493.0
          ],
          [
            8.450227,
            47.277918,
            493.0
          ],
          [
            8.450173,
            47.277882,
            494.0
          ],
          [
            8.450128,
            47.277827,
            494.0
          ],
          [
            8.449931,
            47.277608,
            495.0
          ],
          [
            8.449742,
            47.277419,
            495.0
          ],
          [
            8.449751,
            47.27734,
            496.0
          ],
          [
            8.449481,
            47.27723,
            496.0
          ],
          [
            8.449607,
            47.277059,
            495.0
          ],
          [
            8.449374,
            47.276998,
            494.0
          ],
          [
            8.449231,
            47.276998,
            493.0
          ],
          [
            8.449176,
            47.276974,
            493.0
          ],
          [
            8.448871,
            47.27687,
            493.0
          ],
          [
            8.448818,
            47.276815,
            493.0
          ],
          [
            8.448789,
            47.276797,
            493.0
          ],
          [
            8.448449,
            47.276657,
            493.0
          ],
          [
            8.448162,
            47.276541,
            492.0
          ],
          [
            8.448162,
            47.276511,
            492.0
          ],
          [
            8.448089,
            47.276474,
            492.0
          ],
          [
            8.448017,
            47.276413,
            492.0
          ],
          [
            8.447577,
            47.276243,
            493.0
          ],
          [
            8.447344,
            47.276145,
            493.0
          ],
          [
            8.447263,
            47.276078,
            493.0
          ],
          [
            8.447155,
            47.275974,
            494.0
          ],
          [
            8.44711,
            47.275937,
            494.0
          ],
          [
            8.447074,
            47.275907,
            495.0
          ],
          [
            8.446975,
            47.275809,
            495.0
          ],
          [
            8.446868,
            47.275755,
            494.0
          ],
          [
            8.44685,
            47.275761,
            494.0
          ],
          [
            8.446805,
            47.275785,
            494.0
          ],
          [
            8.446795,
            47.275791,
            494.0
          ],
          [
            8.446787,
            47.275797,
            494.0
          ],
          [
            8.446742,
            47.275815,
            494.0
          ],
          [
            8.446724,
            47.275828,
            495.0
          ],
          [
            8.446705,
            47.275834,
            495.0
          ],
          [
            8.446661,
            47.275858,
            495.0
          ],
          [
            8.446644,
            47.27587,
            496.0
          ],
          [
            8.446607,
            47.275889,
            496.0
          ],
          [
            8.446634,
            47.275919,
            495.0
          ],
          [
            8.446742,
            47.276017,
            495.0
          ],
          [
            8.446715,
            47.276029,
            500.0
          ],
          [
            8.446652,
            47.276054,
            500.0
          ]
        ]
      }
    }
  ]
}