{
  "type": "FeatureCollection",
  "features": [
    {
      "type": "Feature",
      "properties": {},
      "geometry": {
        "type": "LineString",
        "coordinates": [
          [
            8.270366,
            47.348324,
            420.0
          ],
          [
            8.270339,
            47.348343,
            420.0
          ],
          [
            8.270223,
            47.348434,
            420.0
          ],
          [
            8.270186,
            47.348403,
            420.0
          ],
          [
            8.270133,
            47.348446,
            420.0
          ],
          [
            8.270034,
            47.348519,
            420.0
          ],
          [
            8.269944,
            47.348586,
            420.0
          ],
          [
            8.269765,
            47.348714,
            420.0
          ],
          [
            8.269676,
            47.348781,
            420.0
          ],
          [
            8.269549,
            47.348824,
            420.0
          ],
          [
            8.269513,
            47.348824,
            420.0
          ],
          [
            8.269486,
            47.348836,
            420.0
          ],
          [
            8.26946,
            47.348848,
            420.0
          ],
          [
            8.269433,
            47.348866,
            420.0
          ],
          [
            8.269387,
            47.348897,
            420.0
          ],
          [
            8.269351,
            47.348933,
            420.0
          ],
          [
            8.269307,
            47.348963,
            420.0
          ],
          [
            8.269253,
            47.349,
            420.0
          ],
          [
            8.269217,
            47.34903,
            420.0
          ],
          [
            8.269171,
            47.349061,
            420.0
          ],
          [
            8.269127,
            47.349091,
            420.0
          ],
          [
            8.269091,
            47.349122,
            420.0
          ],
          [
            8.269081,
            47.349134,
            420.0
          ],
          [
            8.269055,
            47.349152,
            420.0
          ],
          [
            8.26901,
            47.349183,
            420.0
          ],
          [
            8.268965,
            47.349213,
            420.0
          ],
          [
            8.26892,
            47.34925,
            420.0
          ],
          [
            8.268911,
            47.349256,
            420.0
          ],
          [
            8.268884,
            47.349274,
            420.0
          ],
          [
            8.268848,
            47.349305,
            420.0
          ],
          [
            8.268813,
            47.349335,
            420.0
          ],
          [
            8.268777,
            47.349359,
            420.0
          ],
          [
            8.268741,
            47.349384,
            420.0
          ],
          [
            8.268705,
            47.349414,
            420.0
          ],
          [
            8.268668,
            47.349438,
            420.0
          ],
          [
            8.268624,
            47.349469,
            420.0
          ],
          [
            8.268578,
            47.349487,
            420.0
          ],
          [
            8.268435,
            47.349584,
            420.0
          ],
          [
            8.268391,
            47.349609,
            420.0
          ],
          [
            8.268355,
            47.349639,
            420.0
          ],
          [
            8.268318,
            47.349651,
            420.0
          ],
          [
            8.268255,
            47.349675,
            420.0
          ],
          [
            8.268175,
            47.349749,
            420.0
          ],
          [
            8.268148,
            47.349773,
            420.0
          ],
          [
            8.268102,
            47.349773,
            420.0
          ],
          [
            8.267743,
            47.349682,
            420.0
          ],
          [
            8.267708,
            47.349682,
            420.0
          ],
          [
            8.267689,
            47.349688,
            420.0
          ],
          [
            8.267591,
            47.349785,
            420.0
          ],
          [
            8.267536,
            47.349755,
            420.0
          ],
          [
            8.267492,
            47.349736,
            420.0
          ],
          [
            8.267465,
            47.349779,
            420.0
          ],
          [
            8.26742,
            47.349846,
            420.0
          ],
          [
            8.267349,
            47.349956,
            420.0
          ],
          [
            8.267267,
            47.350035,
            420.0
          ],
          [
            8.266936,
            47.350308,
            420.0
          ],
          [
            8.266818,
            47.350394,
            420.0
          ],
          [
            8.266791,
            47.350418,
            420.0
          ],
          [
            8.266639,
            47.350528,
            420.0
          ],
          [
            8.26654,
            47.350601,
            420.0
          ],
          [
            8.266405,
            47.350698,
            420.0
          ],
          [
            8.265651,
            47.351222,
            420.0
          ],
          [
            8.265525,
            47.351295,
            420.0
          ],
          [
            8.265444,
            47.351337,
            420.0
          ],
          [
            8.265246,
            47.351428,
            420.0
          ],
          [
            8.265058,
            47.351538,
            420.0
          ],
          [
            8.265049,
            47.351587,
            420.0
          ],
          [
            8.263458,
            47.35267,
            419.0
          ],
          [
            8.262318,
            47.352134,
            418.0
          ],
          [
            8.262173,
            47.352067,
            418.0
          ],
          [
            8.262246,
            47.352013,
            418.0
          ],
          [
            8.262309,
            47.351964,
            418.0
          ],
          [
            8.262336,
            47.351922,
            418.0
          ],
          [
            8.262345,
            47.351885,
            418.0
          ],
          [
            8.262336,
            47.351837,
            418.0
          ],
          [
            8.262326,
            47.351794,
            418.0
          ],
          [
            8.262291,
            47.351751,
            417.0
          ],
          [
            8.262228,
            47.351703,
            417.0
          ],
          [
            8.26221,
            47.35169,
            417.0
          ],
          [
            8.262147,
            47.35166,
            417.0
          ],
          [
            8.261357,
            47.351513,
            418.0
          ],
          [
            8.260881,
            47.351435,
            418.0
          ],
          [
            8.256353,
            47.350638,
            420.0
          ],
          [
            8.256236,
            47.350619,
            421.0
          ],
          [
            8.256093,
            47.350595,
            421.0
          ],
          [
            8.25603,
            47.350583,
            421.0
          ],
          [
            8.254988,
            47.3504,
            422.0
          ],
          [
            8.254196,
            47.35026,
            422.0
          ],
          [
            8.253631,
            47.350144,
            423.0
          ],
          [
            8.25346,
            47.350096,
            423.0
          ],
          [
            8.253298,
            47.350041,
            423.0
          ],
          [
            8.253074,
            47.349956,
            423.0
          ],
          [
            8.252715,
            47.349822,
            424.0
          ],
          [
            8.252661,
            47.349797,
            424.0
          ],
          [
            8.251556,
            47.349366,
            425.0
          ],
          [
            8.251538,
            47.349353,
            425.0
          ],
          [
            8.250523,
            47.348957,
            426.0
          ],
          [
            8.250047,
            47.348769,
            426.0
          ],
          [
            8.249759,
            47.348678,
            427.0
          ],
          [
            8.249634,
            47.348617,
            427.0
          ],
          [
            8.249544,
            47.348568,
            427.0
          ],
          [
            8.249418,
            47.348513,
            427.0
          ],
          [
            8.248654,
            47.348209,
            428.0
          ],
          [
            8.248493,
            47.348136,
            428.0
          ],
          [
            8.248116,
            47.347953,
            428.0
          ],
          [
            8.248053,
            47.347923,
            428.0
          ],
          [
            8.247298,
            47.347546,
            429.0
          ],
          [
            8.247128,
            47.347461,
            429.0
          ],
          [
            8.247011,
            47.347394,
            429.0
          ],
          [
            8.246741,
            47.347192,
            430.0
          ],
          [
            8.246363,
            47.346937,
            430.0
          ],
          [
            8.246265,
            47.346864,
            430.0
          ],
          [
            8.246229,
            47.346828,
            430.0
          ],
          [
            8.246193,
            47.346779,
            430.0
          ],
          [
            8.246301,
            47.346742,
            430.0
          ],
          [
            8.246292,
            47.346706,
            430.0
          ],
          [
            8.246301,
            47.346359,
            431.0
          ],
          [
            8.246193,
            47.346122,
            432.0
          ],
          [
            8.246157,
            47.34606,
            432.0
          ],
          [
            8.245969,
            47.345805,
            432.0
          ],
          [
            8.245726,
            47.345519,
            433.0
          ],
          [
            8.245699,
            47.345482,
            433.0
          ],
          [
            8.245636,
            47.345427,
            433.0
          ],
          [
            8.245546,
            47.345348,
            433.0
          ],
          [
            8.245277,
            47.345208,
            434.0
          ],
          [
            8.245231,
            47.345184,
            434.0
          ],
          [
            8.245294,
            47.345141,
            434.0
          ],
          [
            8.245411,
            47.345062,
            434.0
          ],
          [
            8.245447,
            47.345026,
            434.0
          ],
          [
            8.245466,
            47.345001,
            434.0
          ],
          [
            8.245493,
            47.344965,
            434.0
          ],
          [
            8.245447,
            47.344959,
            434.0
          ],
          [
            8.245367,
            47.344934,
            434.0
          ],
          [
            8.24507,
            47.344837,
            435.0
          ],
          [
            8.244998,
            47.344813,
            435.0
          ],
          [
            8.244954,
            47.344794,
            435.0
          ],
          [
            8.244774,
            47.34474,
            435.0
          ],
          [
            8.244675,
            47.344703,
            435.0
          ],
          [
            8.24463,
            47.344685,
            436.0
          ],
          [
            8.244594,
            47.344746,
            435.0
          ],
          [
            8.244558,
            47.34474,
            436.0
          ],
          [
            8.244549,
            47.34474,
            436.0
          ],
          [
            8.244451,
            47.344721,
            437.0
          ],
          [
            8.244298,
            47.344715,
            438.0
          ],
          [
            8.244118,
            47.344727,
            440.0
          ],
          [
            8.244028,
            47.344746,
            443.0
          ],
          [
            8.243686,
            47.344825,
            442.0
          ],
          [
            8.24357,
            47.344648,
            446.0
          ],
          [
            8.243543,
            47.344654,
            447.0
          ],
          [
            8.242851,
            47.344709,
            455.0
          ],
          [
            8.242824,
            47.344904,
            458.0
          ],
          [
            8.242581,
            47.344922,
            460.0
          ],
          [
            8.242501,
            47.344776,
            462.0
          ],
          [
            8.241971,
            47.344301,
            469.0
          ],
          [
            8.241925,
            47.344045,
            472.0
          ],
          [
            8.242061,
            47.343802,
            475.0
          ],
          [
            8.242034,
            47.343668,
            477.0
          ],
          [
            8.241954,
            47.343595,
            478.0
          ],
          [
            8.241738,
            47.343808,
            479.0
          ],
          [
            8.241422,
            47.344435,
            485.0
          ],
          [
            8.241359,
            47.344545,
            487.0
          ],
          [
            8.241342,
            47.34466,
            488.0
          ],
          [
            8.241414,
            47.344794,
            489.0
          ],
          [
            8.241468,
            47.344947,
            490.0
          ],
          [
            8.241449,
            47.34505,
            491.0
          ],
          [
            8.241432,
            47.34508,
            492.0
          ],
          [
            8.240713,
            47.345269,
            500.0
          ],
          [
            8.24047,
            47.345366,
            503.0
          ],
          [
            8.240443,
            47.345379,
            504.0
          ],
          [
            8.240363,
            47.345397,
            505.0
          ],
          [
            8.239644,
            47.345792,
            513.0
          ],
          [
            8.239258,
            47.345993,
            518.0
          ],
          [
            8.239132,
            47.346097,
            519.0
          ],
          [
            8.238988,
            47.346225,
            521.0
          ],
          [
            8.23853,
            47.346736,
            529.0
          ],
          [
            8.238306,
            47.346821,
            531.0
          ],
          [
            8.238135,
            47.346858,
            532.0
          ],
          [
            8.237866,
            47.346882,
            534.0
          ],
          [
            8.237784,
            47.346931,
            535.0
          ],
          [
            8.237596,
            47.346998,
            536.0
          ],
          [
            8.237371,
            47.347046,
            538.0
          ],
          [
            8.237101,
            47.347071,
            540.0
          ],
          [
            8.236761,
            47.347065,
            541.0
          ],
          [
            8.236428,
            47.347028,
            543.0
          ],
          [
            8.236141,
            47.346998,
            544.0
          ],
          [
            8.236006,
            47.34701,
            545.0
          ],
          [
            8.235889,
            47.347034,
            546.0
          ],
          [
            8.235459,
            47.347137,
            548.0
          ],
          [
            8.234991,
            47.347229,
            550.0
          ],
          [
            8.234596,
            47.34729,
            551.0
          ],
          [
            8.234002,
            47.347442,
            553.0
          ],
          [
            8.233761,
            47.347485,
            553.0
          ],
          [
            8.233329,
            47.347491,
            554.0
          ],
          [
            8.232952,
            47.347473,
            555.0
          ],
          [
            8.232673,
            47.347442,
            556.0
          ],
          [
            8.232071,
            47.347394,
            558.0
          ],
          [
            8.231568,
            47.347406,
            559.0
          ],
          [
            8.231371,
            47.347412,
            559.0
          ],
          [
            8.230912,
            47.347436,
            561.0
          ],
          [
            8.230499,
            47.347442,
            566.0
          ],
          [
            8.230032,
            47.34743,
            571.0
          ],
          [
            8.229906,
            47.347448,
            572.0
          ],
          [
            8.229717,
            47.347491,
            575.0
          ],
          [
            8.229556,
            47.347552,
            578.0
          ],
          [
            8.229358,
            47.34757,
            581.0
          ],
          [
            8.228964,
            47.347546,
            586.0
          ],
          [
            8.228937,
            47.347521,
            587.0
          ],
          [
            8.228891,
            47.347491,
            587.0
          ],
          [
            8.228711,
            47.347454,
            589.0
          ],
          [
            8.228622,
            47.347454,
            589.0
          ],
          [
            8.228514,
            47.347485,
            590.0
          ],
          [
            8.228128,
            47.34754,
            593.0
          ],
          [
            8.227517,
            47.347582,
            596.0
          ],
          [
            8.227014,
            47.347673,
            599.0
          ],
          [
            8.22661,
            47.347795,
            601.0
          ],
          [
            8.225998,
            47.347911,
            602.0
          ],
          [
            8.225451,
            47.347978,
            604.0
          ],
          [
            8.224858,
            47.34796,
            605.0
          ],
          [
            8.224553,
            47.347996,
            606.0
          ],
          [
            8.224364,
            47.348002,
            607.0
          ],
          [
            8.224077,
            47.347984,
            607.0
          ],
          [
            8.223538,
            47.347892,
            609.0
          ],
          [
            8.223304,
            47.347856,
            609.0
          ],
          [
            8.222962,
            47.34788,
            611.0
          ],
          [
            8.222119,
            47.348087,
            620.0
          ],
          [
            8.221381,
            47.348245,
            626.0
          ],
          [
            8.221211,
            47.34827,
            627.0
          ],
          [
            8.220708,
            47.348343,
            631.0
          ],
          [
            8.220492,
            47.348349,
            632.0
          ],
          [
            8.220358,
            47.348355,
            632.0
          ],
          [
            8.219765,
            47.348422,
            635.0
          ],
          [
            8.218551,
            47.348775,
            640.0
          ],
          [
            8.217914,
            47.348963,
            642.0
          ],
          [
            8.216926,
            47.349103,
            645.0
          ],
          [
            8.21689,
            47.34903,
            646.0
          ],
          [
            8.21689,
            47.34903,
            646.0
          ],
          [
            8.216926,
            47.349103,
            645.0
          ],
          [
            8.216593,
            47.349195,
            646.0
          ],
          [
            8.215488,
            47.348367,
            650.0
          ],
          [
            8.214914,
            47.347917,
            658.0
          ],
          [
            8.214519,
            47.347612,
            662.0
          ],
          [
            8.214249,
            47.347333,
            665.0
          ],
          [
            8.213827,
            47.346967,
            669.0
          ],
          [
            8.213566,
            47.346694,
            671.0
          ],
          [
            8.213278,
            47.34648,
            672.0
          ],
          [
            8.212785,
            47.346128,
            670.0
          ],
          [
            8.211985,
            47.345622,
            668.0
          ],
          [
            8.211796,
            47.345482,
            667.0
          ],
          [
            8.211706,
            47.345458,
            667.0
          ],
          [
            8.21158,
            47.345482,
            667.0
          ],
          [
            8.211473,
            47.345525,
            666.0
          ],
          [
            8.211392,
            47.345549,
            666.0
          ],
          [
            8.211276,
            47.345561,
            666.0
          ],
          [
            8.211077,
            47.345555,
            666.0
          ],
          [
            8.210683,
            47.34547,
            665.0
          ],
          [
            8.210387,
            47.345373,
            664.0
          ],
          [
            8.209937,
            47.345184,
            663.0
          ],
          [
            8.209406,
            47.344983,
            661.0
          ],
          [
            8.208517,
            47.344624,
            657.0
          ],
          [
            8.208194,
            47.344472,
            654.0
          ],
          [
            8.208186,
            47.344453,
            654.0
          ],
          [
            8.208096,
            47.344088,
            650.0
          ],
          [
            8.207997,
            47.343905,
            649.0
          ],
          [
            8.207943,
            47.343753,
            647.0
          ],
          [
            8.20788,
            47.343486,
            645.0
          ],
          [
            8.207871,
            47.343327,
            644.0
          ],
          [
            8.207997,
            47.34309,
            642.0
          ],
          [
            8.208104,
            47.342828,
            640.0
          ],
          [
            8.208077,
            47.342566,
            638.0
          ],
          [
            8.207997,
            47.342153,
            635.0
          ],
          [
            8.207916,
            47.341721,
            633.0
          ],
          [
            8.207835,
            47.341233,
            630.0
          ],
          [
            8.207718,
            47.341136,
            628.0
          ],
          [
            8.207494,
            47.340942,
            624.0
          ],
          [
            8.207215,
            47.340503,
            616.0
          ],
          [
            8.206999,
            47.340302,
            612.0
          ],
          [
            8.206838,
            47.340168,
            610.0
          ],
          [
            8.206766,
            47.340113,
            609.0
          ],
          [
            8.206416,
            47.339669,
            604.0
          ],
          [
            8.206129,
            47.339182,
            600.0
          ],
          [
            8.206047,
            47.339073,
            600.0
          ],
          [
            8.206003,
            47.339018,
            600.0
          ],
          [
            8.205787,
            47.338908,
            600.0
          ],
          [
            8.205679,
            47.338847,
            600.0
          ],
          [
            8.2054,
            47.338756,
            600.0
          ],
          [
            8.205301,
            47.338756,
            600.0
          ],
          [
            8.205293,
            47.338756,
            600.0
          ],
          [
            8.205293,
            47.338756,
            600.0
          ],
          [
            8.205167,
            47.338768,
            600.0
          ],
          [
            8.205058,
            47.338792,
            600.0
          ],
          [
            8.204978,
            47.338835,
            600.0
          ],
          [
            8.204762,
            47.338975,
            600.0
          ],
          [
            8.204672,
            47.339036,
            600.0
          ],
          [
            8.204582,
            47.33906,
            599.0
          ],
          [
            8.204494,
            47.33906,
            599.0
          ],
          [
            8.204169,
            47.338914,
            597.0
          ],
          [
            8.20399,
            47.339133,
            595.0
          ],
          [
            8.203775,
            47.339224,
            597.0
          ],
          [
            8.203729,
            47.339243,
            597.0
          ],
          [
            8.20346,
            47.339285,
            597.0
          ],
          [
            8.20328,
            47.339328,
            597.0
          ],
          [
            8.202993,
            47.339383,
            596.0
          ],
          [
            8.202876,
            47.339401,
            595.0
          ],
          [
            8.20258,
            47.339486,
            592.0
          ],
          [
            8.202301,
            47.339584,
            588.0
          ],
          [
            8.202265,
            47.33959,
            588.0
          ],
          [
            8.201951,
            47.339687,
            585.0
          ],
          [
            8.201655,
            47.339912,
            581.0
          ],
          [
            8.201152,
            47.340125,
            577.0
          ],
          [
            8.20081,
            47.340479,
            572.0
          ],
          [
            8.200181,
            47.341069,
            564.0
          ],
          [
            8.199741,
            47.341416,
            559.0
          ],
          [
            8.199552,
            47.341532,
            556.0
          ],
          [
            8.199274,
            47.341617,
            553.0
          ],
          [
            8.199032,
            47.341727,
            551.0
          ],
          [
            8.1979,
            47.342427,
            540.0
          ],
          [
            8.19746,
            47.342798,
            539.0
          ],
          [
            8.197118,
            47.343175,
            538.0
          ],
          [
            8.196902,
            47.343108,
            533.0
          ],
          [
            8.196722,
            47.34306,
            529.0
          ],
          [
            8.195842,
            47.342749,
            514.0
          ],
          [
            8.195276,
            47.342585,
            503.0
          ],
          [
            8.194863,
            47.342457,
            495.0
          ],
          [
            8.194783,
            47.342487,
            494.0
          ],
          [
            8.194423,
            47.34253,
            493.0
          ],
          [
            8.194271,
            47.342481,
            492.0
          ],
          [
            8.193741,
            47.342208,
            489.0
          ],
          [
            8.193363,
            47.342012,
            488.0
          ],
          [
            8.193129,
            47.341945,
            487.0
          ],
          [
            8.192519,
            47.342378,
            485.0
          ],
          [
            8.192294,
            47.342554,
            484.0
          ],
          [
            8.192114,
            47.342737,
            483.0
          ],
          [
            8.191863,
            47.343029,
            482.0
          ],
          [
            8.191684,
            47.343297,
            481.0
          ],
          [
            8.191575,
            47.34337,
            480.0
          ],
          [
            8.191297,
            47.343522,
            478.0
          ],
          [
            8.190929,
            47.343772,
            473.0
          ],
          [
            8.190802,
            47.343869,
            472.0
          ],
          [
            8.190462,
            47.344058,
            468.0
          ],
          [
            8.190263,
            47.344149,
            467.0
          ],
          [
            8.190237,
            47.344113,
            466.0
          ],
          [
            8.190129,
            47.343899,
            463.0
          ],
          [
            8.190076,
            47.343875,
            462.0
          ],
          [
            8.189923,
            47.343839,
            460.0
          ],
          [
            8.188898,
            47.343565,
            460.0
          ],
          [
            8.188566,
            47.343492,
            460.0
          ],
          [
            8.188602,
            47.343406,
            460.0
          ],
          [
            8.188494,
            47.34337,
            460.0
          ],
          [
            8.187533,
            47.34309,
            458.0
          ],
          [
            8.187227,
            47.343005,
            457.0
          ],
          [
            8.1872,
            47.342993,
            457.0
          ],
          [
            8.1872,
            47.342993,
            457.0
          ],
          [
            8.187227,
            47.343005,
            457.0
          ],
          [
            8.186329,
            47.343553,
            460.0
          ],
          [
            8.185925,
            47.343857,
            460.0
          ],
          [
            8.184676,
            47.344947,
            460.0
          ],
          [
            8.183472,
            47.345987,
            460.0
          ],
          [
            8.183355,
            47.346079,
            460.0
          ],
          [
            8.182206,
            47.347089,
            460.0
          ],
          [
            8.18155,
            47.347661,
            458.0
          ],
          [
            8.18155,
            47.347661,
            458.0
          ],
          [
            8.180912,
            47.348221,
            455.0
          ],
          [
            8.180615,
            47.34796,
            455.0
          ],
          [
            8.180418,
            47.347801,
            454.0
          ],
          [
            8.180131,
            47.347643,
            454.0
          ],
          [
            8.179007,
            47.347113,
            453.0
          ],
          [
            8.178091,
            47.346724,
            452.0
          ],
          [
            8.176053,
            47.345902,
            450.0
          ],
          [
            8.175073,
            47.345568,
            450.0
          ],
          [
            8.172738,
            47.344801,
            450.0
          ],
          [
            8.172585,
            47.344752,
            450.0
          ],
          [
            8.169063,
            47.343565,
            450.0
          ],
          [
            8.16848,
            47.343674,
            450.0
          ],
          [
            8.168147,
            47.343729,
            450.0
          ],
          [
            8.168013,
            47.343741,
            450.0
          ],
          [
            8.167841,
            47.343747,
            450.0
          ],
          [
            8.167302,
            47.343753,
            450.0
          ],
          [
            8.167123,
            47.343705,
            450.0
          ],
          [
            8.166899,
            47.343668,
            450.0
          ],
          [
            8.166575,
            47.343681,
            450.0
          ],
          [
            8.166575,
            47.343681,
            450.0
          ],
          [
            8.166512,
            47.343687,
            450.0
          ],
          [
            8.166207,
            47.34376,
            450.0
          ],
          [
            8.165812,
            47.343887,
            450.0
          ],
          [
            8.165713,
            47.343905,
            450.0
          ],
          [
            8.165524,
            47.343942,
            450.0
          ],
          [
            8.165371,
            47.343978,
            449.0
          ],
          [
            8.165246,
            47.344009,
            449.0
          ],
          [
            8.165048,
            47.344082,
            449.0
          ],
          [
            8.164949,
            47.3441,
            449.0
          ],
          [
            8.16477,
            47.344143,
            448.0
          ],
          [
            8.164591,
            47.344198,
            447.0
          ],
          [
            8.16379,
            47.344666,
            444.0
          ],
          [
            8.16335,
            47.345062,
            442.0
          ],
          [
            8.163207,
            47.345184,
            441.0
          ],
          [
            8.163107,
            47.345257,
            440.0
          ],
          [
            8.163054,
            47.345397,
            440.0
          ],
          [
            8.162937,
            47.345379,
            440.0
          ],
          [
            8.162757,
            47.345366,
            440.0
          ],
          [
            8.162452,
            47.345373,
            440.0
          ],
          [
            8.162452,
            47.345373,
            440.0
          ],
          [
            8.162281,
            47.345379,
            440.0
          ],
          [
            8.162228,
            47.345379,
            440.0
          ],
          [
            8.162057,
            47.345385,
            440.0
          ],
          [
            8.162021,
            47.345385,
            440.0
          ],
          [
            8.161778,
            47.345354,
            440.0
          ],
          [
            8.161625,
            47.345336,
            440.0
          ],
          [
            8.161365,
            47.34533,
            441.0
          ],
          [
            8.161132,
            47.345336,
            442.0
          ],
          [
            8.160907,
            47.345348,
            443.0
          ],
          [
            8.160799,
            47.34536,
            443.0
          ],
          [
            8.160557,
            47.345379,
            444.0
          ],
          [
            8.160476,
            47.345379,
            444.0
          ],
          [
            8.16035,
            47.345373,
            445.0
          ],
          [
            8.160304,
            47.345373,
            445.0
          ],
          [
            8.160251,
            47.345366,
            445.0
          ],
          [
            8.160207,
            47.34536,
            445.0
          ],
          [
            8.16018,
            47.345403,
            445.0
          ],
          [
            8.160143,
            47.345446,
            445.0
          ],
          [
            8.16009,
            47.345495,
            445.0
          ],
          [
            8.160027,
            47.345543,
            445.0
          ],
          [
            8.16,
            47.345561,
            445.0
          ],
          [
            8.159748,
            47.345391,
            445.0
          ],
          [
            8.159505,
            47.345305,
            445.0
          ],
          [
            8.159201,
            47.345281,
            445.0
          ],
          [
            8.159146,
            47.345452,
            445.0
          ],
          [
            8.159092,
            47.345568,
            445.0
          ],
          [
            8.158975,
            47.345628,
            445.0
          ],
          [
            8.158931,
            47.345586,
            445.0
          ],
          [
            8.158841,
            47.345543,
            445.0
          ],
          [
            8.158769,
            47.345531,
            445.0
          ],
          [
            8.158725,
            47.345525,
            445.0
          ],
          [
            8.158662,
            47.345519,
            445.0
          ],
          [
            8.158589,
            47.345507,
            445.0
          ],
          [
            8.158589,
            47.345507,
            445.0
          ],
          [
            8.158562,
            47.345507,
            445.0
          ],
          [
            8.158455,
            47.345495,
            445.0
          ],
          [
            8.158185,
            47.345464,
            445.0
          ],
          [
            8.15796,
            47.345458,
            445.0
          ],
          [
            8.15797,
            47.345409,
            445.0
          ],
          [
            8.157673,
            47.345385,
            445.0
          ],
          [
            8.15761,
            47.345385,
            445.0
          ],
          [
            8.157565,
            47.345403,
            445.0
          ],
          [
            8.157538,
            47.345415,
            445.0
          ],
          [
            8.157367,
            47.345543,
            447.0
          ],
          [
            8.157341,
            47.34558,
            447.0
          ],
          [
            8.157296,
            47.345568,
            447.0
          ],
          [
            8.157161,
            47.345592,
            448.0
          ],
          [
            8.157062,
            47.345647,
            449.0
          ],
          [
            8.156847,
            47.34575,
            451.0
          ],
          [
            8.156604,
            47.345853,
            453.0
          ],
          [
            8.156379,
            47.345963,
            454.0
          ],
          [
            8.156325,
            47.345981,
            454.0
          ],
          [
            8.156002,
            47.346128,
            456.0
          ],
          [
            8.155949,
            47.34617,
            456.0
          ],
          [
            8.155859,
            47.346134,
            457.0
          ],
          [
            8.15575,
            47.346109,
            457.0
          ],
          [
            8.15549,
            47.346036,
            458.0
          ],
          [
            8.155391,
            47.346012,
            458.0
          ],
          [
            8.155239,
            47.345969,
            459.0
          ],
          [
            8.154861,
            47.345871,
            460.0
          ],
          [
            8.15461,
            47.345805,
            463.0
          ],
          [
            8.154547,
            47.345786,
            464.0
          ],
          [
            8.154161,
            47.345671,
            470.0
          ],
          [
            8.154098,
            47.345634,
            472.0
          ],
          [
            8.154052,
            47.345647,
            472.0
          ],
          [
            8.153972,
            47.345647,
            472.0
          ],
          [
            8.153272,
            47.34564,
            476.0
          ],
          [
            8.153182,
            47.345938,
            473.0
          ],
          [
            8.153182,
            47.346006,
            472.0
          ],
          [
            8.15319,
            47.346079,
            471.0
          ],
          [
            8.1531,
            47.346091,
            472.0
          ],
          [
            8.152813,
            47.346146,
            473.0
          ],
          [
            8.152624,
            47.34617,
            475.0
          ],
          [
            8.152472,
            47.346194,
            475.0
          ],
          [
            8.152383,
            47.346188,
            476.0
          ],
          [
            8.152113,
            47.346194,
            477.0
          ],
          [
            8.151897,
            47.346213,
            478.0
          ],
          [
            8.151627,
            47.346261,
            480.0
          ],
          [
            8.151232,
            47.346365,
            482.0
          ],
          [
            8.150846,
            47.346474,
            484.0
          ],
          [
            8.150333,
            47.34662,
            487.0
          ],
          [
            8.150217,
            47.346632,
            488.0
          ],
          [
            8.150091,
            47.346626,
            488.0
          ],
          [
            8.149974,
            47.346608,
            489.0
          ],
          [
            8.149849,
            47.34651,
            490.0
          ],
          [
            8.149614,
            47.34631,
            494.0
          ],
          [
            8.14931,
            47.346122,
            498.0
          ],
          [
            8.149238,
            47.346073,
            499.0
          ],
          [
            8.149121,
            47.346018,
            501.0
          ],
          [
            8.148878,
            47.345896,
            504.0
          ],
          [
            8.148511,
            47.345811,
            508.0
          ],
          [
            8.147406,
            47.345622,
            516.0
          ],
          [
            8.147109,
            47.345513,
            519.0
          ],
          [
            8.146893,
            47.345464,
            520.0
          ],
          [
            8.146767,
            47.345489,
            521.0
          ],
          [
            8.146723,
            47.345555,
            522.0
          ],
          [
            8.146714,
            47.345622,
            523.0
          ],
          [
            8.146597,
            47.345689,
            524.0
          ],
          [
            8.146345,
            47.345707,
            526.0
          ],
          [
            8.146022,
            47.345677,
            528.0
          ],
          [
            8.145689,
            47.345653,
            530.0
          ],
          [
            8.145393,
            47.345622,
            532.0
          ],
          [
            8.145249,
            47.34561,
            533.0
          ],
          [
            8.145087,
            47.345604,
            533.0
          ],
          [
            8.144836,
            47.345519,
            535.0
          ],
          [
            8.144314,
            47.345336,
            538.0
          ],
          [
            8.143955,
            47.345159,
            540.0
          ],
          [
            8.143471,
            47.34491,
            546.0
          ],
          [
            8.143309,
            47.34491,
            548.0
          ],
          [
            8.142905,
            47.344837,
            553.0
          ],
          [
            8.142473,
            47.344764,
            561.0
          ],
          [
            8.142169,
            47.344721,
            564.0
          ],
          [
            8.141907,
            47.344617,
            567.0
          ],
          [
            8.141917,
            47.344478,
            569.0
          ],
          [
            8.14162,
            47.344526,
            570.0
          ],
          [
            8.141458,
            47.344557,
            569.0
          ],
          [
            8.141216,
            47.344605,
            568.0
          ],
          [
            8.140919,
            47.344654,
            567.0
          ],
          [
            8.140677,
            47.344605,
            567.0
          ],
          [
            8.140515,
            47.344545,
            567.0
          ],
          [
            8.140381,
            47.344466,
            566.0
          ],
          [
            8.140165,
            47.34466,
            566.0
          ],
          [
            8.140111,
            47.344813,
            565.0
          ],
          [
            8.139877,
            47.344862,
            564.0
          ],
          [
            8.139752,
            47.344904,
            564.0
          ],
          [
            8.139599,
            47.345032,
            563.0
          ],
          [
            8.139393,
            47.34519,
            562.0
          ],
          [
            8.139276,
            47.345293,
            562.0
          ],
          [
            8.13906,
            47.345342,
            561.0
          ],
          [
            8.138737,
            47.345385,
            560.0
          ],
          [
            8.138125,
            47.345464,
            550.0
          ],
          [
            8.138027,
            47.345501,
            550.0
          ],
          [
            8.137946,
            47.345555,
            549.0
          ],
          [
            8.137821,
            47.345598,
            550.0
          ],
          [
            8.137748,
            47.34564,
            550.0
          ],
          [
            8.137703,
            47.345683,
            550.0
          ],
          [
            8.137668,
            47.345738,
            550.0
          ],
          [
            8.137676,
            47.345938,
            550.0
          ],
          [
            8.137425,
            47.346067,
            550.0
          ],
          [
            8.137309,
            47.346097,
            550.0
          ],
          [
            8.137137,
            47.346188,
            550.0
          ],
          [
            8.136958,
            47.346395,
            550.0
          ],
          [
            8.13676,
            47.346596,
            550.0
          ],
          [
            8.136553,
            47.346694,
            550.0
          ],
          [
            8.136364,
            47.346773,
            550.0
          ],
          [
            8.136158,
            47.346815,
            550.0
          ],
          [
            8.136024,
            47.34684,
            550.0
          ],
          [
            8.135943,
            47.346864,
            550.0
          ],
          [
            8.135853,
            47.346888,
            550.0
          ],
          [
            8.135808,
            47.346919,
            550.0
          ],
          [
            8.135754,
            47.347004,
            550.0
          ],
          [
            8.135601,
            47.347333,
            550.0
          ],
          [
            8.135521,
            47.347503,
            550.0
          ],
          [
            8.135458,
            47.347643,
            550.0
          ],
          [
            8.13535,
            47.34799,
            550.0
          ],
          [
            8.135314,
            47.348318,
            546.0
          ],
          [
            8.135152,
            47.348611,
            543.0
          ],
          [
            8.135287,
            47.349164,
            537.0
          ],
          [
            8.135251,
            47.349317,
            535.0
          ],
          [
            8.135179,
            47.349451,
            533.0
          ],
          [
            8.135116,
            47.349822,
            529.0
          ],
          [
            8.135143,
            47.350266,
            524.0
          ],
          [
            8.135125,
            47.350856,
            516.0
          ],
          [
            8.135089,
            47.351325,
            510.0
          ],
          [
            8.135045,
            47.351587,
            511.0
          ],
          [
            8.135125,
            47.351891,
            512.0
          ],
          [
            8.135322,
            47.352427,
            514.0
          ],
          [
            8.135538,
            47.353011,
            517.0
          ],
          [
            8.135745,
            47.353614,
            519.0
          ],
          [
            8.135781,
            47.353735,
            520.0
          ],
          [
            8.135943,
            47.354186,
            520.0
          ],
          [
            8.136131,
            47.354733,
            520.0
          ],
          [
            8.136203,
            47.355068,
            521.0
          ],
          [
            8.136203,
            47.355226,
            522.0
          ],
          [
            8.136185,
            47.355299,
            522.0
          ],
          [
            8.13615,
            47.355506,
            522.0
          ],
          [
            8.13614,
            47.355537,
            523.0
          ],
          [
            8.136077,
            47.355834,
            524.0
          ],
          [
            8.13597,
            47.356267,
            525.0
          ],
          [
            8.135798,
            47.356486,
            526.0
          ],
          [
            8.135224,
            47.356851,
            528.0
          ],
          [
            8.134703,
            47.357271,
            529.0
          ],
          [
            8.134515,
            47.357393,
            530.0
          ],
          [
            8.133913,
            47.357447,
            533.0
          ],
          [
            8.13314,
            47.357569,
            537.0
          ],
          [
            8.132691,
            47.357678,
            539.0
          ],
          [
            8.132295,
            47.357813,
            540.0
          ],
          [
            8.132125,
            47.357825,
            540.0
          ],
          [
            8.131999,
            47.357794,
            540.0
          ],
          [
            8.131927,
            47.35774,
            540.0
          ],
          [
            8.131846,
            47.357648,
            540.0
          ],
          [
            8.131793,
            47.357447,
            540.0
          ],
          [
            8.131712,
            47.357338,
            540.0
          ],
          [
            8.131343,
            47.357125,
            540.0
          ],
          [
            8.130948,
            47.356875,
            540.0
          ],
          [
            8.130651,
            47.356729,
            540.0
          ],
          [
            8.130257,
            47.35659,
            540.0
          ],
          [
            8.129825,
            47.356486,
            540.0
          ],
          [
            8.12934,
            47.356413,
            540.0
          ],
          [
            8.128846,
            47.356406,
            540.0
          ],
          [
            8.1281,
            47.356437,
            540.0
          ],
          [
            8.127202,
            47.356474,
            540.0
          ],
          [
            8.127103,
            47.356516,
            540.0
          ],
          [
            8.126655,
            47.356699,
            540.0
          ],
          [
            8.12624,
            47.356802,
            539.0
          ],
          [
            8.125756,
            47.356857,
            537.0
          ],
          [
            8.12519,
            47.356893,
            535.0
          ],
          [
            8.124921,
            47.356924,
            534.0
          ],
          [
            8.124642,
            47.356966,
            533.0
          ],
          [
            8.124319,
            47.357039,
            531.0
          ],
          [
            8.124058,
            47.357113,
            530.0
          ],
          [
            8.123869,
            47.357155,
            530.0
          ],
          [
            8.123716,
            47.357198,
            531.0
          ],
          [
            8.12315,
            47.357368,
            532.0
          ],
          [
            8.122953,
            47.357447,
            533.0
          ],
          [
            8.122684,
            47.357545,
            533.0
          ],
          [
            8.122504,
            47.357642,
            534.0
          ],
          [
            8.122135,
            47.357916,
            535.0
          ],
          [
            8.121956,
            47.358177,
            535.0
          ],
          [
            8.121812,
            47.358488,
            535.0
          ],
          [
            8.121732,
            47.358622,
            535.0
          ],
          [
            8.121695,
            47.358658,
            535.0
          ],
          [
            8.121615,
            47.358707,
            535.0
          ],
          [
            8.121282,
            47.35889,
            535.0
          ],
          [
            8.12112,
            47.358975,
            535.0
          ],
          [
            8.120573,
            47.359224,
            535.0
          ],
          [
            8.120195,
            47.359364,
            535.0
          ],
          [
            8.119808,
            47.359468,
            536.0
          ],
          [
            8.119719,
            47.359492,
            536.0
          ],
          [
            8.119261,
            47.359608,
            536.0
          ],
          [
            8.118829,
            47.359723,
            537.0
          ],
          [
            8.11874,
            47.35976,
            537.0
          ],
          [
            8.11856,
            47.359839,
            537.0
          ],
          [
            8.118327,
            47.359954,
            538.0
          ],
          [
            8.11821,
            47.360015,
            538.0
          ],
          [
            8.117707,
            47.360326,
            539.0
          ],
          [
            8.117573,
            47.360417,
            539.0
          ],
          [
            8.117447,
            47.360526,
            539.0
          ],
          [
            8.117338,
            47.360642,
            540.0
          ],
          [
            8.117258,
            47.360746,
            540.0
          ],
          [
            8.117213,
            47.360849,
            540.0
          ],
          [
            8.117141,
            47.361116,
            540.0
          ],
          [
            8.117105,
            47.36122,
            540.0
          ],
          [
            8.117061,
            47.361324,
            540.0
          ],
          [
            8.116997,
            47.361403,
            540.0
          ],
          [
            8.116898,
            47.361512,
            540.0
          ],
          [
            8.116808,
            47.361585,
            540.0
          ],
          [
            8.116719,
            47.36164,
            540.0
          ],
          [
            8.116485,
            47.361755,
            540.0
          ],
          [
            8.116162,
            47.361926,
            540.0
          ],
          [
            8.116027,
            47.361981,
            540.0
          ],
          [
            8.115164,
            47.362291,
            540.0
          ],
          [
            8.11459,
            47.362602,
            540.0
          ],
          [
            8.114284,
            47.362735,
            540.0
          ],
          [
            8.114114,
            47.362826,
            539.0
          ],
          [
            8.114015,
            47.362893,
            538.0
          ],
          [
            8.113881,
            47.362991,
            538.0
          ],
          [
            8.113755,
            47.36318,
            537.0
          ],
          [
            8.113602,
            47.363368,
            536.0
          ],
          [
            8.11335,
            47.363581,
            535.0
          ],
          [
            8.113206,
            47.363788,
            534.0
          ],
          [
            8.112829,
            47.364202,
            531.0
          ],
          [
            8.112524,
            47.364524,
            530.0
          ],
          [
            8.112191,
            47.364786,
            528.0
          ],
          [
            8.11176,
            47.365078,
            526.0
          ],
          [
            8.111527,
            47.365224,
            525.0
          ],
          [
            8.111221,
            47.365413,
            524.0
          ],
          [
            8.110413,
            47.365765,
            522.0
          ],
          [
            8.110197,
            47.365887,
            521.0
          ],
          [
            8.110017,
            47.366015,
            520.0
          ],
          [
            8.10982,
            47.366197,
            519.0
          ],
          [
            8.109676,
            47.36627,
            519.0
          ],
          [
            8.109505,
            47.366325,
            519.0
          ],
          [
            8.109235,
            47.366288,
            519.0
          ],
          [
            8.109002,
            47.36627,
            519.0
          ],
          [
            8.108849,
            47.366288,
            519.0
          ],
          [
            8.108418,
            47.366447,
            520.0
          ],
          [
            8.107879,
            47.366508,
            520.0
          ],
          [
            8.107745,
            47.36649,
            520.0
          ],
          [
            8.107053,
            47.366307,
            520.0
          ],
          [
            8.106945,
            47.366276,
            520.0
          ],
          [
            8.106523,
            47.366058,
            520.0
          ],
          [
            8.106227,
            47.365741,
            518.0
          ],
          [
            8.106065,
            47.365546,
            516.0
          ],
          [
            8.105929,
            47.365327,
            515.0
          ],
          [
            8.105742,
            47.36509,
            514.0
          ],
          [
            8.105526,
            47.364932,
            512.0
          ],
          [
            8.105319,
            47.364829,
            511.0
          ],
          [
            8.104906,
            47.364676,
            509.0
          ],
          [
            8.104421,
            47.364591,
            505.0
          ],
          [
            8.103837,
            47.364488,
            500.0
          ],
          [
            8.103298,
            47.364354,
            493.0
          ],
          [
            8.102858,
            47.364177,
            487.0
          ],
          [
            8.102543,
            47.364092,
            483.0
          ],
          [
            8.1024,
            47.364092,
            481.0
          ],
          [
            8.102166,
            47.364147,
            478.0
          ],
          [
            8.101977,
            47.364171,
            476.0
          ],
          [
            8.101807,
            47.364153,
            474.0
          ],
          [
            8.101528,
            47.36411,
            471.0
          ],
          [
            8.101331,
            47.364074,
            469.0
          ],
          [
            8.100935,
            47.363976,
            463.0
          ],
          [
            8.100513,
            47.363867,
            458.0
          ],
          [
            8.100451,
            47.363928,
            457.0
          ],
          [
            8.100379,
            47.363934,
            456.0
          ],
          [
            8.100235,
            47.364165,
            458.0
          ],
          [
            8.100109,
            47.364214,
            458.0
          ],
          [
            8.099776,
            47.36436,
            457.0
          ],
          [
            8.09966,
            47.364427,
            457.0
          ],
          [
            8.099587,
            47.364518,
            456.0
          ],
          [
            8.099543,
            47.364725,
            456.0
          ],
          [
            8.099579,
            47.364883,
            455.0
          ],
          [
            8.099526,
            47.364981,
            455.0
          ],
          [
            8.099363,
            47.365169,
            455.0
          ],
          [
            8.099273,
            47.36537,
            454.0
          ],
          [
            8.099247,
            47.365175,
            451.0
          ],
          [
            8.099174,
            47.364859,
            443.0
          ],
          [
            8.09904,
            47.364591,
            436.0
          ],
          [
            8.098977,
            47.364305,
            430.0
          ],
          [
            8.098843,
            47.364104,
            425.0
          ],
          [
            8.098834,
            47.363891,
            420.0
          ],
          [
            8.098941,
            47.363746,
            420.0
          ],
          [
            8.099094,
            47.363508,
            418.0
          ],
          [
            8.099526,
            47.362717,
            413.0
          ],
          [
            8.099507,
            47.36262,
            412.0
          ],
          [
            8.099346,
            47.362498,
            411.0
          ],
          [
            8.099084,
            47.362382,
            410.0
          ],
          [
            8.098977,
            47.362364,
            410.0
          ],
          [
            8.098843,
            47.362333,
            410.0
          ],
          [
            8.098635,
            47.362291,
            410.0
          ],
          [
            8.098573,
            47.362273,
            410.0
          ],
          [
            8.098429,
            47.36223,
            410.0
          ],
          [
            8.098214,
            47.362157,
            410.0
          ],
          [
            8.098132,
            47.362206,
            410.0
          ],
          [
            8.098061,
            47.362242,
            410.0
          ],
          [
            8.097539,
            47.362541,
            409.0
          ],
          [
            8.097109,
            47.362875,
            409.0
          ],
          [
            8.096776,
            47.363155,
            409.0
          ],
          [
            8.09674,
            47.363204,
            409.0
          ],
          [
            8.096614,
            47.36352,
            409.0
          ],
          [
            8.096551,
            47.363624,
            409.0
          ],
          [
            8.096399,
            47.363727,
            409.0
          ],
          [
            8.095815,
            47.363867,
            408.0
          ],
          [
            8.095455,
            47.363885,
            408.0
          ],
          [
            8.095222,
            47.36394,
            408.0
          ],
          [
            8.095033,
            47.364001,
            408.0
          ],
          [
            8.094908,
            47.36408,
            408.0
          ],
          [
            8.094763,
            47.364171,
            408.0
          ],
          [
            8.094549,
            47.364287,
            408.0
          ],
          [
            8.094342,
            47.364409,
            408.0
          ],
          [
            8.094279,
            47.364451,
            408.0
          ],
          [
            8.094279,
            47.364451,
            408.0
          ],
          [
            8.094144,
            47.364542,
            407.0
          ],
          [
            8.094036,
            47.364615,
            407.0
          ],
          [
            8.09401,
            47.364639,
            407.0
          ],
          [
            8.093973,
            47.364694,
            407.0
          ],
          [
            8.093686,
            47.365102,
            407.0
          ],
          [
            8.093551,
            47.36526,
            407.0
          ],
          [
            8.093273,
            47.365486,
            407.0
          ],
          [
            8.093039,
            47.365638,
            407.0
          ],
          [
            8.092797,
            47.365704,
            407.0
          ],
          [
            8.092572,
            47.365814,
            406.0
          ],
          [
            8.092383,
            47.366039,
            406.0
          ],
          [
            8.092249,
            47.366124,
            406.0
          ],
          [
            8.09197,
            47.366143,
            406.0
          ],
          [
            8.091665,
            47.366258,
            406.0
          ],
          [
            8.091423,
            47.366398,
            406.0
          ],
          [
            8.09136,
            47.366471,
            406.0
          ],
          [
            8.091323,
            47.366551,
            406.0
          ],
          [
            8.09127,
            47.366587,
            406.0
          ],
          [
            8.09136,
            47.366654,
            406.0
          ],
          [
            8.091512,
            47.366757,
            406.0
          ],
          [
            8.091647,
            47.36686,
            406.0
          ],
          [
            8.092123,
            47.367183,
            407.0
          ],
          [
            8.092545,
            47.367408,
            407.0
          ],
          [
            8.092914,
            47.367585,
            408.0
          ],
          [
            8.093255,
            47.367707,
            408.0
          ],
          [
            8.093597,
            47.36781,
            408.0
          ],
          [
            8.093884,
            47.367871,
            409.0
          ],
          [
            8.094153,
            47.367937,
            409.0
          ],
          [
            8.094342,
            47.36798,
            409.0
          ],
          [
            8.094279,
            47.368102,
            409.0
          ],
          [
            8.094207,
            47.368248,
            409.0
          ],
          [
            8.094136,
            47.368467,
            410.0
          ],
          [
            8.093929,
            47.368582,
            409.0
          ],
          [
            8.093551,
            47.368893,
            408.0
          ],
          [
            8.09347,
            47.368996,
            408.0
          ],
          [
            8.093264,
            47.369197,
            407.0
          ],
          [
            8.093012,
            47.369459,
            406.0
          ],
          [
            8.092788,
            47.369732,
            406.0
          ],
          [
            8.092734,
            47.369781,
            405.0
          ],
          [
            8.092662,
            47.36983,
            405.0
          ],
          [
            8.092563,
            47.369872,
            405.0
          ],
          [
            8.092249,
            47.369994,
            404.0
          ],
          [
            8.091872,
            47.370207,
            404.0
          ],
          [
            8.091637,
            47.37028,
            403.0
          ],
          [
            8.091396,
            47.370304,
            403.0
          ],
          [
            8.091126,
            47.370499,
            402.0
          ],
          [
            8.09065,
            47.370851,
            401.0
          ],
          [
            8.090335,
            47.37115,
            400.0
          ],
          [
            8.090111,
            47.371107,
            400.0
          ],
          [
            8.089706,
            47.371065,
            400.0
          ],
          [
            8.089455,
            47.371059,
            400.0
          ],
          [
            8.089086,
            47.371095,
            400.0
          ],
          [
            8.088907,
            47.371077,
            400.0
          ],
          [
            8.088691,
            47.370998,
            400.0
          ],
          [
            8.088539,
            47.370931,
            399.0
          ],
          [
            8.088413,
            47.370894,
            399.0
          ],
          [
            8.088242,
            47.370851,
            399.0
          ],
          [
            8.088117,
            47.370839,
            399.0
          ],
          [
            8.086526,
            47.370463,
            399.0
          ],
          [
            8.086347,
            47.370687,
            399.0
          ],
          [
            8.086123,
            47.370967,
            399.0
          ],
          [
            8.086006,
            47.371107,
            399.0
          ],
          [
            8.085979,
            47.371138,
            399.0
          ],
          [
            8.085601,
            47.371491,
            398.0
          ],
          [
            8.085583,
            47.371515,
            398.0
          ],
          [
            8.085404,
            47.371625,
            398.0
          ],
          [
            8.085125,
            47.371436,
            398.0
          ],
          [
            8.085008,
            47.371344,
            398.0
          ],
          [
            8.084972,
            47.371296,
            398.0
          ],
          [
            8.084891,
            47.371278,
            398.0
          ],
          [
            8.084802,
            47.371241,
            398.0
          ],
          [
            8.084433,
            47.370925,
            398.0
          ],
          [
            8.083796,
            47.370408,
            398.0
          ],
          [
            8.08376,
            47.370341,
            398.0
          ],
          [
            8.083687,
            47.370334,
            398.0
          ],
          [
            8.083643,
            47.370347,
            398.0
          ],
          [
            8.083301,
            47.370536,
            398.0
          ],
          [
            8.083257,
            47.370499,
            398.0
          ],
          [
            8.082852,
            47.370712,
            398.0
          ],
          [
            8.082484,
            47.370937,
            398.0
          ],
          [
            8.082494,
            47.371029,
            398.0
          ],
          [
            8.082494,
            47.371059,
            398.0
          ],
          [
            8.082502,
            47.371174,
            398.0
          ],
          [
            8.082502,
            47.371211,
            398.0
          ],
          [
            8.082475,
            47.371217,
            398.0
          ],
          [
            8.082439,
            47.371186,
            398.0
          ],
          [
            8.082376,
            47.371138,
            398.0
          ],
          [
            8.082341,
            47.371156,
            398.0
          ],
          [
            8.082232,
            47.371077,
            398.0
          ],
          [
            8.082071,
            47.371168,
            398.0
          ],
          [
            8.081756,
            47.371338,
            398.0
          ],
          [
            8.081882,
            47.371442,
            398.0
          ],
          [
            8.081899,
            47.371454,
            398.0
          ],
          [
            8.081865,
            47.371472,
            398.0
          ],
          [
            8.081873,
            47.371484,
            398.0
          ],
          [
            8.081891,
            47.371497,
            398.0
          ],
          [
            8.081855,
            47.371509,
            398.0
          ],
          [
            8.081783,
            47.371552,
            398.0
          ],
          [
            8.08146,
            47.37129,
            398.0
          ],
          [
            8.081362,
            47.371211,
            398.0
          ],
          [
            8.081272,
            47.371138,
            398.0
          ],
          [
            8.081209,
            47.371083,
            398.0
          ],
          [
            8.08111,
            47.371083,
            398.0
          ],
          [
            8.081065,
            47.371047,
            398.0
          ],
          [
            8.080706,
            47.370779,
            398.0
          ],
          [
            8.080373,
            47.370511,
            398.0
          ],
          [
            8.080175,
            47.370359,
            398.0
          ],
          [
            8.080121,
            47.370334,
            398.0
          ],
          [
            8.080067,
            47.370316,
            398.0
          ],
          [
            8.080014,
            47.370304,
            398.0
          ],
          [
            8.080004,
            47.370328,
            398.0
          ],
          [
            8.080004,
            47.370341,
            398.0
          ],
          [
            8.079924,
            47.370334,
            398.0
          ],
          [
            8.079888,
            47.370334,
            398.0
          ],
          [
            8.07987,
            47.370341,
            398.0
          ],
          [
            8.079825,
            47.370371,
            398.0
          ],
          [
            8.079762,
            47.370408,
            398.0
          ],
          [
            8.079726,
            47.370426,
            399.0
          ],
          [
            8.079699,
            47.370444,
            399.0
          ],
          [
            8.079681,
            47.370463,
            399.0
          ],
          [
            8.079645,
            47.370499,
            399.0
          ],
          [
            8.079654,
            47.370542,
            399.0
          ],
          [
            8.079654,
            47.370578,
            399.0
          ],
          [
            8.079645,
            47.370657,
            399.0
          ],
          [
            8.079645,
            47.370718,
            399.0
          ],
          [
            8.079645,
            47.370791,
            399.0
          ],
          [
            8.079654,
            47.370833,
            399.0
          ],
          [
            8.079664,
            47.370858,
            399.0
          ],
          [
            8.079421,
            47.371041,
            399.0
          ],
          [
            8.079375,
            47.371083,
            399.0
          ],
          [
            8.079295,
            47.371168,
            399.0
          ],
          [
            8.079241,
            47.37129,
            399.0
          ],
          [
            8.079205,
            47.371296,
            399.0
          ],
          [
            8.079196,
            47.371296,
            399.0
          ],
          [
            8.079142,
            47.371296,
            399.0
          ],
          [
            8.079133,
            47.371411,
            399.0
          ],
          [
            8.079115,
            47.371552,
            399.0
          ],
          [
            8.079098,
            47.371746,
            399.0
          ],
          [
            8.079079,
            47.371801,
            399.0
          ],
          [
            8.079062,
            47.371849,
            399.0
          ],
          [
            8.079043,
            47.371874,
            399.0
          ],
          [
            8.078981,
            47.371983,
            399.0
          ],
          [
            8.078945,
            47.37202,
            399.0
          ],
          [
            8.078882,
            47.372081,
            399.0
          ],
          [
            8.078765,
            47.372196,
            399.0
          ],
          [
            8.078576,
            47.372354,
            399.0
          ],
          [
            8.07845,
            47.372445,
            399.0
          ],
          [
            8.07828,
            47.37258,
            399.0
          ],
          [
            8.078154,
            47.372702,
            399.0
          ],
          [
            8.0781,
            47.372756,
            399.0
          ],
          [
            8.078028,
            47.372823,
            399.0
          ],
          [
            8.077947,
            47.37289,
            399.0
          ],
          [
            8.077911,
            47.372914,
            399.0
          ],
          [
            8.077876,
            47.372938,
            399.0
          ],
          [
            8.077777,
            47.372987,
            399.0
          ],
          [
            8.077678,
            47.373042,
            399.0
          ],
          [
            8.077552,
            47.373096,
            399.0
          ],
          [
            8.077471,
            47.373139,
            399.0
          ],
          [
            8.077454,
            47.373158,
            399.0
          ],
          [
            8.077408,
            47.373213,
            399.0
          ],
          [
            8.077328,
            47.373413,
            399.0
          ],
          [
            8.077301,
            47.373462,
            399.0
          ],
          [
            8.077255,
            47.373534,
            399.0
          ],
          [
            8.077165,
            47.373675,
            399.0
          ],
          [
            8.077067,
            47.373827,
            399.0
          ],
          [
            8.077022,
            47.373924,
            399.0
          ],
          [
            8.076878,
            47.373924,
            400.0
          ],
          [
            8.076349,
            47.374027,
            403.0
          ],
          [
            8.076223,
            47.374039,
            403.0
          ],
          [
            8.076043,
            47.374039,
            404.0
          ],
          [
            8.07598,
            47.374052,
            404.0
          ],
          [
            8.075882,
            47.374064,
            405.0
          ],
          [
            8.075702,
            47.374112,
            406.0
          ],
          [
            8.075513,
            47.374149,
            407.0
          ],
          [
            8.075396,
            47.374185,
            407.0
          ],
          [
            8.075351,
            47.374216,
            408.0
          ],
          [
            8.075324,
            47.37424,
            408.0
          ],
          [
            8.075307,
            47.374289,
            408.0
          ],
          [
            8.075297,
            47.374332,
            408.0
          ],
          [
            8.075307,
            47.374611,
            411.0
          ],
          [
            8.075316,
            47.374715,
            412.0
          ],
          [
            8.075307,
            47.374788,
            413.0
          ],
          [
            8.07528,
            47.374867,
            414.0
          ],
          [
            8.075253,
            47.37491,
            414.0
          ],
          [
            8.075217,
            47.37494,
            415.0
          ],
          [
            8.075154,
            47.374958,
            415.0
          ],
          [
            8.075064,
            47.374977,
            416.0
          ],
          [
            8.074857,
            47.375086,
            418.0
          ],
          [
            8.074695,
            47.375141,
            420.0
          ],
          [
            8.074274,
            47.375226,
            423.0
          ],
          [
            8.074192,
            47.375274,
            423.0
          ],
          [
            8.074138,
            47.375317,
            424.0
          ],
          [
            8.074067,
            47.37536,
            425.0
          ],
          [
            8.074004,
            47.375354,
            425.0
          ],
          [
            8.07377,
            47.375603,
            428.0
          ],
          [
            8.073645,
            47.375676,
            429.0
          ],
          [
            8.073501,
            47.375712,
            430.0
          ],
          [
            8.072907,
            47.375822,
            429.0
          ],
          [
            8.071632,
            47.376157,
            428.0
          ],
          [
            8.071444,
            47.376175,
            427.0
          ],
          [
            8.071408,
            47.376181,
            427.0
          ],
          [
            8.071354,
            47.376193,
            427.0
          ],
          [
            8.070905,
            47.376242,
            427.0
          ],
          [
            8.070383,
            47.376284,
            426.0
          ],
          [
            8.069836,
            47.376333,
            425.0
          ],
          [
            8.069477,
            47.376375,
            425.0
          ],
          [
            8.069135,
            47.37643,
            424.0
          ],
          [
            8.069099,
            47.37654,
            427.0
          ],
          [
            8.069288,
            47.376783,
            429.0
          ],
          [
            8.069431,
            47.377008,
            427.0
          ],
          [
            8.06954,
            47.377075,
            426.0
          ],
          [
            8.069154,
            47.377367,
            424.0
          ],
          [
            8.069036,
            47.377513,
            422.0
          ],
          [
            8.068219,
            47.378504,
            414.0
          ],
          [
            8.067464,
            47.379028,
            410.0
          ],
          [
            8.067293,
            47.379162,
            409.0
          ],
          [
            8.066808,
            47.379241,
            409.0
          ],
          [
            8.065972,
            47.379381,
            408.0
          ],
          [
            8.06424,
            47.379648,
            406.0
          ],
          [
            8.062514,
            47.37991,
            405.0
          ],
          [
            8.062164,
            47.379977,
            404.0
          ],
          [
            8.061508,
            47.380184,
            404.0
          ],
          [
            8.06132,
            47.380251,
            403.0
          ],
          [
            8.061077,
            47.38039,
            403.0
          ],
          [
            8.060942,
            47.380439,
            403.0
          ],
          [
            8.060638,
            47.380536,
            402.0
          ],
          [
            8.060286,
            47.380634,
            402.0
          ],
          [
            8.060062,
            47.380701,
            402.0
          ],
          [
            8.060026,
            47.380719,
            402.0
          ],
          [
            8.059586,
            47.380859,
            401.0
          ],
          [
            8.05938,
            47.380914,
            401.0
          ],
          [
            8.059217,
            47.38098,
            401.0
          ],
          [
            8.058967,
            47.381077,
            401.0
          ],
          [
            8.058724,
            47.381138,
            400.0
          ],
          [
            8.058688,
            47.381102,
            400.0
          ],
          [
            8.058705,
            47.381065,
            400.0
          ],
          [
            8.058374,
            47.38109,
            400.0
          ],
          [
            8.058445,
            47.381267,
            399.0
          ],
          [
            8.058435,
            47.381406,
            399.0
          ],
          [
            8.058391,
            47.381528,
            399.0
          ],
          [
            8.058409,
            47.381607,
            399.0
          ],
          [
            8.058481,
            47.381875,
            398.0
          ],
          [
            8.058544,
            47.382105,
            398.0
          ],
          [
            8.058732,
            47.382799,
            397.0
          ],
          [
            8.058777,
            47.383,
            397.0
          ],
          [
            8.058975,
            47.383657,
            396.0
          ],
          [
            8.059001,
            47.383693,
            396.0
          ],
          [
            8.05938,
            47.383937,
            395.0
          ],
          [
            8.059712,
            47.384149,
            395.0
          ],
          [
            8.059756,
            47.38418,
            394.0
          ],
          [
            8.05981,
            47.384216,
            394.0
          ],
          [
            8.059837,
            47.384228,
            394.0
          ],
          [
            8.059856,
            47.384246,
            394.0
          ],
          [
            8.05955,
            47.384521,
            394.0
          ],
          [
            8.059343,
            47.384678,
            394.0
          ],
          [
            8.0592,
            47.384769,
            394.0
          ],
          [
            8.05884,
            47.385019,
            394.0
          ],
          [
            8.058248,
            47.38539,
            393.0
          ],
          [
            8.057672,
            47.385773,
            393.0
          ],
          [
            8.057456,
            47.385926,
            392.0
          ],
          [
            8.057304,
            47.386047,
            392.0
          ],
          [
            8.056963,
            47.386339,
            392.0
          ],
          [
            8.056667,
            47.386595,
            392.0
          ],
          [
            8.056487,
            47.386734,
            392.0
          ],
          [
            8.0562,
            47.386959,
            391.0
          ],
          [
            8.056154,
            47.38699,
            391.0
          ],
          [
            8.056091,
            47.387027,
            391.0
          ],
          [
            8.056028,
            47.387069,
            391.0
          ],
          [
            8.055661,
            47.387324,
            391.0
          ],
          [
            8.055454,
            47.387464,
            391.0
          ],
          [
            8.055382,
            47.387513,
            391.0
          ],
          [
            8.055346,
            47.387537,
            391.0
          ],
          [
            8.055202,
            47.387635,
            391.0
          ],
          [
            8.055076,
            47.387719,
            391.0
          ],
          [
            8.055112,
            47.387744,
            391.0
          ],
          [
            8.055103,
            47.387756,
            391.0
          ],
          [
            8.055112,
            47.387762,
            391.0
          ],
          [
            8.055122,
            47.387762,
            391.0
          ],
          [
            8.055139,
            47.387768,
            390.0
          ],
          [
            8.05513,
            47.387798,
            390.0
          ],
          [
            8.05513,
            47.387835,
            390.0
          ],
          [
            8.055085,
            47.387841,
            390.0
          ],
          [
            8.055059,
            47.387859,
            390.0
          ],
          [
            8.055059,
            47.387902,
            390.0
          ],
          [
            8.055085,
            47.387969,
            390.0
          ],
          [
            8.055022,
            47.387975,
            390.0
          ],
          [
            8.054978,
            47.387981,
            390.0
          ],
          [
            8.055068,
            47.388194,
            390.0
          ],
          [
            8.055175,
            47.388431,
            390.0
          ],
          [
            8.055427,
            47.389046,
            390.0
          ],
          [
            8.055661,
            47.389593,
            390.0
          ],
          [
            8.055669,
            47.389617,
            390.0
          ],
          [
            8.055804,
            47.389915,
            389.0
          ],
          [
            8.055858,
            47.390037,
            389.0
          ],
          [
            8.055875,
            47.390098,
            389.0
          ],
          [
            8.055875,
            47.390122,
            389.0
          ],
          [
            8.055858,
            47.390128,
            389.0
          ],
          [
            8.055732,
            47.390146,
            389.0
          ],
          [
            8.055076,
            47.390213,
            389.0
          ],
          [
            8.055005,
            47.390219,
            389.0
          ],
          [
            8.054986,
            47.390219,
            389.0
          ],
          [
            8.05495,
            47.390213,
            389.0
          ],
          [
            8.053261,
            47.390383,
            389.0
          ],
          [
            8.053225,
            47.390401,
            389.0
          ],
          [
            8.053109,
            47.39042,
            389.0
          ],
          [
            8.053064,
            47.390426,
            389.0
          ],
          [
            8.053038,
            47.390401,
            389.0
          ],
          [
            8.052382,
            47.390462,
            389.0
          ],
          [
            8.052328,
            47.390456,
            389.0
          ],
          [
            8.052319,
            47.390511,
            389.0
          ],
          [
            8.0523,
            47.390554,
            389.0
          ],
          [
            8.052292,
            47.390572,
            389.0
          ],
          [
            8.052292,
            47.390627,
            389.0
          ],
          [
            8.052309,
            47.390688,
            390.0
          ],
          [
            8.052309,
            47.390736,
            390.0
          ],
          [
            8.052319,
            47.39076,
            390.0
          ],
          [
            8.052328,
            47.390857,
            388.0
          ],
          [
            8.052336,
            47.390924,
            387.0
          ],
          [
            8.052336,
            47.390967,
            386.0
          ],
          [
            8.052238,
            47.391107,
            384.0
          ],
          [
            8.052166,
            47.391235,
            384.0
          ],
          [
            8.052103,
            47.391223,
            384.0
          ],
          [
            8.052103,
            47.391223,
            385.0
          ]
        ]
      }
    }
  ]
}