{
  "type": "FeatureCollection",
  "features": [
    {
      "type": "Feature",
      "properties": {},
      "geometry": {
        "type": "LineString",
        "coordinates": [
          [
            8.557595,
            47.268264,
            482.0
          ],
          [
            8.557621,
            47.268234,
            482.0
          ],
          [
            8.557684,
            47.26816,
            482.0
          ],
          [
            8.557953,
            47.267879,
            483.0
          ],
          [
            8.558339,
            47.267502,
            483.0
          ],
          [
            8.558375,
            47.267416,
            483.0
          ],
          [
            8.558465,
            47.267343,
            483.0
          ],
          [
            8.558528,
            47.267289,
            483.0
          ],
          [
            8.558698,
            47.267088,
            483.0
          ],
          [
            8.558771,
            47.266923,
            483.0
          ],
          [
            8.55887,
            47.266685,
            484.0
          ],
          [
            8.558878,
            47.266636,
            484.0
          ],
          [
            8.558897,
            47.266544,
            484.0
          ],
          [
            8.558924,
            47.266301,
            487.0
          ],
          [
            8.558897,
            47.2661,
            489.0
          ],
          [
            8.558914,
            47.265996,
            490.0
          ],
          [
            8.558897,
            47.265984,
            490.0
          ],
          [
            8.558726,
            47.26596,
            491.0
          ],
          [
            8.558421,
            47.265917,
            493.0
          ],
          [
            8.558402,
            47.265917,
            493.0
          ],
          [
            8.558358,
            47.265942,
            494.0
          ],
          [
            8.558304,
            47.265966,
            494.0
          ],
          [
            8.558241,
            47.265978,
            494.0
          ],
          [
            8.558124,
            47.265972,
            495.0
          ],
          [
            8.558025,
            47.265966,
            496.0
          ],
          [
            8.558042,
            47.26582,
            497.0
          ],
          [
            8.558071,
            47.265581,
            500.0
          ],
          [
            8.557981,
            47.265539,
            500.0
          ],
          [
            8.557926,
            47.265496,
            502.0
          ],
          [
            8.557863,
            47.265289,
            506.0
          ],
          [
            8.557495,
            47.264881,
            515.0
          ],
          [
            8.557342,
            47.264686,
            519.0
          ],
          [
            8.557235,
            47.264393,
            526.0
          ],
          [
            8.55719,
            47.264246,
            529.0
          ],
          [
            8.557163,
            47.2641,
            532.0
          ],
          [
            8.557172,
            47.264003,
            535.0
          ],
          [
            8.557163,
            47.263936,
            537.0
          ],
          [
            8.557118,
            47.263759,
            541.0
          ],
          [
            8.557046,
            47.263582,
            545.0
          ],
          [
            8.556884,
            47.263265,
            552.0
          ],
          [
            8.556696,
            47.262454,
            570.0
          ],
          [
            8.556633,
            47.262332,
            572.0
          ],
          [
            8.556345,
            47.262107,
            576.0
          ],
          [
            8.556048,
            47.261918,
            580.0
          ],
          [
            8.555897,
            47.261851,
            581.0
          ],
          [
            8.555088,
            47.261698,
            583.0
          ],
          [
            8.554342,
            47.261625,
            586.0
          ],
          [
            8.554046,
            47.261613,
            587.0
          ],
          [
            8.553318,
            47.261607,
            589.0
          ],
          [
            8.553111,
            47.261582,
            590.0
          ],
          [
            8.552922,
            47.26154,
            591.0
          ],
          [
            8.552205,
            47.261369,
            596.0
          ],
          [
            8.55206,
            47.261351,
            596.0
          ],
          [
            8.551845,
            47.261138,
            599.0
          ],
          [
            8.551782,
            47.261058,
            600.0
          ],
          [
            8.551773,
            47.260955,
            600.0
          ],
          [
            8.551809,
            47.260851,
            600.0
          ],
          [
            8.551907,
            47.260729,
            600.0
          ],
          [
            8.552177,
            47.260387,
            602.0
          ],
          [
            8.55224,
            47.260284,
            602.0
          ],
          [
            8.552249,
            47.260162,
            602.0
          ],
          [
            8.552222,
            47.260046,
            603.0
          ],
          [
            8.552142,
            47.259949,
            603.0
          ],
          [
            8.551997,
            47.259833,
            604.0
          ],
          [
            8.551755,
            47.259693,
            604.0
          ],
          [
            8.551557,
            47.259577,
            605.0
          ],
          [
            8.551476,
            47.259492,
            605.0
          ],
          [
            8.551467,
            47.259412,
            606.0
          ],
          [
            8.551503,
            47.259327,
            606.0
          ],
          [
            8.551629,
            47.259235,
            606.0
          ],
          [
            8.551836,
            47.259131,
            607.0
          ],
          [
            8.551962,
            47.259046,
            607.0
          ],
          [
            8.552033,
            47.258973,
            607.0
          ],
          [
            8.552096,
            47.258875,
            608.0
          ],
          [
            8.552132,
            47.258772,
            608.0
          ],
          [
            8.552168,
            47.258437,
            609.0
          ],
          [
            8.552231,
            47.258254,
            610.0
          ],
          [
            8.552392,
            47.258077,
            611.0
          ],
          [
            8.552528,
            47.257924,
            611.0
          ],
          [
            8.552752,
            47.257686,
            612.0
          ],
          [
            8.552815,
            47.257607,
            612.0
          ],
          [
            8.55286,
            47.257485,
            613.0
          ],
          [
            8.552752,
            47.2574,
            615.0
          ],
          [
            8.552528,
            47.25723,
            618.0
          ],
          [
            8.552366,
            47.257126,
            621.0
          ],
          [
            8.552087,
            47.25698,
            625.0
          ],
          [
            8.551818,
            47.256888,
            628.0
          ],
          [
            8.551692,
            47.256827,
            630.0
          ],
          [
            8.551549,
            47.256736,
            631.0
          ],
          [
            8.551216,
            47.25643,
            635.0
          ],
          [
            8.550937,
            47.256144,
            638.0
          ],
          [
            8.550758,
            47.256022,
            639.0
          ],
          [
            8.550713,
            47.255943,
            640.0
          ],
          [
            8.550704,
            47.255791,
            641.0
          ],
          [
            8.550704,
            47.255547,
            644.0
          ],
          [
            8.550677,
            47.255498,
            644.0
          ],
          [
            8.550614,
            47.255437,
            645.0
          ],
          [
            8.550497,
            47.255315,
            646.0
          ],
          [
            8.550461,
            47.255199,
            648.0
          ],
          [
            8.550471,
            47.255156,
            648.0
          ],
          [
            8.550524,
            47.255132,
            648.0
          ],
          [
            8.550668,
            47.255138,
            649.0
          ],
          [
            8.550794,
            47.255138,
            650.0
          ],
          [
            8.550901,
            47.255095,
            651.0
          ],
          [
            8.551,
            47.25501,
            653.0
          ],
          [
            8.551027,
            47.254925,
            654.0
          ],
          [
            8.550991,
            47.25462,
            659.0
          ],
          [
            8.550983,
            47.254486,
            660.0
          ],
          [
            8.551027,
            47.254443,
            661.0
          ],
          [
            8.551108,
            47.254431,
            662.0
          ],
          [
            8.551224,
            47.254437,
            663.0
          ],
          [
            8.551369,
            47.254443,
            665.0
          ],
          [
            8.551476,
            47.254413,
            666.0
          ],
          [
            8.551549,
            47.254352,
            667.0
          ],
          [
            8.551549,
            47.254236,
            669.0
          ],
          [
            8.551494,
            47.254145,
            670.0
          ],
          [
            8.551413,
            47.253937,
            673.0
          ],
          [
            8.551377,
            47.25376,
            675.0
          ],
          [
            8.551377,
            47.253723,
            676.0
          ],
          [
            8.551387,
            47.253687,
            676.0
          ],
          [
            8.551423,
            47.253662,
            677.0
          ],
          [
            8.551476,
            47.253644,
            677.0
          ],
          [
            8.551666,
            47.253601,
            679.0
          ],
          [
            8.551782,
            47.25351,
            681.0
          ],
          [
            8.55188,
            47.253382,
            684.0
          ],
          [
            8.551962,
            47.253266,
            687.0
          ],
          [
            8.551979,
            47.253217,
            688.0
          ],
          [
            8.551979,
            47.253169,
            689.0
          ],
          [
            8.55189,
            47.252974,
            692.0
          ],
          [
            8.55189,
            47.252913,
            693.0
          ],
          [
            8.551935,
            47.252852,
            694.0
          ],
          [
            8.552006,
            47.252797,
            695.0
          ],
          [
            8.552142,
            47.252736,
            697.0
          ],
          [
            8.552276,
            47.252651,
            699.0
          ],
          [
            8.552366,
            47.252535,
            702.0
          ],
          [
            8.552348,
            47.252474,
            703.0
          ],
          [
            8.552303,
            47.252437,
            704.0
          ],
          [
            8.552222,
            47.2524,
            705.0
          ],
          [
            8.551979,
            47.252382,
            709.0
          ],
          [
            8.551872,
            47.252345,
            710.0
          ],
          [
            8.551836,
            47.252272,
            712.0
          ],
          [
            8.551845,
            47.252168,
            713.0
          ],
          [
            8.551863,
            47.252004,
            716.0
          ],
          [
            8.551845,
            47.251986,
            717.0
          ],
          [
            8.551818,
            47.25198,
            717.0
          ],
          [
            8.551494,
            47.252071,
            721.0
          ],
          [
            8.551314,
            47.252095,
            723.0
          ],
          [
            8.551243,
            47.252101,
            724.0
          ],
          [
            8.551153,
            47.252083,
            725.0
          ],
          [
            8.550947,
            47.251986,
            728.0
          ],
          [
            8.550811,
            47.251967,
            729.0
          ],
          [
            8.550704,
            47.251998,
            731.0
          ],
          [
            8.550578,
            47.252047,
            732.0
          ],
          [
            8.550488,
            47.252108,
            734.0
          ],
          [
            8.550417,
            47.252187,
            735.0
          ],
          [
            8.550362,
            47.25229,
            737.0
          ],
          [
            8.550237,
            47.2524,
            739.0
          ],
          [
            8.550031,
            47.252529,
            742.0
          ],
          [
            8.549995,
            47.25259,
            743.0
          ],
          [
            8.549968,
            47.252663,
            745.0
          ],
          [
            8.549851,
            47.252736,
            747.0
          ],
          [
            8.549671,
            47.252785,
            749.0
          ],
          [
            8.549429,
            47.25284,
            752.0
          ],
          [
            8.549285,
            47.252858,
            753.0
          ],
          [
            8.549105,
            47.252834,
            755.0
          ],
          [
            8.548943,
            47.252785,
            757.0
          ],
          [
            8.54914,
            47.252675,
            760.0
          ],
          [
            8.549293,
            47.252553,
            763.0
          ],
          [
            8.549375,
            47.252461,
            764.0
          ],
          [
            8.54941,
            47.252382,
            766.0
          ],
          [
            8.549429,
            47.252211,
            769.0
          ],
          [
            8.549402,
            47.252065,
            771.0
          ],
          [
            8.549249,
            47.251821,
            776.0
          ],
          [
            8.549249,
            47.251657,
            778.0
          ],
          [
            8.549195,
            47.251468,
            781.0
          ],
          [
            8.549239,
            47.251364,
            783.0
          ],
          [
            8.549213,
            47.251273,
            785.0
          ],
          [
            8.549195,
            47.25123,
            785.0
          ],
          [
            8.549159,
            47.251206,
            786.0
          ],
          [
            8.549096,
            47.251212,
            787.0
          ],
          [
            8.549042,
            47.251248,
            787.0
          ],
          [
            8.548989,
            47.251334,
            789.0
          ],
          [
            8.548934,
            47.251382,
            790.0
          ],
          [
            8.548844,
            47.251413,
            791.0
          ],
          [
            8.548763,
            47.251425,
            792.0
          ],
          [
            8.548674,
            47.251419,
            793.0
          ],
          [
            8.548547,
            47.251395,
            795.0
          ],
          [
            8.548251,
            47.251273,
            799.0
          ],
          [
            8.547918,
            47.251108,
            802.0
          ],
          [
            8.547821,
            47.250967,
            803.0
          ],
          [
            8.547838,
            47.250912,
            804.0
          ],
          [
            8.547973,
            47.250754,
            805.0
          ],
          [
            8.548037,
            47.250595,
            806.0
          ],
          [
            8.548125,
            47.250114,
            810.0
          ],
          [
            8.54809,
            47.250029,
            811.0
          ],
          [
            8.548008,
            47.249974,
            812.0
          ],
          [
            8.547937,
            47.249943,
            813.0
          ],
          [
            8.547865,
            47.249925,
            814.0
          ],
          [
            8.547802,
            47.249919,
            815.0
          ],
          [
            8.547532,
            47.249974,
            818.0
          ],
          [
            8.547416,
            47.25001,
            819.0
          ],
          [
            8.547381,
            47.250016,
            819.0
          ],
          [
            8.547335,
            47.25001,
            820.0
          ],
          [
            8.547308,
            47.249992,
            820.0
          ],
          [
            8.547245,
            47.249931,
            822.0
          ],
          [
            8.547218,
            47.249925,
            823.0
          ],
          [
            8.547192,
            47.249931,
            823.0
          ],
          [
            8.547155,
            47.249956,
            824.0
          ],
          [
            8.547129,
            47.249968,
            825.0
          ],
          [
            8.547111,
            47.249962,
            825.0
          ],
          [
            8.547102,
            47.249937,
            826.0
          ],
          [
            8.547111,
            47.249907,
            827.0
          ],
          [
            8.547092,
            47.249888,
            827.0
          ],
          [
            8.547056,
            47.249888,
            828.0
          ],
          [
            8.546985,
            47.249901,
            829.0
          ],
          [
            8.546931,
            47.249919,
            831.0
          ],
          [
            8.546886,
            47.249901,
            832.0
          ],
          [
            8.546913,
            47.249834,
            834.0
          ],
          [
            8.546905,
            47.249821,
            834.0
          ],
          [
            8.546876,
            47.249828,
            835.0
          ],
          [
            8.546823,
            47.249864,
            836.0
          ],
          [
            8.546815,
            47.249864,
            836.0
          ],
          [
            8.546796,
            47.249858,
            837.0
          ],
          [
            8.546779,
            47.249834,
            837.0
          ],
          [
            8.546779,
            47.249767,
            839.0
          ],
          [
            8.546769,
            47.249742,
            840.0
          ],
          [
            8.54676,
            47.24973,
            840.0
          ],
          [
            8.546725,
            47.249724,
            841.0
          ],
          [
            8.546616,
            47.249785,
            843.0
          ],
          [
            8.546563,
            47.249901,
            847.0
          ],
          [
            8.5465,
            47.249937,
            848.0
          ],
          [
            8.5464,
            47.249925,
            850.0
          ],
          [
            8.546365,
            47.249864,
            852.0
          ],
          [
            8.546374,
            47.249773,
            854.0
          ],
          [
            8.546339,
            47.249736,
            856.0
          ],
          [
            8.546302,
            47.249736,
            857.0
          ],
          [
            8.54623,
            47.249791,
            859.0
          ],
          [
            8.546033,
            47.249876,
            862.0
          ],
          [
            8.545997,
            47.249913,
            863.0
          ],
          [
            8.545979,
            47.249956,
            864.0
          ],
          [
            8.545952,
            47.250041,
            866.0
          ],
          [
            8.54596,
            47.25009,
            867.0
          ],
          [
            8.545934,
            47.250102,
            868.0
          ],
          [
            8.545897,
            47.250102,
            868.0
          ],
          [
            8.545871,
            47.250114,
            869.0
          ],
          [
            8.545834,
            47.250157,
            870.0
          ],
          [
            8.545683,
            47.250236,
            872.0
          ],
          [
            8.545565,
            47.250352,
            875.0
          ],
          [
            8.545547,
            47.250413,
            876.0
          ],
          [
            8.545503,
            47.250443,
            877.0
          ],
          [
            8.545475,
            47.250455,
            878.0
          ],
          [
            8.545386,
            47.250461,
            879.0
          ],
          [
            8.545268,
            47.250492,
            881.0
          ],
          [
            8.545179,
            47.250553,
            883.0
          ],
          [
            8.545134,
            47.250644,
            885.0
          ],
          [
            8.545117,
            47.250705,
            886.0
          ],
          [
            8.545117,
            47.250742,
            887.0
          ],
          [
            8.545108,
            47.250766,
            888.0
          ],
          [
            8.545089,
            47.250784,
            888.0
          ],
          [
            8.545054,
            47.250796,
            889.0
          ],
          [
            8.545018,
            47.250803,
            890.0
          ],
          [
            8.544991,
            47.250803,
            890.0
          ],
          [
            8.544937,
            47.250784,
            891.0
          ],
          [
            8.544882,
            47.250766,
            892.0
          ],
          [
            8.544829,
            47.250735,
            894.0
          ],
          [
            8.544792,
            47.250668,
            896.0
          ],
          [
            8.544792,
            47.250541,
            899.0
          ],
          [
            8.544802,
            47.250486,
            900.0
          ],
          [
            8.544784,
            47.250473,
            900.0
          ],
          [
            8.544838,
            47.250455,
            900.0
          ],
          [
            8.545062,
            47.250333,
            897.0
          ],
          [
            8.54526,
            47.250278,
            896.0
          ],
          [
            8.545467,
            47.250077,
            893.0
          ],
          [
            8.545565,
            47.249809,
            890.0
          ],
          [
            8.545863,
            47.249388,
            890.0
          ],
          [
            8.545934,
            47.249321,
            890.0
          ],
          [
            8.546077,
            47.249235,
            890.0
          ],
          [
            8.546392,
            47.248992,
            890.0
          ],
          [
            8.546643,
            47.248882,
            890.0
          ],
          [
            8.546832,
            47.248742,
            890.0
          ],
          [
            8.546913,
            47.24865,
            890.0
          ],
          [
            8.547003,
            47.248425,
            890.0
          ],
          [
            8.547165,
            47.248163,
            890.0
          ],
          [
            8.547281,
            47.248028,
            890.0
          ],
          [
            8.547408,
            47.247931,
            890.0
          ],
          [
            8.547892,
            47.247632,
            890.0
          ],
          [
            8.548037,
            47.247577,
            890.0
          ],
          [
            8.54827,
            47.247504,
            890.0
          ],
          [
            8.548395,
            47.247437,
            890.0
          ],
          [
            8.548719,
            47.247205,
            890.0
          ],
          [
            8.549195,
            47.246943,
            890.0
          ],
          [
            8.549446,
            47.246821,
            890.0
          ],
          [
            8.549958,
            47.246626,
            890.0
          ],
          [
            8.550578,
            47.246266,
            890.0
          ],
          [
            8.550947,
            47.246119,
            890.0
          ],
          [
            8.551018,
            47.246101,
            890.0
          ],
          [
            8.551521,
            47.246058,
            890.0
          ],
          [
            8.551692,
            47.245979,
            890.0
          ],
          [
            8.551826,
            47.245882,
            890.0
          ],
          [
            8.552249,
            47.245388,
            890.0
          ],
          [
            8.552626,
            47.245077,
            890.0
          ],
          [
            8.552779,
            47.244998,
            890.0
          ],
          [
            8.553031,
            47.244802,
            890.0
          ],
          [
            8.553228,
            47.24457,
            890.0
          ],
          [
            8.553247,
            47.244485,
            890.0
          ],
          [
            8.553308,
            47.244388,
            890.0
          ],
          [
            8.553381,
            47.244321,
            890.0
          ],
          [
            8.553426,
            47.244284,
            890.0
          ],
          [
            8.553434,
            47.244302,
            890.0
          ],
          [
            8.553426,
            47.244327,
            890.0
          ],
          [
            8.553408,
            47.244406,
            890.0
          ],
          [
            8.553426,
            47.244449,
            890.0
          ],
          [
            8.553515,
            47.24443,
            888.0
          ],
          [
            8.553578,
            47.244357,
            885.0
          ],
          [
            8.553704,
            47.244284,
            882.0
          ],
          [
            8.553803,
            47.244193,
            879.0
          ],
          [
            8.554027,
            47.24401,
            875.0
          ],
          [
            8.554226,
            47.243906,
            871.0
          ],
          [
            8.554522,
            47.243809,
            868.0
          ],
          [
            8.554413,
            47.243656,
            866.0
          ],
          [
            8.554656,
            47.24354,
            864.0
          ],
          [
            8.554855,
            47.243461,
            862.0
          ],
          [
            8.554908,
            47.243394,
            861.0
          ],
          [
            8.555169,
            47.243174,
            857.0
          ],
          [
            8.555528,
            47.242942,
            852.0
          ],
          [
            8.555968,
            47.242741,
            848.0
          ],
          [
            8.55639,
            47.242662,
            844.0
          ],
          [
            8.55648,
            47.242631,
            844.0
          ],
          [
            8.556606,
            47.242546,
            842.0
          ],
          [
            8.556893,
            47.242138,
            838.0
          ],
          [
            8.556974,
            47.24193,
            836.0
          ],
          [
            8.557,
            47.241851,
            835.0
          ],
          [
            8.556974,
            47.241772,
            834.0
          ],
          [
            8.556911,
            47.241692,
            833.0
          ],
          [
            8.556373,
            47.241259,
            828.0
          ],
          [
            8.55595,
            47.240838,
            823.0
          ],
          [
            8.555851,
            47.240771,
            822.0
          ],
          [
            8.555708,
            47.240741,
            821.0
          ],
          [
            8.555627,
            47.24071,
            820.0
          ],
          [
            8.555545,
            47.240674,
            819.0
          ],
          [
            8.555528,
            47.240655,
            819.0
          ],
          [
            8.555375,
            47.240552,
            817.0
          ],
          [
            8.555285,
            47.240564,
            817.0
          ],
          [
            8.555159,
            47.24057,
            816.0
          ],
          [
            8.554899,
            47.24057,
            815.0
          ],
          [
            8.554486,
            47.240564,
            813.0
          ],
          [
            8.5541,
            47.240546,
            811.0
          ],
          [
            8.553956,
            47.240527,
            810.0
          ],
          [
            8.55383,
            47.240491,
            809.0
          ],
          [
            8.553597,
            47.240418,
            807.0
          ],
          [
            8.553371,
            47.240351,
            805.0
          ],
          [
            8.553345,
            47.240235,
            803.0
          ],
          [
            8.553337,
            47.240107,
            800.0
          ],
          [
            8.553327,
            47.239966,
            798.0
          ],
          [
            8.553282,
            47.239899,
            797.0
          ],
          [
            8.553219,
            47.23985,
            796.0
          ],
          [
            8.552788,
            47.239698,
            792.0
          ],
          [
            8.552123,
            47.239527,
            784.0
          ],
          [
            8.551899,
            47.239466,
            781.0
          ],
          [
            8.551935,
            47.239301,
            777.0
          ],
          [
            8.552087,
            47.239112,
            772.0
          ],
          [
            8.55215,
            47.239051,
            770.0
          ],
          [
            8.55224,
            47.238972,
            768.0
          ],
          [
            8.552375,
            47.238893,
            765.0
          ],
          [
            8.552492,
            47.23882,
            762.0
          ],
          [
            8.552671,
            47.238582,
            756.0
          ],
          [
            8.55286,
            47.238368,
            752.0
          ],
          [
            8.553012,
            47.238161,
            748.0
          ],
          [
            8.552869,
            47.238142,
            746.0
          ],
          [
            8.552716,
            47.238136,
            745.0
          ],
          [
            8.552438,
            47.238155,
            743.0
          ],
          [
            8.552159,
            47.238173,
            741.0
          ],
          [
            8.552096,
            47.238173,
            741.0
          ],
          [
            8.552052,
            47.238142,
            740.0
          ],
          [
            8.551989,
            47.238112,
            740.0
          ],
          [
            8.551979,
            47.238063,
            740.0
          ],
          [
            8.552033,
            47.237984,
            739.0
          ],
          [
            8.552392,
            47.237856,
            737.0
          ],
          [
            8.552985,
            47.237526,
            733.0
          ],
          [
            8.553102,
            47.237435,
            733.0
          ],
          [
            8.553129,
            47.237319,
            732.0
          ],
          [
            8.553129,
            47.237033,
            730.0
          ],
          [
            8.553713,
            47.23638,
            721.0
          ],
          [
            8.554046,
            47.236069,
            717.0
          ],
          [
            8.554503,
            47.235721,
            711.0
          ],
          [
            8.554845,
            47.235435,
            707.0
          ],
          [
            8.554882,
            47.235398,
            706.0
          ],
          [
            8.555258,
            47.234965,
            700.0
          ],
          [
            8.555744,
            47.234629,
            700.0
          ],
          [
            8.556138,
            47.23441,
            700.0
          ],
          [
            8.556553,
            47.234233,
            700.0
          ],
          [
            8.556723,
            47.234062,
            700.0
          ],
          [
            8.557029,
            47.233714,
            699.0
          ],
          [
            8.557306,
            47.233446,
            695.0
          ],
          [
            8.557325,
            47.233367,
            694.0
          ],
          [
            8.557216,
            47.233306,
            693.0
          ],
          [
            8.5571,
            47.233318,
            692.0
          ],
          [
            8.556866,
            47.233428,
            690.0
          ],
          [
            8.556723,
            47.233477,
            689.0
          ],
          [
            8.555887,
            47.233623,
            683.0
          ],
          [
            8.555671,
            47.23366,
            682.0
          ],
          [
            8.555537,
            47.23372,
            680.0
          ],
          [
            8.555295,
            47.233922,
            678.0
          ],
          [
            8.555195,
            47.233983,
            678.0
          ],
          [
            8.555088,
            47.234031,
            677.0
          ],
          [
            8.554989,
            47.234025,
            677.0
          ],
          [
            8.554908,
            47.233964,
            676.0
          ],
          [
            8.55489,
            47.233879,
            675.0
          ],
          [
            8.555115,
            47.233117,
            670.0
          ],
          [
            8.555159,
            47.233032,
            669.0
          ],
          [
            8.555169,
            47.233013,
            669.0
          ],
          [
            8.555564,
            47.232751,
            666.0
          ],
          [
            8.555968,
            47.232482,
            664.0
          ],
          [
            8.555779,
            47.232311,
            662.0
          ],
          [
            8.555564,
            47.232153,
            661.0
          ],
          [
            8.555474,
            47.232086,
            660.0
          ],
          [
            8.555312,
            47.231994,
            660.0
          ],
          [
            8.555123,
            47.231897,
            660.0
          ],
          [
            8.554253,
            47.231445,
            659.0
          ],
          [
            8.554199,
            47.231397,
            659.0
          ],
          [
            8.554163,
            47.231317,
            659.0
          ],
          [
            8.554153,
            47.231232,
            659.0
          ],
          [
            8.5541,
            47.231281,
            659.0
          ],
          [
            8.554054,
            47.231256,
            660.0
          ],
          [
            8.553974,
            47.231134,
            664.0
          ],
          [
            8.553911,
            47.231043,
            667.0
          ],
          [
            8.553893,
            47.230921,
            670.0
          ],
          [
            8.553794,
            47.23086,
            670.0
          ],
          [
            8.553776,
            47.230848,
            670.0
          ],
          [
            8.552878,
            47.23039,
            668.0
          ],
          [
            8.553021,
            47.230012,
            666.0
          ],
          [
            8.553624,
            47.229457,
            663.0
          ],
          [
            8.55366,
            47.229414,
            663.0
          ],
          [
            8.553695,
            47.229359,
            662.0
          ],
          [
            8.553713,
            47.229286,
            662.0
          ],
          [
            8.553687,
            47.229182,
            661.0
          ],
          [
            8.553524,
            47.229158,
            661.0
          ],
          [
            8.553327,
            47.22914,
            660.0
          ],
          [
            8.553165,
            47.229115,
            660.0
          ],
          [
            8.553031,
            47.229079,
            658.0
          ],
          [
            8.552572,
            47.228951,
            653.0
          ],
          [
            8.552087,
            47.228835,
            648.0
          ],
          [
            8.551557,
            47.2287,
            641.0
          ],
          [
            8.551333,
            47.228645,
            639.0
          ],
          [
            8.551126,
            47.22856,
            636.0
          ],
          [
            8.550893,
            47.228395,
            633.0
          ],
          [
            8.550632,
            47.228206,
            629.0
          ],
          [
            8.550614,
            47.228188,
            629.0
          ],
          [
            8.550264,
            47.227919,
            627.0
          ],
          [
            8.550245,
            47.227907,
            627.0
          ],
          [
            8.550121,
            47.227791,
            627.0
          ],
          [
            8.550102,
            47.227773,
            626.0
          ],
          [
            8.550012,
            47.227657,
            626.0
          ],
          [
            8.549851,
            47.227602,
            625.0
          ],
          [
            8.549662,
            47.227572,
            622.0
          ],
          [
            8.549033,
            47.227456,
            615.0
          ],
          [
            8.548979,
            47.227529,
            614.0
          ],
          [
            8.548934,
            47.227511,
            613.0
          ],
          [
            8.5488,
            47.227492,
            612.0
          ],
          [
            8.548691,
            47.227505,
            611.0
          ],
          [
            8.548574,
            47.227517,
            610.0
          ],
          [
            8.548521,
            47.227468,
            610.0
          ],
          [
            8.548063,
            47.227127,
            610.0
          ],
          [
            8.547847,
            47.226974,
            610.0
          ],
          [
            8.547685,
            47.226846,
            610.0
          ],
          [
            8.547578,
            47.22673,
            610.0
          ],
          [
            8.547515,
            47.226645,
            610.0
          ],
          [
            8.547461,
            47.226565,
            610.0
          ],
          [
            8.547434,
            47.226461,
            610.0
          ],
          [
            8.547505,
            47.226272,
            610.0
          ],
          [
            8.547524,
            47.226187,
            610.0
          ],
          [
            8.547505,
            47.226052,
            610.0
          ],
          [
            8.547318,
            47.225766,
            610.0
          ],
          [
            8.547083,
            47.225437,
            610.0
          ],
          [
            8.546966,
            47.225187,
            610.0
          ],
          [
            8.546886,
            47.225004,
            610.0
          ],
          [
            8.54685,
            47.224882,
            610.0
          ],
          [
            8.546832,
            47.224662,
            610.0
          ],
          [
            8.546842,
            47.224497,
            610.0
          ],
          [
            8.546832,
            47.224442,
            610.0
          ],
          [
            8.546949,
            47.22443,
            610.0
          ],
          [
            8.546949,
            47.224387,
            610.0
          ],
          [
            8.546994,
            47.224302,
            610.0
          ],
          [
            8.547039,
            47.224222,
            610.0
          ],
          [
            8.547129,
            47.224033,
            610.0
          ],
          [
            8.547209,
            47.223826,
            610.0
          ],
          [
            8.547281,
            47.223502,
            608.0
          ],
          [
            8.547291,
            47.223374,
            606.0
          ],
          [
            8.547263,
            47.223088,
            603.0
          ],
          [
            8.547263,
            47.222948,
            601.0
          ],
          [
            8.547291,
            47.222655,
            599.0
          ],
          [
            8.547299,
            47.222441,
            598.0
          ],
          [
            8.547299,
            47.222209,
            596.0
          ],
          [
            8.547281,
            47.221977,
            595.0
          ],
          [
            8.547272,
            47.221941,
            594.0
          ],
          [
            8.547245,
            47.221819,
            594.0
          ],
          [
            8.547119,
            47.221422,
            591.0
          ],
          [
            8.547092,
            47.221318,
            590.0
          ],
          [
            8.547039,
            47.221105,
            589.0
          ],
          [
            8.547003,
            47.220916,
            588.0
          ],
          [
            8.546994,
            47.2208,
            587.0
          ],
          [
            8.546994,
            47.220702,
            586.0
          ],
          [
            8.547021,
            47.220416,
            584.0
          ],
          [
            8.547012,
            47.220324,
            584.0
          ],
          [
            8.546994,
            47.22022,
            583.0
          ],
          [
            8.546976,
            47.220123,
            582.0
          ],
          [
            8.546966,
            47.22008,
            582.0
          ],
          [
            8.546958,
            47.219818,
            580.0
          ],
          [
            8.546949,
            47.219781,
            580.0
          ],
          [
            8.546931,
            47.219739,
            579.0
          ],
          [
            8.546823,
            47.219696,
            578.0
          ],
          [
            8.546787,
            47.219653,
            577.0
          ],
          [
            8.546769,
            47.219568,
            576.0
          ],
          [
            8.546787,
            47.219482,
            575.0
          ],
          [
            8.546842,
            47.219372,
            573.0
          ],
          [
            8.546922,
            47.219293,
            571.0
          ],
          [
            8.547155,
            47.219134,
            568.0
          ],
          [
            8.547461,
            47.218896,
            563.0
          ],
          [
            8.547928,
            47.218445,
            556.0
          ],
          [
            8.547947,
            47.218414,
            555.0
          ],
          [
            8.54791,
            47.218384,
            555.0
          ],
          [
            8.547704,
            47.218237,
            555.0
          ],
          [
            8.547668,
            47.218189,
            555.0
          ],
          [
            8.547389,
            47.217975,
            553.0
          ],
          [
            8.546985,
            47.217652,
            551.0
          ],
          [
            8.546868,
            47.217475,
            549.0
          ],
          [
            8.546815,
            47.217103,
            545.0
          ],
          [
            8.546616,
            47.216852,
            541.0
          ],
          [
            8.546553,
            47.216724,
            540.0
          ],
          [
            8.546526,
            47.216535,
            537.0
          ],
          [
            8.546652,
            47.216071,
            532.0
          ],
          [
            8.546553,
            47.2159,
            530.0
          ],
          [
            8.546374,
            47.215534,
            528.0
          ],
          [
            8.54614,
            47.215181,
            526.0
          ],
          [
            8.546823,
            47.215004,
            523.0
          ],
          [
            8.547083,
            47.214985,
            523.0
          ],
          [
            8.547353,
            47.21504,
            522.0
          ],
          [
            8.547884,
            47.215187,
            519.0
          ],
          [
            8.548297,
            47.215309,
            516.0
          ],
          [
            8.548494,
            47.215339,
            515.0
          ],
          [
            8.548647,
            47.215321,
            514.0
          ],
          [
            8.548737,
            47.215272,
            514.0
          ],
          [
            8.548871,
            47.215199,
            512.0
          ],
          [
            8.548817,
            47.215077,
            511.0
          ],
          [
            8.548557,
            47.214467,
            504.0
          ],
          [
            8.548278,
            47.213801,
            496.0
          ],
          [
            8.547991,
            47.213148,
            490.0
          ],
          [
            8.547595,
            47.212788,
            486.0
          ],
          [
            8.547146,
            47.212471,
            483.0
          ],
          [
            8.546716,
            47.212239,
            480.0
          ],
          [
            8.546446,
            47.21202,
            478.0
          ],
          [
            8.545664,
            47.211257,
            473.0
          ],
          [
            8.544829,
            47.210463,
            467.0
          ],
          [
            8.544137,
            47.209981,
            464.0
          ],
          [
            8.543509,
            47.209481,
            460.0
          ],
          [
            8.543446,
            47.209426,
            460.0
          ],
          [
            8.543284,
            47.208999,
            460.0
          ],
          [
            8.543239,
            47.208914,
            460.0
          ],
          [
            8.54314,
            47.208834,
            460.0
          ],
          [
            8.543086,
            47.208798,
            460.0
          ],
          [
            8.54305,
            47.208767,
            460.0
          ],
          [
            8.542736,
            47.208554,
            460.0
          ],
          [
            8.542385,
            47.208163,
            460.0
          ],
          [
            8.542322,
            47.208133,
            460.0
          ],
          [
            8.542251,
            47.208108,
            460.0
          ],
          [
            8.542232,
            47.20806,
            460.0
          ],
          [
            8.542161,
            47.207937,
            460.0
          ],
          [
            8.542053,
            47.207595,
            459.0
          ],
          [
            8.542018,
            47.20737,
            459.0
          ],
          [
            8.542044,
            47.207192,
            459.0
          ],
          [
            8.542521,
            47.206442,
            457.0
          ],
          [
            8.542565,
            47.206356,
            457.0
          ],
          [
            8.542618,
            47.206247,
            457.0
          ],
          [
            8.542377,
            47.206179,
            456.0
          ],
          [
            8.542197,
            47.206076,
            456.0
          ],
          [
            8.541873,
            47.205746,
            455.0
          ],
          [
            8.540643,
            47.204953,
            451.0
          ],
          [
            8.540274,
            47.204733,
            450.0
          ],
          [
            8.540005,
            47.204642,
            450.0
          ],
          [
            8.539169,
            47.204465,
            450.0
          ],
          [
            8.538999,
            47.204428,
            450.0
          ],
          [
            8.538792,
            47.204373,
            450.0
          ],
          [
            8.53863,
            47.204276,
            450.0
          ],
          [
            8.538505,
            47.204154,
            450.0
          ],
          [
            8.538389,
            47.203952,
            450.0
          ],
          [
            8.538253,
            47.203848,
            450.0
          ],
          [
            8.538064,
            47.203781,
            450.0
          ],
          [
            8.53784,
            47.203738,
            450.0
          ],
          [
            8.537318,
            47.203714,
            449.0
          ],
          [
            8.536968,
            47.203683,
            449.0
          ],
          [
            8.536825,
            47.203665,
            449.0
          ],
          [
            8.536708,
            47.203622,
            449.0
          ],
          [
            8.536555,
            47.203543,
            449.0
          ],
          [
            8.536429,
            47.203445,
            449.0
          ],
          [
            8.536305,
            47.203317,
            449.0
          ],
          [
            8.536125,
            47.203042,
            449.0
          ],
          [
            8.536035,
            47.202939,
            449.0
          ],
          [
            8.535926,
            47.20281,
            449.0
          ],
          [
            8.535873,
            47.202762,
            449.0
          ],
          [
            8.535639,
            47.202878,
            449.0
          ],
          [
            8.535199,
            47.203006,
            449.0
          ],
          [
            8.534534,
            47.20325,
            448.0
          ],
          [
            8.533743,
            47.203683,
            448.0
          ],
          [
            8.533465,
            47.203812,
            447.0
          ],
          [
            8.533357,
            47.203842,
            447.0
          ],
          [
            8.533223,
            47.203848,
            447.0
          ],
          [
            8.532486,
            47.203806,
            447.0
          ],
          [
            8.532234,
            47.203818,
            447.0
          ],
          [
            8.531848,
            47.203854,
            446.0
          ],
          [
            8.531731,
            47.203848,
            446.0
          ],
          [
            8.531632,
            47.203824,
            446.0
          ],
          [
            8.531507,
            47.203818,
            446.0
          ],
          [
            8.531093,
            47.203732,
            446.0
          ],
          [
            8.530976,
            47.20372,
            446.0
          ],
          [
            8.530779,
            47.203769,
            446.0
          ],
          [
            8.530519,
            47.203897,
            446.0
          ],
          [
            8.530321,
            47.204068,
            445.0
          ],
          [
            8.530114,
            47.204178,
            445.0
          ],
          [
            8.530097,
            47.204184,
            445.0
          ],
          [
            8.529873,
            47.204239,
            445.0
          ],
          [
            8.529072,
            47.204306,
            445.0
          ],
          [
            8.528408,
            47.20438,
            444.0
          ],
          [
            8.528147,
            47.204355,
            444.0
          ],
          [
            8.527743,
            47.204264,
            444.0
          ],
          [
            8.527429,
            47.204178,
            444.0
          ],
          [
            8.526854,
            47.204044,
            443.0
          ],
          [
            8.526207,
            47.203983,
            443.0
          ],
          [
            8.526054,
            47.203952,
            443.0
          ],
          [
            8.526018,
            47.203769,
            443.0
          ],
          [
            8.526054,
            47.203512,
            444.0
          ],
          [
            8.526045,
            47.203183,
            444.0
          ],
          [
            8.526036,
            47.202932,
            444.0
          ],
          [
            8.526091,
            47.202548,
            445.0
          ],
          [
            8.526207,
            47.202225,
            445.0
          ],
          [
            8.526594,
            47.201541,
            446.0
          ],
          [
            8.526628,
            47.201492,
            446.0
          ],
          [
            8.526628,
            47.201492,
            446.0
          ],
          [
            8.526781,
            47.201303,
            446.0
          ],
          [
            8.527033,
            47.200998,
            447.0
          ],
          [
            8.52742,
            47.200461,
            447.0
          ],
          [
            8.52751,
            47.200309,
            447.0
          ],
          [
            8.527725,
            47.199936,
            447.0
          ],
          [
            8.527797,
            47.199759,
            447.0
          ],
          [
            8.527842,
            47.199558,
            447.0
          ],
          [
            8.52785,
            47.199387,
            447.0
          ],
          [
            8.527833,
            47.199124,
            447.0
          ],
          [
            8.527995,
            47.1991,
            447.0
          ],
          [
            8.528139,
            47.199069,
            447.0
          ],
          [
            8.528282,
            47.19902,
            447.0
          ],
          [
            8.528416,
            47.198959,
            447.0
          ],
          [
            8.528489,
            47.198923,
            447.0
          ],
          [
            8.528821,
            47.198739,
            447.0
          ],
          [
            8.528884,
            47.198703,
            447.0
          ],
          [
            8.528902,
            47.198691,
            447.0
          ],
          [
            8.528902,
            47.198691,
            447.0
          ],
          [
            8.528965,
            47.198648,
            447.0
          ],
          [
            8.529018,
            47.198581,
            447.0
          ],
          [
            8.529045,
            47.198514,
            447.0
          ],
          [
            8.529045,
            47.198446,
            447.0
          ],
          [
            8.529001,
            47.198337,
            447.0
          ],
          [
            8.528902,
            47.198129,
            446.0
          ],
          [
            8.528875,
            47.198019,
            446.0
          ],
          [
            8.528865,
            47.19797,
            446.0
          ],
          [
            8.528865,
            47.197897,
            446.0
          ],
          [
            8.528902,
            47.197769,
            446.0
          ],
          [
            8.528919,
            47.19769,
            446.0
          ],
          [
            8.528928,
            47.197592,
            446.0
          ],
          [
            8.528919,
            47.197488,
            446.0
          ],
          [
            8.528911,
            47.197494,
            445.0
          ],
          [
            8.528911,
            47.197494,
            445.0
          ],
          [
            8.528471,
            47.197616,
            445.0
          ],
          [
            8.528443,
            47.197641,
            445.0
          ],
          [
            8.528291,
            47.19769,
            445.0
          ],
          [
            8.527833,
            47.197958,
            444.0
          ],
          [
            8.52759,
            47.198141,
            444.0
          ],
          [
            8.527563,
            47.198172,
            444.0
          ],
          [
            8.527519,
            47.19816,
            444.0
          ],
          [
            8.527339,
            47.197848,
            443.0
          ],
          [
            8.527186,
            47.197641,
            443.0
          ],
          [
            8.527141,
            47.197531,
            443.0
          ],
          [
            8.526898,
            47.197293,
            443.0
          ],
          [
            8.526863,
            47.197256,
            442.0
          ],
          [
            8.526728,
            47.197116,
            442.0
          ],
          [
            8.526745,
            47.196518,
            441.0
          ],
          [
            8.52671,
            47.19642,
            441.0
          ],
          [
            8.526477,
            47.196408,
            441.0
          ],
          [
            8.526315,
            47.196378,
            441.0
          ],
          [
            8.526045,
            47.196329,
            441.0
          ],
          [
            8.525758,
            47.196268,
            440.0
          ],
          [
            8.525399,
            47.196121,
            440.0
          ],
          [
            8.525362,
            47.196109,
            440.0
          ],
          [
            8.525345,
            47.196133,
            440.0
          ],
          [
            8.525326,
            47.196133,
            440.0
          ],
          [
            8.52529,
            47.19614,
            440.0
          ],
          [
            8.525255,
            47.196152,
            440.0
          ],
          [
            8.525236,
            47.19617,
            440.0
          ],
          [
            8.5252,
            47.196158,
            440.0
          ],
          [
            8.52512,
            47.196127,
            440.0
          ],
          [
            8.525057,
            47.196103,
            440.0
          ],
          [
            8.525075,
            47.196085,
            440.0
          ],
          [
            8.525084,
            47.196054,
            440.0
          ],
          [
            8.525084,
            47.196024,
            440.0
          ],
          [
            8.525075,
            47.196005,
            440.0
          ],
          [
            8.525129,
            47.195944,
            440.0
          ],
          [
            8.525093,
            47.195926,
            440.0
          ],
          [
            8.525039,
            47.195908,
            440.0
          ],
          [
            8.52467,
            47.195761,
            440.0
          ],
          [
            8.524544,
            47.195718,
            440.0
          ],
          [
            8.5245,
            47.195706,
            440.0
          ],
          [
            8.524473,
            47.1957,
            440.0
          ],
          [
            8.524204,
            47.19559,
            440.0
          ],
          [
            8.524168,
            47.195511,
            440.0
          ],
          [
            8.524015,
            47.195664,
            440.0
          ],
          [
            8.524051,
            47.195682,
            440.0
          ],
          [
            8.524015,
            47.195718,
            440.0
          ],
          [
            8.523378,
            47.19545,
            440.0
          ],
          [
            8.523368,
            47.195456,
            440.0
          ]
        ]
      }
    }
  ]
}