{
  "type": "FeatureCollection",
  "features": [
    {
      "type": "Feature",
      "properties": {},
      "geometry": {
        "type": "LineString",
        "coordinates": [
          [
            8.63299,
            47.698247,
            408.0
          ],
          [
            8.632837,
            47.69809,
            408.0
          ],
          [
            8.632729,
            47.697988,
            408.0
          ],
          [
            8.632755,
            47.697976,
            408.0
          ],
          [
            8.632837,
            47.69794,
            405.0
          ],
          [
            8.632784,
            47.697891,
            405.0
          ],
          [
            8.632631,
            47.697734,
            406.0
          ],
          [
            8.632424,
            47.697534,
            407.0
          ],
          [
            8.632396,
            47.697504,
            407.0
          ],
          [
            8.632325,
            47.697437,
            407.0
          ],
          [
            8.632226,
            47.697486,
            407.0
          ],
          [
            8.631939,
            47.69725,
            408.0
          ],
          [
            8.631786,
            47.697093,
            409.0
          ],
          [
            8.631696,
            47.696996,
            409.0
          ],
          [
            8.63166,
            47.696924,
            410.0
          ],
          [
            8.631633,
            47.696875,
            410.0
          ],
          [
            8.631615,
            47.696827,
            410.0
          ],
          [
            8.631597,
            47.696778,
            410.0
          ],
          [
            8.631579,
            47.69676,
            410.0
          ],
          [
            8.631552,
            47.69673,
            410.0
          ],
          [
            8.631534,
            47.696718,
            411.0
          ],
          [
            8.631499,
            47.696712,
            411.0
          ],
          [
            8.631463,
            47.696706,
            411.0
          ],
          [
            8.631426,
            47.696706,
            411.0
          ],
          [
            8.6314,
            47.696712,
            412.0
          ],
          [
            8.631373,
            47.696724,
            412.0
          ],
          [
            8.631337,
            47.696748,
            412.0
          ],
          [
            8.631327,
            47.696766,
            413.0
          ],
          [
            8.63131,
            47.696784,
            413.0
          ],
          [
            8.63122,
            47.696778,
            414.0
          ],
          [
            8.631113,
            47.696766,
            414.0
          ],
          [
            8.631113,
            47.696724,
            415.0
          ],
          [
            8.63105,
            47.696724,
            415.0
          ],
          [
            8.63095,
            47.69673,
            415.0
          ],
          [
            8.630923,
            47.6967,
            415.0
          ],
          [
            8.630367,
            47.696815,
            419.0
          ],
          [
            8.63052,
            47.697208,
            418.0
          ],
          [
            8.63051,
            47.697365,
            418.0
          ],
          [
            8.630457,
            47.697547,
            417.0
          ],
          [
            8.630384,
            47.697891,
            416.0
          ],
          [
            8.630312,
            47.698217,
            415.0
          ],
          [
            8.630277,
            47.698495,
            414.0
          ],
          [
            8.630295,
            47.698725,
            414.0
          ],
          [
            8.630312,
            47.698768,
            414.0
          ],
          [
            8.629809,
            47.698816,
            418.0
          ],
          [
            8.629692,
            47.698828,
            419.0
          ],
          [
            8.629568,
            47.698846,
            421.0
          ],
          [
            8.629172,
            47.698967,
            427.0
          ],
          [
            8.629055,
            47.698997,
            429.0
          ],
          [
            8.628956,
            47.699003,
            430.0
          ],
          [
            8.628849,
            47.698991,
            431.0
          ],
          [
            8.628489,
            47.698906,
            437.0
          ],
          [
            8.627788,
            47.698774,
            442.0
          ],
          [
            8.62769,
            47.698774,
            442.0
          ],
          [
            8.627725,
            47.698822,
            443.0
          ],
          [
            8.627923,
            47.699227,
            445.0
          ],
          [
            8.627977,
            47.699439,
            446.0
          ],
          [
            8.628084,
            47.699862,
            449.0
          ],
          [
            8.628174,
            47.700291,
            451.0
          ],
          [
            8.628193,
            47.700478,
            451.0
          ],
          [
            8.628157,
            47.700781,
            452.0
          ],
          [
            8.628094,
            47.700932,
            452.0
          ],
          [
            8.62804,
            47.700993,
            452.0
          ],
          [
            8.628031,
            47.701053,
            452.0
          ],
          [
            8.628004,
            47.701131,
            453.0
          ],
          [
            8.627914,
            47.701307,
            453.0
          ],
          [
            8.627797,
            47.701609,
            454.0
          ],
          [
            8.627681,
            47.701917,
            455.0
          ],
          [
            8.627644,
            47.702069,
            455.0
          ],
          [
            8.627608,
            47.702232,
            455.0
          ],
          [
            8.627572,
            47.702462,
            456.0
          ],
          [
            8.627555,
            47.702613,
            456.0
          ],
          [
            8.62751,
            47.703042,
            457.0
          ],
          [
            8.627501,
            47.70315,
            458.0
          ],
          [
            8.627501,
            47.70329,
            458.0
          ],
          [
            8.627482,
            47.703659,
            459.0
          ],
          [
            8.627482,
            47.703906,
            459.0
          ],
          [
            8.627474,
            47.704082,
            460.0
          ],
          [
            8.627465,
            47.704269,
            460.0
          ],
          [
            8.627465,
            47.704341,
            460.0
          ],
          [
            8.627455,
            47.704601,
            461.0
          ],
          [
            8.627447,
            47.704886,
            461.0
          ],
          [
            8.627455,
            47.705327,
            462.0
          ],
          [
            8.62751,
            47.706004,
            463.0
          ],
          [
            8.627537,
            47.706342,
            464.0
          ],
          [
            8.627545,
            47.706433,
            464.0
          ],
          [
            8.627564,
            47.706566,
            464.0
          ],
          [
            8.627591,
            47.70679,
            465.0
          ],
          [
            8.6276,
            47.706838,
            465.0
          ],
          [
            8.627635,
            47.707001,
            465.0
          ],
          [
            8.627681,
            47.707243,
            465.0
          ],
          [
            8.627698,
            47.707346,
            466.0
          ],
          [
            8.627644,
            47.707352,
            466.0
          ],
          [
            8.627545,
            47.707364,
            466.0
          ],
          [
            8.627482,
            47.707352,
            466.0
          ],
          [
            8.627438,
            47.707467,
            466.0
          ],
          [
            8.627186,
            47.708108,
            467.0
          ],
          [
            8.627159,
            47.708162,
            467.0
          ],
          [
            8.627096,
            47.708247,
            467.0
          ],
          [
            8.627025,
            47.708331,
            468.0
          ],
          [
            8.626935,
            47.70841,
            468.0
          ],
          [
            8.626836,
            47.708477,
            468.0
          ],
          [
            8.626719,
            47.708543,
            468.0
          ],
          [
            8.626656,
            47.708567,
            468.0
          ],
          [
            8.626576,
            47.708597,
            468.0
          ],
          [
            8.626513,
            47.708621,
            468.0
          ],
          [
            8.626413,
            47.708646,
            469.0
          ],
          [
            8.626297,
            47.708658,
            469.0
          ],
          [
            8.626189,
            47.708664,
            469.0
          ],
          [
            8.626027,
            47.708646,
            469.0
          ],
          [
            8.625983,
            47.70864,
            469.0
          ],
          [
            8.625857,
            47.708609,
            469.0
          ],
          [
            8.625776,
            47.708591,
            469.0
          ],
          [
            8.625578,
            47.708519,
            470.0
          ],
          [
            8.625408,
            47.70844,
            470.0
          ],
          [
            8.625255,
            47.708355,
            470.0
          ],
          [
            8.625147,
            47.708271,
            470.0
          ],
          [
            8.625111,
            47.708234,
            470.0
          ],
          [
            8.625075,
            47.708192,
            470.0
          ],
          [
            8.625012,
            47.708108,
            470.0
          ],
          [
            8.624941,
            47.708156,
            470.0
          ],
          [
            8.624914,
            47.708192,
            470.0
          ],
          [
            8.624868,
            47.708361,
            470.0
          ],
          [
            8.624941,
            47.708797,
            470.0
          ],
          [
            8.624968,
            47.708972,
            470.0
          ],
          [
            8.624977,
            47.709081,
            470.0
          ],
          [
            8.624968,
            47.709153,
            470.0
          ],
          [
            8.624941,
            47.709214,
            470.0
          ],
          [
            8.624725,
            47.709643,
            470.0
          ],
          [
            8.624599,
            47.709879,
            470.0
          ],
          [
            8.624536,
            47.709975,
            470.0
          ],
          [
            8.624239,
            47.710326,
            471.0
          ],
          [
            8.624168,
            47.710416,
            471.0
          ],
          [
            8.624115,
            47.710502,
            471.0
          ],
          [
            8.623872,
            47.711058,
            472.0
          ],
          [
            8.623782,
            47.71122,
            472.0
          ],
          [
            8.623639,
            47.71142,
            472.0
          ],
          [
            8.623486,
            47.711619,
            472.0
          ],
          [
            8.623369,
            47.711746,
            473.0
          ],
          [
            8.623216,
            47.711886,
            473.0
          ],
          [
            8.622964,
            47.712139,
            473.0
          ],
          [
            8.623099,
            47.712175,
            473.0
          ],
          [
            8.623467,
            47.712267,
            474.0
          ],
          [
            8.623836,
            47.712357,
            474.0
          ],
          [
            8.624294,
            47.71246,
            474.0
          ],
          [
            8.624402,
            47.712478,
            474.0
          ],
          [
            8.624365,
            47.712544,
            474.0
          ],
          [
            8.624339,
            47.712592,
            475.0
          ],
          [
            8.624258,
            47.712702,
            475.0
          ],
          [
            8.624178,
            47.712786,
            475.0
          ],
          [
            8.624096,
            47.712859,
            475.0
          ],
          [
            8.624033,
            47.712907,
            475.0
          ],
          [
            8.623845,
            47.71304,
            475.0
          ],
          [
            8.623683,
            47.713155,
            475.0
          ],
          [
            8.623476,
            47.713288,
            476.0
          ],
          [
            8.623136,
            47.713518,
            476.0
          ],
          [
            8.62309,
            47.71356,
            476.0
          ],
          [
            8.622947,
            47.713675,
            476.0
          ],
          [
            8.622857,
            47.713759,
            476.0
          ],
          [
            8.622704,
            47.713898,
            477.0
          ],
          [
            8.621895,
            47.714684,
            478.0
          ],
          [
            8.621482,
            47.715083,
            478.0
          ],
          [
            8.621312,
            47.715259,
            479.0
          ],
          [
            8.621186,
            47.715385,
            479.0
          ],
          [
            8.621086,
            47.7155,
            479.0
          ],
          [
            8.62097,
            47.715663,
            479.0
          ],
          [
            8.620943,
            47.715693,
            479.0
          ],
          [
            8.620872,
            47.715808,
            479.0
          ],
          [
            8.620836,
            47.715857,
            479.0
          ],
          [
            8.620736,
            47.715995,
            480.0
          ],
          [
            8.620574,
            47.716238,
            480.0
          ],
          [
            8.620144,
            47.716854,
            482.0
          ],
          [
            8.619991,
            47.717059,
            482.0
          ],
          [
            8.619857,
            47.717211,
            483.0
          ],
          [
            8.619532,
            47.71753,
            484.0
          ],
          [
            8.619461,
            47.717622,
            484.0
          ],
          [
            8.619371,
            47.717712,
            485.0
          ],
          [
            8.619335,
            47.717736,
            485.0
          ],
          [
            8.619318,
            47.717742,
            485.0
          ],
          [
            8.619281,
            47.717815,
            485.0
          ],
          [
            8.619174,
            47.717863,
            485.0
          ],
          [
            8.618985,
            47.71796,
            486.0
          ],
          [
            8.618868,
            47.718027,
            486.0
          ],
          [
            8.618815,
            47.718069,
            486.0
          ],
          [
            8.618679,
            47.718304,
            487.0
          ],
          [
            8.618715,
            47.718322,
            487.0
          ],
          [
            8.618742,
            47.718346,
            487.0
          ],
          [
            8.618841,
            47.718377,
            487.0
          ],
          [
            8.619065,
            47.718449,
            488.0
          ],
          [
            8.619119,
            47.718468,
            488.0
          ],
          [
            8.619165,
            47.718474,
            488.0
          ],
          [
            8.619128,
            47.718576,
            488.0
          ],
          [
            8.619209,
            47.718588,
            489.0
          ],
          [
            8.619264,
            47.718613,
            489.0
          ],
          [
            8.619326,
            47.718643,
            489.0
          ],
          [
            8.619371,
            47.718733,
            489.0
          ],
          [
            8.619389,
            47.718836,
            490.0
          ],
          [
            8.619389,
            47.718945,
            490.0
          ],
          [
            8.619308,
            47.719211,
            493.0
          ],
          [
            8.619299,
            47.719283,
            494.0
          ],
          [
            8.619291,
            47.71935,
            495.0
          ],
          [
            8.619255,
            47.719423,
            496.0
          ],
          [
            8.619111,
            47.719598,
            498.0
          ],
          [
            8.618985,
            47.719761,
            500.0
          ],
          [
            8.618886,
            47.719912,
            503.0
          ],
          [
            8.618752,
            47.720256,
            508.0
          ],
          [
            8.618725,
            47.720365,
            509.0
          ],
          [
            8.618742,
            47.720474,
            511.0
          ],
          [
            8.618815,
            47.720613,
            513.0
          ],
          [
            8.61867,
            47.720752,
            516.0
          ],
          [
            8.61841,
            47.720909,
            520.0
          ],
          [
            8.617817,
            47.721175,
            527.0
          ],
          [
            8.617394,
            47.721326,
            532.0
          ],
          [
            8.616551,
            47.721562,
            539.0
          ],
          [
            8.616119,
            47.721646,
            543.0
          ],
          [
            8.615715,
            47.721688,
            546.0
          ],
          [
            8.614897,
            47.721725,
            551.0
          ],
          [
            8.614547,
            47.721743,
            552.0
          ],
          [
            8.61435,
            47.721773,
            553.0
          ],
          [
            8.614125,
            47.721816,
            553.0
          ],
          [
            8.613909,
            47.721864,
            554.0
          ],
          [
            8.613559,
            47.722009,
            555.0
          ],
          [
            8.61302,
            47.72216,
            557.0
          ],
          [
            8.612679,
            47.722323,
            558.0
          ],
          [
            8.612517,
            47.72242,
            559.0
          ],
          [
            8.612391,
            47.722535,
            559.0
          ],
          [
            8.612121,
            47.722794,
            562.0
          ],
          [
            8.61188,
            47.723097,
            568.0
          ],
          [
            8.610712,
            47.7248,
            586.0
          ],
          [
            8.610712,
            47.7248,
            586.0
          ],
          [
            8.610334,
            47.725357,
            592.0
          ],
          [
            8.610029,
            47.725635,
            593.0
          ],
          [
            8.608771,
            47.726378,
            595.0
          ],
          [
            8.608601,
            47.726427,
            596.0
          ],
          [
            8.608339,
            47.726547,
            596.0
          ],
          [
            8.607612,
            47.726879,
            597.0
          ],
          [
            8.607073,
            47.727206,
            598.0
          ],
          [
            8.606651,
            47.727508,
            599.0
          ],
          [
            8.606345,
            47.727786,
            601.0
          ],
          [
            8.605888,
            47.728529,
            607.0
          ],
          [
            8.605519,
            47.72894,
            610.0
          ],
          [
            8.604729,
            47.729236,
            615.0
          ],
          [
            8.603435,
            47.729708,
            621.0
          ],
          [
            8.602743,
            47.729949,
            625.0
          ],
          [
            8.60206,
            47.730209,
            628.0
          ],
          [
            8.601917,
            47.730282,
            629.0
          ],
          [
            8.601783,
            47.730372,
            629.0
          ],
          [
            8.601657,
            47.730469,
            630.0
          ],
          [
            8.601504,
            47.730626,
            632.0
          ],
          [
            8.601396,
            47.730759,
            633.0
          ],
          [
            8.601288,
            47.73094,
            634.0
          ],
          [
            8.601127,
            47.731321,
            637.0
          ],
          [
            8.601045,
            47.731526,
            638.0
          ],
          [
            8.600965,
            47.731665,
            639.0
          ],
          [
            8.60083,
            47.731877,
            641.0
          ],
          [
            8.600678,
            47.732022,
            643.0
          ],
          [
            8.600416,
            47.732209,
            645.0
          ],
          [
            8.600255,
            47.732293,
            646.0
          ],
          [
            8.600075,
            47.73236,
            647.0
          ],
          [
            8.59968,
            47.732481,
            649.0
          ],
          [
            8.599429,
            47.732553,
            650.0
          ],
          [
            8.599167,
            47.732668,
            650.0
          ],
          [
            8.598898,
            47.732795,
            650.0
          ],
          [
            8.597389,
            47.733575,
            650.0
          ],
          [
            8.597309,
            47.733617,
            650.0
          ],
          [
            8.596967,
            47.733858,
            650.0
          ],
          [
            8.596806,
            47.734009,
            650.0
          ],
          [
            8.596599,
            47.734215,
            650.0
          ],
          [
            8.596374,
            47.734511,
            650.0
          ],
          [
            8.59624,
            47.734741,
            650.0
          ],
          [
            8.596087,
            47.735036,
            650.0
          ],
          [
            8.596024,
            47.735205,
            650.0
          ],
          [
            8.596006,
            47.735326,
            650.0
          ],
          [
            8.596024,
            47.735725,
            650.0
          ],
          [
            8.596024,
            47.735785,
            650.0
          ],
          [
            8.596015,
            47.735942,
            651.0
          ],
          [
            8.596006,
            47.736094,
            651.0
          ],
          [
            8.595988,
            47.736547,
            651.0
          ],
          [
            8.595978,
            47.736632,
            651.0
          ],
          [
            8.595951,
            47.736777,
            651.0
          ],
          [
            8.595917,
            47.736915,
            651.0
          ],
          [
            8.595854,
            47.737084,
            651.0
          ],
          [
            8.595764,
            47.737218,
            651.0
          ],
          [
            8.595674,
            47.737272,
            651.0
          ],
          [
            8.595674,
            47.737326,
            651.0
          ],
          [
            8.595638,
            47.737387,
            651.0
          ],
          [
            8.595565,
            47.737477,
            652.0
          ],
          [
            8.595467,
            47.737574,
            652.0
          ],
          [
            8.595351,
            47.737646,
            652.0
          ],
          [
            8.595242,
            47.737701,
            653.0
          ],
          [
            8.595125,
            47.737749,
            653.0
          ],
          [
            8.594523,
            47.737937,
            655.0
          ],
          [
            8.594272,
            47.738039,
            656.0
          ],
          [
            8.594066,
            47.73813,
            656.0
          ],
          [
            8.593877,
            47.73822,
            657.0
          ],
          [
            8.59359,
            47.738371,
            658.0
          ],
          [
            8.593087,
            47.738674,
            660.0
          ],
          [
            8.592601,
            47.738993,
            664.0
          ],
          [
            8.592251,
            47.739241,
            667.0
          ],
          [
            8.592125,
            47.739344,
            669.0
          ],
          [
            8.592026,
            47.739447,
            670.0
          ],
          [
            8.591972,
            47.739531,
            671.0
          ],
          [
            8.591936,
            47.739664,
            672.0
          ],
          [
            8.591865,
            47.73967,
            673.0
          ],
          [
            8.591802,
            47.739676,
            674.0
          ],
          [
            8.591793,
            47.739785,
            676.0
          ],
          [
            8.591766,
            47.739876,
            677.0
          ],
          [
            8.59181,
            47.740045,
            680.0
          ],
          [
            8.591829,
            47.740196,
            682.0
          ],
          [
            8.59182,
            47.740341,
            684.0
          ],
          [
            8.591739,
            47.74045,
            685.0
          ],
          [
            8.591703,
            47.740546,
            687.0
          ],
          [
            8.591533,
            47.740522,
            688.0
          ],
          [
            8.591272,
            47.740522,
            690.0
          ],
          [
            8.591056,
            47.74054,
            693.0
          ],
          [
            8.590804,
            47.740571,
            695.0
          ],
          [
            8.590625,
            47.740613,
            697.0
          ],
          [
            8.590445,
            47.740679,
            699.0
          ],
          [
            8.590301,
            47.740746,
            702.0
          ],
          [
            8.590212,
            47.7408,
            704.0
          ],
          [
            8.590086,
            47.740915,
            707.0
          ],
          [
            8.590014,
            47.740999,
            709.0
          ],
          [
            8.589934,
            47.741211,
            712.0
          ],
          [
            8.589825,
            47.74135,
            714.0
          ],
          [
            8.589762,
            47.74147,
            716.0
          ],
          [
            8.589844,
            47.741549,
            717.0
          ],
          [
            8.589735,
            47.741591,
            718.0
          ],
          [
            8.589825,
            47.741712,
            720.0
          ],
          [
            8.589888,
            47.741815,
            721.0
          ],
          [
            8.589961,
            47.742093,
            723.0
          ],
          [
            8.590257,
            47.742679,
            727.0
          ],
          [
            8.590391,
            47.743319,
            731.0
          ],
          [
            8.589925,
            47.743379,
            732.0
          ],
          [
            8.589699,
            47.743452,
            733.0
          ],
          [
            8.589152,
            47.743723,
            735.0
          ],
          [
            8.5889,
            47.743815,
            736.0
          ],
          [
            8.588604,
            47.743893,
            737.0
          ],
          [
            8.588164,
            47.743947,
            738.0
          ],
          [
            8.586699,
            47.744092,
            743.0
          ],
          [
            8.585738,
            47.744328,
            747.0
          ],
          [
            8.584185,
            47.744552,
            753.0
          ],
          [
            8.583384,
            47.744666,
            756.0
          ],
          [
            8.583025,
            47.744817,
            757.0
          ],
          [
            8.582548,
            47.745028,
            759.0
          ],
          [
            8.581596,
            47.745464,
            765.0
          ],
          [
            8.580996,
            47.745723,
            769.0
          ],
          [
            8.580546,
            47.745657,
            770.0
          ],
          [
            8.580474,
            47.745645,
            770.0
          ],
          [
            8.580051,
            47.745548,
            771.0
          ],
          [
            8.579747,
            47.745512,
            771.0
          ],
          [
            8.579459,
            47.745542,
            771.0
          ],
          [
            8.578848,
            47.745669,
            772.0
          ],
          [
            8.578273,
            47.745814,
            773.0
          ],
          [
            8.577627,
            47.745989,
            773.0
          ],
          [
            8.577401,
            47.746013,
            774.0
          ],
          [
            8.576917,
            47.74597,
            774.0
          ],
          [
            8.576548,
            47.745922,
            774.0
          ],
          [
            8.576359,
            47.745886,
            775.0
          ],
          [
            8.576288,
            47.745856,
            775.0
          ],
          [
            8.576145,
            47.745934,
            775.0
          ],
          [
            8.576019,
            47.745995,
            776.0
          ],
          [
            8.575758,
            47.746116,
            777.0
          ],
          [
            8.57547,
            47.746261,
            778.0
          ],
          [
            8.575048,
            47.746466,
            779.0
          ],
          [
            8.574814,
            47.746526,
            780.0
          ],
          [
            8.57468,
            47.746544,
            780.0
          ],
          [
            8.574537,
            47.746544,
            781.0
          ],
          [
            8.574185,
            47.746508,
            782.0
          ],
          [
            8.574042,
            47.746502,
            783.0
          ],
          [
            8.573638,
            47.746514,
            784.0
          ],
          [
            8.573405,
            47.746508,
            785.0
          ],
          [
            8.573162,
            47.746496,
            786.0
          ],
          [
            8.572533,
            47.746424,
            789.0
          ],
          [
            8.57229,
            47.746412,
            790.0
          ],
          [
            8.571967,
            47.746424,
            791.0
          ],
          [
            8.571554,
            47.746454,
            791.0
          ],
          [
            8.571266,
            47.746484,
            792.0
          ],
          [
            8.57088,
            47.746538,
            793.0
          ],
          [
            8.570566,
            47.746569,
            793.0
          ],
          [
            8.570224,
            47.746581,
            794.0
          ],
          [
            8.569856,
            47.746587,
            795.0
          ],
          [
            8.569631,
            47.746575,
            795.0
          ],
          [
            8.569416,
            47.746551,
            796.0
          ],
          [
            8.569209,
            47.746502,
            796.0
          ],
          [
            8.569021,
            47.746424,
            797.0
          ],
          [
            8.568751,
            47.746339,
            797.0
          ],
          [
            8.568535,
            47.746279,
            798.0
          ],
          [
            8.568203,
            47.7462,
            798.0
          ],
          [
            8.568042,
            47.74617,
            799.0
          ],
          [
            8.567853,
            47.746146,
            799.0
          ],
          [
            8.567656,
            47.746152,
            800.0
          ],
          [
            8.566703,
            47.746231,
            802.0
          ],
          [
            8.566442,
            47.746243,
            803.0
          ],
          [
            8.565283,
            47.746279,
            806.0
          ],
          [
            8.564493,
            47.746291,
            809.0
          ],
          [
            8.564233,
            47.746327,
            809.0
          ],
          [
            8.563998,
            47.7464,
            810.0
          ],
          [
            8.563442,
            47.746557,
            812.0
          ],
          [
            8.56231,
            47.746732,
            817.0
          ],
          [
            8.561969,
            47.746817,
            818.0
          ],
          [
            8.561843,
            47.746859,
            818.0
          ],
          [
            8.561798,
            47.746877,
            819.0
          ],
          [
            8.561843,
            47.746968,
            819.0
          ],
          [
            8.561887,
            47.747034,
            819.0
          ],
          [
            8.56187,
            47.747263,
            819.0
          ],
          [
            8.561887,
            47.747487,
            819.0
          ],
          [
            8.56195,
            47.747692,
            819.0
          ],
          [
            8.562292,
            47.748097,
            820.0
          ],
          [
            8.562346,
            47.748187,
            820.0
          ],
          [
            8.562364,
            47.748279,
            820.0
          ],
          [
            8.56231,
            47.748454,
            821.0
          ],
          [
            8.562203,
            47.748743,
            821.0
          ],
          [
            8.562149,
            47.74896,
            822.0
          ],
          [
            8.562094,
            47.749136,
            822.0
          ],
          [
            8.562059,
            47.749263,
            822.0
          ],
          [
            8.562059,
            47.749335,
            822.0
          ],
          [
            8.562077,
            47.74939,
            823.0
          ],
          [
            8.56213,
            47.749438,
            823.0
          ],
          [
            8.562301,
            47.749528,
            823.0
          ],
          [
            8.562535,
            47.749637,
            823.0
          ],
          [
            8.562805,
            47.749806,
            824.0
          ],
          [
            8.563082,
            47.750018,
            825.0
          ],
          [
            8.563774,
            47.750452,
            826.0
          ],
          [
            8.56399,
            47.750609,
            826.0
          ],
          [
            8.564061,
            47.750676,
            827.0
          ],
          [
            8.564178,
            47.750797,
            827.0
          ],
          [
            8.564277,
            47.75087,
            827.0
          ],
          [
            8.564367,
            47.750924,
            827.0
          ],
          [
            8.564457,
            47.750966,
            828.0
          ],
          [
            8.564574,
            47.751002,
            828.0
          ],
          [
            8.564826,
            47.751087,
            828.0
          ],
          [
            8.56504,
            47.751183,
            829.0
          ],
          [
            8.565229,
            47.751292,
            829.0
          ],
          [
            8.565634,
            47.751558,
            830.0
          ],
          [
            8.566074,
            47.751842,
            831.0
          ],
          [
            8.56629,
            47.751963,
            831.0
          ],
          [
            8.566505,
            47.752101,
            832.0
          ],
          [
            8.56691,
            47.752337,
            832.0
          ],
          [
            8.56734,
            47.752597,
            833.0
          ],
          [
            8.567484,
            47.752693,
            834.0
          ],
          [
            8.567862,
            47.752971,
            835.0
          ],
          [
            8.568006,
            47.753098,
            835.0
          ],
          [
            8.568176,
            47.753261,
            835.0
          ],
          [
            8.568319,
            47.753394,
            836.0
          ],
          [
            8.568419,
            47.753527,
            836.0
          ],
          [
            8.568491,
            47.753672,
            836.0
          ],
          [
            8.568572,
            47.753919,
            837.0
          ],
          [
            8.568608,
            47.754082,
            837.0
          ],
          [
            8.568608,
            47.75424,
            838.0
          ],
          [
            8.568553,
            47.754505,
            838.0
          ],
          [
            8.568526,
            47.754686,
            839.0
          ],
          [
            8.568545,
            47.754982,
            840.0
          ],
          [
            8.568581,
            47.755194,
            840.0
          ],
          [
            8.568635,
            47.755333,
            840.0
          ],
          [
            8.568724,
            47.755466,
            840.0
          ],
          [
            8.568841,
            47.755592,
            840.0
          ],
          [
            8.568912,
            47.755671,
            840.0
          ],
          [
            8.568967,
            47.755773,
            840.0
          ],
          [
            8.568975,
            47.755882,
            840.0
          ],
          [
            8.569021,
            47.756154,
            840.0
          ],
          [
            8.569065,
            47.756504,
            836.0
          ],
          [
            8.569164,
            47.757344,
            830.0
          ],
          [
            8.569174,
            47.757501,
            830.0
          ],
          [
            8.569119,
            47.757609,
            830.0
          ],
          [
            8.569048,
            47.7577,
            830.0
          ],
          [
            8.56894,
            47.757802,
            829.0
          ],
          [
            8.568832,
            47.7579,
            829.0
          ],
          [
            8.568742,
            47.75796,
            829.0
          ],
          [
            8.568652,
            47.758014,
            829.0
          ],
          [
            8.568526,
            47.758081,
            829.0
          ],
          [
            8.568319,
            47.758153,
            829.0
          ],
          [
            8.567566,
            47.758201,
            828.0
          ],
          [
            8.567124,
            47.758226,
            828.0
          ],
          [
            8.566524,
            47.758244,
            828.0
          ],
          [
            8.566371,
            47.758382,
            827.0
          ],
          [
            8.566038,
            47.75872,
            824.0
          ],
          [
            8.565921,
            47.758835,
            824.0
          ],
          [
            8.565876,
            47.758962,
            823.0
          ],
          [
            8.565724,
            47.759325,
            821.0
          ],
          [
            8.565688,
            47.759379,
            820.0
          ],
          [
            8.565688,
            47.759494,
            821.0
          ],
          [
            8.565679,
            47.759632,
            822.0
          ],
          [
            8.565625,
            47.759995,
            824.0
          ],
          [
            8.565589,
            47.760321,
            826.0
          ],
          [
            8.565545,
            47.760876,
            829.0
          ],
          [
            8.565499,
            47.761154,
            831.0
          ],
          [
            8.565455,
            47.761408,
            833.0
          ],
          [
            8.565373,
            47.761728,
            835.0
          ],
          [
            8.565337,
            47.761818,
            836.0
          ],
          [
            8.56531,
            47.761903,
            836.0
          ],
          [
            8.565302,
            47.762054,
            837.0
          ],
          [
            8.565319,
            47.762229,
            838.0
          ],
          [
            8.5654,
            47.762429,
            840.0
          ],
          [
            8.565669,
            47.762978,
            844.0
          ],
          [
            8.565786,
            47.763232,
            846.0
          ],
          [
            8.565895,
            47.763473,
            848.0
          ],
          [
            8.565939,
            47.76366,
            850.0
          ],
          [
            8.565939,
            47.763835,
            851.0
          ],
          [
            8.565903,
            47.764041,
            853.0
          ],
          [
            8.565849,
            47.764228,
            855.0
          ],
          [
            8.565778,
            47.764409,
            856.0
          ],
          [
            8.565571,
            47.764946,
            861.0
          ],
          [
            8.565472,
            47.765399,
            865.0
          ],
          [
            8.565445,
            47.765714,
            867.0
          ],
          [
            8.565346,
            47.765973,
            869.0
          ],
          [
            8.565329,
            47.766052,
            869.0
          ],
          [
            8.565337,
            47.766136,
            870.0
          ],
          [
            8.565365,
            47.766202,
            870.0
          ],
          [
            8.565499,
            47.766498,
            870.0
          ],
          [
            8.56558,
            47.766752,
            870.0
          ],
          [
            8.565634,
            47.766982,
            870.0
          ],
          [
            8.565679,
            47.767102,
            870.0
          ],
          [
            8.565795,
            47.767301,
            870.0
          ],
          [
            8.566172,
            47.767766,
            870.0
          ],
          [
            8.566532,
            47.768213,
            870.0
          ],
          [
            8.566874,
            47.768714,
            870.0
          ],
          [
            8.566954,
            47.768944,
            870.0
          ],
          [
            8.56699,
            47.76907,
            870.0
          ],
          [
            8.566973,
            47.769143,
            870.0
          ],
          [
            8.566937,
            47.769245,
            870.0
          ],
          [
            8.566864,
            47.76936,
            870.0
          ],
          [
            8.566748,
            47.769487,
            870.0
          ],
          [
            8.566497,
            47.76968,
            870.0
          ],
          [
            8.566182,
            47.76985,
            871.0
          ],
          [
            8.565625,
            47.770163,
            873.0
          ],
          [
            8.565382,
            47.77032,
            875.0
          ],
          [
            8.565176,
            47.770477,
            876.0
          ],
          [
            8.565095,
            47.770568,
            877.0
          ],
          [
            8.56504,
            47.770664,
            877.0
          ],
          [
            8.564897,
            47.77096,
            879.0
          ],
          [
            8.564861,
            47.771087,
            880.0
          ],
          [
            8.564861,
            47.771189,
            881.0
          ],
          [
            8.564916,
            47.771268,
            882.0
          ],
          [
            8.565283,
            47.771673,
            883.0
          ],
          [
            8.565535,
            47.772005,
            885.0
          ],
          [
            8.565616,
            47.772174,
            886.0
          ],
          [
            8.565606,
            47.772337,
            886.0
          ],
          [
            8.565553,
            47.772475,
            887.0
          ],
          [
            8.565482,
            47.772572,
            887.0
          ],
          [
            8.565239,
            47.772735,
            888.0
          ],
          [
            8.56504,
            47.772874,
            889.0
          ],
          [
            8.56496,
            47.77294,
            889.0
          ],
          [
            8.564906,
            47.772995,
            890.0
          ],
          [
            8.564853,
            47.773068,
            890.0
          ],
          [
            8.564816,
            47.773152,
            890.0
          ],
          [
            8.56479,
            47.773267,
            890.0
          ],
          [
            8.56478,
            47.773351,
            890.0
          ],
          [
            8.564771,
            47.773442,
            890.0
          ],
          [
            8.56479,
            47.773707,
            890.0
          ],
          [
            8.56478,
            47.773798,
            890.0
          ],
          [
            8.564744,
            47.773979,
            890.0
          ],
          [
            8.564673,
            47.774178,
            890.0
          ],
          [
            8.564474,
            47.774691,
            890.0
          ],
          [
            8.564385,
            47.774987,
            890.0
          ],
          [
            8.564241,
            47.775295,
            890.0
          ],
          [
            8.56408,
            47.775609,
            890.0
          ],
          [
            8.563937,
            47.775923,
            890.0
          ],
          [
            8.563729,
            47.776267,
            890.0
          ],
          [
            8.563461,
            47.776683,
            890.0
          ],
          [
            8.563406,
            47.776743,
            890.0
          ],
          [
            8.563388,
            47.776841,
            890.0
          ],
          [
            8.563218,
            47.777203,
            890.0
          ],
          [
            8.562975,
            47.777661,
            890.0
          ],
          [
            8.562956,
            47.777764,
            892.0
          ],
          [
            8.562975,
            47.777849,
            894.0
          ],
          [
            8.563029,
            47.777921,
            896.0
          ],
          [
            8.563442,
            47.778506,
            901.0
          ],
          [
            8.563658,
            47.778923,
            901.0
          ],
          [
            8.563891,
            47.779551,
            902.0
          ],
          [
            8.563927,
            47.779901,
            903.0
          ],
          [
            8.563963,
            47.78036,
            904.0
          ],
          [
            8.564035,
            47.780782,
            905.0
          ],
          [
            8.564053,
            47.780915,
            905.0
          ],
          [
            8.564088,
            47.78109,
            905.0
          ],
          [
            8.564061,
            47.781265,
            904.0
          ],
          [
            8.563945,
            47.781603,
            904.0
          ],
          [
            8.563729,
            47.782038,
            903.0
          ],
          [
            8.563604,
            47.782231,
            903.0
          ],
          [
            8.563451,
            47.782418,
            902.0
          ],
          [
            8.562939,
            47.782968,
            901.0
          ],
          [
            8.561977,
            47.784006,
            902.0
          ],
          [
            8.561547,
            47.78444,
            902.0
          ],
          [
            8.561008,
            47.784935,
            902.0
          ],
          [
            8.560811,
            47.785122,
            902.0
          ],
          [
            8.560711,
            47.785249,
            902.0
          ],
          [
            8.560666,
            47.785327,
            902.0
          ],
          [
            8.560648,
            47.785406,
            903.0
          ],
          [
            8.560658,
            47.78552,
            910.0
          ],
          [
            8.560675,
            47.785648,
            911.0
          ],
          [
            8.560748,
            47.785949,
            914.0
          ],
          [
            8.560756,
            47.786094,
            915.0
          ],
          [
            8.560748,
            47.786179,
            915.0
          ],
          [
            8.560711,
            47.78639,
            917.0
          ],
          [
            8.560675,
            47.786619,
            919.0
          ],
          [
            8.560621,
            47.7868,
            920.0
          ],
          [
            8.560522,
            47.787024,
            920.0
          ],
          [
            8.560361,
            47.787283,
            920.0
          ],
          [
            8.560208,
            47.787507,
            919.0
          ],
          [
            8.559893,
            47.787905,
            916.0
          ],
          [
            8.55904,
            47.788895,
            905.0
          ],
          [
            8.558843,
            47.789118,
            902.0
          ],
          [
            8.558663,
            47.789293,
            899.0
          ],
          [
            8.558331,
            47.789589,
            895.0
          ],
          [
            8.558132,
            47.789794,
            893.0
          ],
          [
            8.557118,
            47.791073,
            890.0
          ],
          [
            8.557019,
            47.791206,
            890.0
          ],
          [
            8.556992,
            47.791369,
            890.0
          ],
          [
            8.556966,
            47.791659,
            890.0
          ],
          [
            8.556983,
            47.791791,
            890.0
          ],
          [
            8.557037,
            47.791906,
            890.0
          ],
          [
            8.557262,
            47.792099,
            890.0
          ],
          [
            8.55736,
            47.792274,
            890.0
          ],
          [
            8.557459,
            47.792528,
            888.0
          ],
          [
            8.55745,
            47.792691,
            887.0
          ],
          [
            8.557352,
            47.79295,
            885.0
          ],
          [
            8.557216,
            47.793173,
            883.0
          ],
          [
            8.55666,
            47.793861,
            876.0
          ],
          [
            8.556345,
            47.79432,
            870.0
          ],
          [
            8.556148,
            47.794706,
            864.0
          ],
          [
            8.556013,
            47.794827,
            862.0
          ],
          [
            8.555545,
            47.795092,
            852.0
          ],
          [
            8.555438,
            47.795147,
            850.0
          ],
          [
            8.555339,
            47.795207,
            846.0
          ],
          [
            8.555249,
            47.795292,
            843.0
          ],
          [
            8.555123,
            47.795436,
            840.0
          ],
          [
            8.554882,
            47.795738,
            840.0
          ],
          [
            8.554782,
            47.795865,
            840.0
          ],
          [
            8.554702,
            47.796004,
            840.0
          ],
          [
            8.554243,
            47.796577,
            840.0
          ],
          [
            8.553813,
            47.797132,
            840.0
          ],
          [
            8.55365,
            47.797362,
            840.0
          ],
          [
            8.553551,
            47.797537,
            840.0
          ],
          [
            8.55348,
            47.797712,
            840.0
          ],
          [
            8.553453,
            47.797869,
            840.0
          ],
          [
            8.553453,
            47.798225,
            840.0
          ],
          [
            8.553434,
            47.7984,
            840.0
          ],
          [
            8.553408,
            47.798526,
            840.0
          ],
          [
            8.553345,
            47.798689,
            840.0
          ],
          [
            8.552788,
            47.799619,
            840.0
          ],
          [
            8.552761,
            47.799709,
            840.0
          ],
          [
            8.552761,
            47.79977,
            840.0
          ],
          [
            8.552805,
            47.799848,
            840.0
          ],
          [
            8.552895,
            47.799914,
            840.0
          ],
          [
            8.553012,
            47.799951,
            840.0
          ],
          [
            8.553184,
            47.799981,
            840.0
          ],
          [
            8.553337,
            47.799999,
            840.0
          ],
          [
            8.553561,
            47.800017,
            840.0
          ],
          [
            8.553893,
            47.800041,
            840.0
          ],
          [
            8.553992,
            47.800059,
            840.0
          ],
          [
            8.554387,
            47.800168,
            840.0
          ],
          [
            8.555123,
            47.8005,
            840.0
          ],
          [
            8.555222,
            47.800524,
            840.0
          ],
          [
            8.555348,
            47.80053,
            840.0
          ],
          [
            8.555492,
            47.800494,
            840.0
          ],
          [
            8.555941,
            47.800307,
            840.0
          ],
          [
            8.556058,
            47.800277,
            840.0
          ],
          [
            8.556184,
            47.800277,
            840.0
          ],
          [
            8.556373,
            47.800307,
            840.0
          ],
          [
            8.556579,
            47.800427,
            839.0
          ],
          [
            8.556696,
            47.800542,
            838.0
          ],
          [
            8.557019,
            47.80097,
            834.0
          ],
          [
            8.557639,
            47.801591,
            828.0
          ],
          [
            8.557962,
            47.801821,
            825.0
          ],
          [
            8.558637,
            47.802231,
            820.0
          ],
          [
            8.558798,
            47.802364,
            819.0
          ],
          [
            8.558914,
            47.802503,
            818.0
          ],
          [
            8.559319,
            47.803444,
            814.0
          ],
          [
            8.559373,
            47.803541,
            814.0
          ],
          [
            8.559714,
            47.804072,
            812.0
          ],
          [
            8.560306,
            47.804403,
            810.0
          ],
          [
            8.561151,
            47.804735,
            810.0
          ],
          [
            8.561591,
            47.804838,
            810.0
          ],
          [
            8.562023,
            47.804946,
            810.0
          ],
          [
            8.562176,
            47.804995,
            810.0
          ],
          [
            8.562301,
            47.805061,
            810.0
          ],
          [
            8.562543,
            47.805212,
            811.0
          ],
          [
            8.562687,
            47.805284,
            812.0
          ],
          [
            8.562849,
            47.805363,
            813.0
          ],
          [
            8.562966,
            47.805405,
            813.0
          ],
          [
            8.563109,
            47.805435,
            814.0
          ],
          [
            8.563245,
            47.805447,
            815.0
          ],
          [
            8.563388,
            47.805447,
            816.0
          ],
          [
            8.563612,
            47.805447,
            817.0
          ],
          [
            8.563765,
            47.805465,
            818.0
          ],
          [
            8.5639,
            47.805501,
            818.0
          ],
          [
            8.564027,
            47.805562,
            819.0
          ],
          [
            8.565392,
            47.806322,
            830.0
          ],
          [
            8.565769,
            47.806533,
            830.0
          ],
          [
            8.565876,
            47.806606,
            830.0
          ],
          [
            8.566002,
            47.806708,
            830.0
          ],
          [
            8.567116,
            47.807691,
            830.0
          ],
          [
            8.567529,
            47.808096,
            830.0
          ],
          [
            8.567925,
            47.808452,
            830.0
          ],
          [
            8.567925,
            47.808452,
            830.0
          ],
          [
            8.567529,
            47.808096,
            830.0
          ],
          [
            8.567116,
            47.807691,
            830.0
          ],
          [
            8.566002,
            47.806708,
            830.0
          ],
          [
            8.565876,
            47.806606,
            830.0
          ],
          [
            8.565769,
            47.806533,
            830.0
          ],
          [
            8.565392,
            47.806322,
            830.0
          ],
          [
            8.564027,
            47.805562,
            819.0
          ],
          [
            8.5639,
            47.805501,
            818.0
          ],
          [
            8.563765,
            47.805465,
            818.0
          ],
          [
            8.563612,
            47.805447,
            817.0
          ],
          [
            8.563388,
            47.805447,
            816.0
          ],
          [
            8.563245,
            47.805447,
            815.0
          ],
          [
            8.563109,
            47.805435,
            814.0
          ],
          [
            8.562966,
            47.805405,
            813.0
          ],
          [
            8.562849,
            47.805363,
            813.0
          ],
          [
            8.562687,
            47.805284,
            812.0
          ],
          [
            8.562543,
            47.805212,
            811.0
          ],
          [
            8.562301,
            47.805061,
            810.0
          ],
          [
            8.562176,
            47.804995,
            810.0
          ],
          [
            8.562023,
            47.804946,
            810.0
          ],
          [
            8.561591,
            47.804838,
            810.0
          ],
          [
            8.561151,
            47.804735,
            810.0
          ],
          [
            8.560306,
            47.804403,
            810.0
          ],
          [
            8.559714,
            47.804072,
            812.0
          ],
          [
            8.559373,
            47.803541,
            814.0
          ],
          [
            8.559319,
            47.803444,
            814.0
          ],
          [
            8.558914,
            47.802503,
            818.0
          ],
          [
            8.558798,
            47.802364,
            819.0
          ],
          [
            8.558637,
            47.802231,
            820.0
          ],
          [
            8.557962,
            47.801821,
            825.0
          ],
          [
            8.557639,
            47.801591,
            828.0
          ],
          [
            8.557019,
            47.80097,
            834.0
          ],
          [
            8.556696,
            47.800542,
            838.0
          ],
          [
            8.556579,
            47.800427,
            839.0
          ],
          [
            8.556373,
            47.800307,
            840.0
          ],
          [
            8.556184,
            47.800277,
            840.0
          ],
          [
            8.556058,
            47.800277,
            840.0
          ],
          [
            8.555941,
            47.800307,
            840.0
          ],
          [
            8.555492,
            47.800494,
            840.0
          ],
          [
            8.555348,
            47.80053,
            840.0
          ],
          [
            8.555222,
            47.800524,
            840.0
          ],
          [
            8.555123,
            47.8005,
            840.0
          ],
          [
            8.554387,
            47.800168,
            840.0
          ],
          [
            8.553992,
            47.800059,
            840.0
          ],
          [
            8.553893,
            47.800041,
            840.0
          ],
          [
            8.553561,
            47.800017,
            840.0
          ],
          [
            8.553337,
            47.799999,
            840.0
          ],
          [
            8.553184,
            47.799981,
            840.0
          ],
          [
            8.553012,
            47.799951,
            840.0
          ],
          [
            8.552895,
            47.799914,
            840.0
          ],
          [
            8.552805,
            47.799848,
            840.0
          ],
          [
            8.552761,
            47.79977,
            840.0
          ],
          [
            8.552761,
            47.799709,
            840.0
          ],
          [
            8.552788,
            47.799619,
            840.0
          ],
          [
            8.553345,
            47.798689,
            840.0
          ],
          [
            8.553408,
            47.798526,
            840.0
          ],
          [
            8.553434,
            47.7984,
            840.0
          ],
          [
            8.553453,
            47.798225,
            840.0
          ],
          [
            8.553453,
            47.797869,
            840.0
          ],
          [
            8.55348,
            47.797712,
            840.0
          ],
          [
            8.553551,
            47.797537,
            840.0
          ],
          [
            8.55365,
            47.797362,
            840.0
          ],
          [
            8.553813,
            47.797132,
            840.0
          ],
          [
            8.554243,
            47.796577,
            840.0
          ],
          [
            8.554702,
            47.796004,
            840.0
          ],
          [
            8.554782,
            47.795865,
            840.0
          ],
          [
            8.554882,
            47.795738,
            840.0
          ],
          [
            8.555123,
            47.795436,
            840.0
          ],
          [
            8.555249,
            47.795292,
            843.0
          ],
          [
            8.555339,
            47.795207,
            846.0
          ],
          [
            8.555438,
            47.795147,
            850.0
          ],
          [
            8.555545,
            47.795092,
            852.0
          ],
          [
            8.556013,
            47.794827,
            862.0
          ],
          [
            8.556148,
            47.794706,
            864.0
          ],
          [
            8.556345,
            47.79432,
            870.0
          ],
          [
            8.55666,
            47.793861,
            876.0
          ],
          [
            8.557216,
            47.793173,
            883.0
          ],
          [
            8.557352,
            47.79295,
            885.0
          ],
          [
            8.55745,
            47.792691,
            887.0
          ],
          [
            8.557459,
            47.792528,
            888.0
          ],
          [
            8.55736,
            47.792274,
            890.0
          ],
          [
            8.557262,
            47.792099,
            890.0
          ],
          [
            8.557037,
            47.791906,
            890.0
          ],
          [
            8.557127,
            47.79184,
            890.0
          ],
          [
            8.557845,
            47.791073,
            890.0
          ],
          [
            8.558016,
            47.790862,
            890.0
          ],
          [
            8.558016,
            47.790862,
            890.0
          ],
          [
            8.558106,
            47.790747,
            890.0
          ],
          [
            8.558474,
            47.790584,
            885.0
          ],
          [
            8.559031,
            47.790476,
            880.0
          ],
          [
            8.559705,
            47.790415,
            879.0
          ],
          [
            8.560352,
            47.790452,
            879.0
          ],
          [
            8.560935,
            47.790596,
            878.0
          ],
          [
            8.561241,
            47.790723,
            878.0
          ],
          [
            8.562516,
            47.790747,
            876.0
          ],
          [
            8.563558,
            47.79079,
            875.0
          ],
          [
            8.563954,
            47.790777,
            875.0
          ],
          [
            8.564448,
            47.790747,
            875.0
          ],
          [
            8.564924,
            47.790699,
            874.0
          ],
          [
            8.565329,
            47.790621,
            874.0
          ],
          [
            8.566111,
            47.790409,
            873.0
          ],
          [
            8.566793,
            47.790246,
            872.0
          ],
          [
            8.567394,
            47.79012,
            872.0
          ],
          [
            8.567862,
            47.789945,
            871.0
          ],
          [
            8.568491,
            47.789957,
            871.0
          ],
          [
            8.568814,
            47.790029,
            870.0
          ],
          [
            8.569361,
            47.790041,
            869.0
          ],
          [
            8.569667,
            47.790096,
            868.0
          ],
          [
            8.570017,
            47.790186,
            867.0
          ],
          [
            8.570233,
            47.790198,
            867.0
          ],
          [
            8.570422,
            47.79021,
            866.0
          ],
          [
            8.571805,
            47.79012,
            863.0
          ],
          [
            8.572174,
            47.790096,
            862.0
          ],
          [
            8.572308,
            47.790077,
            861.0
          ],
          [
            8.572766,
            47.789951,
            860.0
          ],
          [
            8.572973,
            47.789933,
            860.0
          ],
          [
            8.573233,
            47.789927,
            860.0
          ],
          [
            8.57353,
            47.789902,
            860.0
          ],
          [
            8.573799,
            47.789842,
            860.0
          ],
          [
            8.574501,
            47.789619,
            860.0
          ],
          [
            8.57495,
            47.789528,
            860.0
          ],
          [
            8.575093,
            47.789492,
            860.0
          ],
          [
            8.575785,
            47.789444,
            860.0
          ],
          [
            8.576531,
            47.789251,
            859.0
          ],
          [
            8.578363,
            47.788846,
            856.0
          ],
          [
            8.578588,
            47.78881,
            856.0
          ],
          [
            8.579414,
            47.78884,
            854.0
          ],
          [
            8.579864,
            47.788882,
            854.0
          ],
          [
            8.580231,
            47.788907,
            853.0
          ],
          [
            8.580313,
            47.788907,
            853.0
          ],
          [
            8.581013,
            47.788834,
            852.0
          ],
          [
            8.581292,
            47.788786,
            852.0
          ],
          [
            8.581409,
            47.788756,
            852.0
          ],
          [
            8.581552,
            47.788744,
            851.0
          ],
          [
            8.581722,
            47.788756,
            851.0
          ],
          [
            8.583942,
            47.789039,
            841.0
          ],
          [
            8.584336,
            47.789106,
            839.0
          ],
          [
            8.584669,
            47.78919,
            837.0
          ],
          [
            8.584678,
            47.78922,
            837.0
          ],
          [
            8.585038,
            47.78913,
            834.0
          ],
          [
            8.585325,
            47.7891,
            833.0
          ],
          [
            8.585487,
            47.789106,
            832.0
          ],
          [
            8.586043,
            47.78913,
            827.0
          ],
          [
            8.587076,
            47.789094,
            813.0
          ],
          [
            8.587472,
            47.789094,
            807.0
          ],
          [
            8.587804,
            47.789136,
            801.0
          ],
          [
            8.588164,
            47.789226,
            789.0
          ],
          [
            8.588594,
            47.789281,
            778.0
          ],
          [
            8.588891,
            47.789329,
            770.0
          ],
          [
            8.589143,
            47.789317,
            764.0
          ],
          [
            8.589422,
            47.789335,
            758.0
          ],
          [
            8.589862,
            47.789335,
            749.0
          ],
          [
            8.589906,
            47.789329,
            749.0
          ],
          [
            8.589934,
            47.789329,
            748.0
          ],
          [
            8.589934,
            47.789311,
            748.0
          ],
          [
            8.589925,
            47.789287,
            747.0
          ],
          [
            8.590112,
            47.789299,
            745.0
          ],
          [
            8.590212,
            47.789275,
            744.0
          ],
          [
            8.590292,
            47.789269,
            742.0
          ],
          [
            8.590554,
            47.789281,
            739.0
          ],
          [
            8.591217,
            47.789269,
            732.0
          ],
          [
            8.591389,
            47.789257,
            730.0
          ],
          [
            8.591542,
            47.789245,
            729.0
          ],
          [
            8.591793,
            47.789172,
            726.0
          ],
          [
            8.591873,
            47.789154,
            725.0
          ],
          [
            8.591982,
            47.789154,
            724.0
          ],
          [
            8.592251,
            47.789178,
            721.0
          ],
          [
            8.592422,
            47.789208,
            719.0
          ],
          [
            8.592638,
            47.78922,
            717.0
          ],
          [
            8.592898,
            47.789202,
            714.0
          ],
          [
            8.592978,
            47.78919,
            713.0
          ],
          [
            8.593688,
            47.7891,
            705.0
          ],
          [
            8.595018,
            47.788937,
            692.0
          ],
          [
            8.595108,
            47.788925,
            691.0
          ],
          [
            8.595781,
            47.788834,
            684.0
          ],
          [
            8.59632,
            47.788822,
            678.0
          ],
          [
            8.596967,
            47.788834,
            671.0
          ],
          [
            8.597991,
            47.788955,
            660.0
          ],
          [
            8.598278,
            47.788973,
            657.0
          ],
          [
            8.598988,
            47.789045,
            651.0
          ],
          [
            8.599276,
            47.7891,
            646.0
          ],
          [
            8.599339,
            47.789094,
            645.0
          ],
          [
            8.600175,
            47.789263,
            643.0
          ],
          [
            8.600767,
            47.789383,
            642.0
          ],
          [
            8.601297,
            47.789438,
            642.0
          ],
          [
            8.602267,
            47.789613,
            640.0
          ],
          [
            8.602699,
            47.789655,
            638.0
          ],
          [
            8.603012,
            47.789673,
            636.0
          ],
          [
            8.603282,
            47.789655,
            635.0
          ],
          [
            8.603542,
            47.789607,
            633.0
          ],
          [
            8.603704,
            47.789564,
            633.0
          ],
          [
            8.604181,
            47.789522,
            630.0
          ],
          [
            8.604244,
            47.789534,
            630.0
          ],
          [
            8.60497,
            47.789613,
            627.0
          ],
          [
            8.605106,
            47.789631,
            626.0
          ],
          [
            8.60551,
            47.789673,
            624.0
          ],
          [
            8.606211,
            47.7898,
            621.0
          ],
          [
            8.60649,
            47.789872,
            620.0
          ],
          [
            8.606624,
            47.789939,
            619.0
          ],
          [
            8.60684,
            47.790089,
            618.0
          ],
          [
            8.607037,
            47.79021,
            618.0
          ],
          [
            8.60736,
            47.790397,
            616.0
          ],
          [
            8.607576,
            47.790446,
            616.0
          ],
          [
            8.608565,
            47.790771,
            612.0
          ],
          [
            8.608815,
            47.790856,
            612.0
          ],
          [
            8.608987,
            47.790916,
            611.0
          ],
          [
            8.609058,
            47.790952,
            611.0
          ],
          [
            8.609121,
            47.791001,
            610.0
          ],
          [
            8.60922,
            47.791097,
            609.0
          ],
          [
            8.609463,
            47.791592,
            604.0
          ],
          [
            8.609534,
            47.791683,
            605.0
          ],
          [
            8.609651,
            47.791773,
            605.0
          ],
          [
            8.609813,
            47.791828,
            605.0
          ],
          [
            8.610154,
            47.791858,
            606.0
          ],
          [
            8.610236,
            47.791864,
            606.0
          ],
          [
            8.610765,
            47.79193,
            602.0
          ],
          [
            8.611008,
            47.791948,
            600.0
          ],
          [
            8.611052,
            47.792057,
            600.0
          ],
          [
            8.611098,
            47.792045,
            600.0
          ],
          [
            8.611169,
            47.792027,
            600.0
          ],
          [
            8.611251,
            47.792027,
            600.0
          ],
          [
            8.611349,
            47.792027,
            600.0
          ]
        ]
      }
    }
  ]
}