{
  "type": "FeatureCollection",
  "features": [
    {
      "type": "Feature",
      "properties": {},
      "geometry": {
        "type": "LineString",
        "coordinates": [
          [
            9.777497,
            46.588262
          ],
          [
            9.777461,
            46.588287
          ],
          [
            9.777183,
            46.58841
          ],
          [
            9.777147,
            46.588373
          ],
          [
            9.776437,
            46.58867
          ],
          [
            9.775709,
            46.588953
          ],
          [
            9.775682,
            46.588965
          ],
          [
            9.775665,
            46.588978
          ],
          [
            9.775655,
            46.588996
          ],
          [
            9.775655,
            46.589009
          ],
          [
            9.775655,
            46.589028
          ],
          [
            9.775665,
            46.589059
          ],
          [
            9.775665,
            46.589071
          ],
          [
            9.775665,
            46.589083
          ],
          [
            9.775665,
            46.589089
          ],
          [
            9.775619,
            46.589175
          ],
          [
            9.775575,
            46.589151
          ],
          [
            9.775512,
            46.589132
          ],
          [
            9.775405,
            46.589138
          ],
          [
            9.775332,
            46.589157
          ],
          [
            9.775225,
            46.5892
          ],
          [
            9.775116,
            46.589293
          ],
          [
            9.775036,
            46.589354
          ],
          [
            9.774982,
            46.589379
          ],
          [
            9.774919,
            46.589385
          ],
          [
            9.774866,
            46.589379
          ],
          [
            9.774829,
            46.589367
          ],
          [
            9.77465,
            46.589287
          ],
          [
            9.774632,
            46.589244
          ],
          [
            9.774659,
            46.589206
          ],
          [
            9.774713,
            46.589169
          ],
          [
            9.774802,
            46.589126
          ],
          [
            9.774856,
            46.589071
          ],
          [
            9.775216,
            46.588873
          ],
          [
            9.775386,
            46.58862
          ],
          [
            9.775405,
            46.588546
          ],
          [
            9.775386,
            46.588497
          ],
          [
            9.775323,
            46.588385
          ],
          [
            9.775162,
            46.5882
          ],
          [
            9.775108,
            46.588133
          ],
          [
            9.775026,
            46.588064
          ],
          [
            9.774963,
            46.588009
          ],
          [
            9.774892,
            46.58799
          ],
          [
            9.774686,
            46.587891
          ],
          [
            9.77456,
            46.587762
          ],
          [
            9.774892,
            46.587614
          ],
          [
            9.775063,
            46.587502
          ],
          [
            9.775619,
            46.587447
          ],
          [
            9.775979,
            46.587354
          ],
          [
            9.776958,
            46.587182
          ],
          [
            9.777192,
            46.587101
          ],
          [
            9.776401,
            46.586762
          ],
          [
            9.775971,
            46.586817
          ],
          [
            9.775791,
            46.586811
          ],
          [
            9.775575,
            46.586774
          ],
          [
            9.774937,
            46.586755
          ],
          [
            9.774667,
            46.586805
          ],
          [
            9.7749,
            46.586447
          ],
          [
            9.774963,
            46.586379
          ],
          [
            9.775242,
            46.586243
          ],
          [
            9.775395,
            46.586181
          ],
          [
            9.775602,
            46.58612
          ],
          [
            9.775709,
            46.586089
          ],
          [
            9.775845,
            46.58607
          ],
          [
            9.776024,
            46.585996
          ],
          [
            9.776122,
            46.58599
          ],
          [
            9.776275,
            46.586015
          ],
          [
            9.776734,
            46.585996
          ],
          [
            9.776814,
            46.585965
          ],
          [
            9.777021,
            46.585848
          ],
          [
            9.777416,
            46.585749
          ],
          [
            9.777866,
            46.585471
          ],
          [
            9.778206,
            46.585236
          ],
          [
            9.778288,
            46.585157
          ],
          [
            9.778296,
            46.585039
          ],
          [
            9.778288,
            46.584829
          ],
          [
            9.778655,
            46.584465
          ],
          [
            9.77915,
            46.584218
          ],
          [
            9.779573,
            46.58399
          ],
          [
            9.779554,
            46.583952
          ],
          [
            9.779474,
            46.583885
          ],
          [
            9.779428,
            46.583854
          ],
          [
            9.779653,
            46.583761
          ],
          [
            9.779904,
            46.583675
          ],
          [
            9.780219,
            46.58357
          ],
          [
            9.781055,
            46.583274
          ],
          [
            9.781395,
            46.583243
          ],
          [
            9.781719,
            46.583175
          ],
          [
            9.781808,
            46.583199
          ],
          [
            9.781837,
            46.583169
          ],
          [
            9.781863,
            46.583126
          ],
          [
            9.781926,
            46.583088
          ],
          [
            9.782024,
            46.583045
          ],
          [
            9.782133,
            46.582983
          ],
          [
            9.782294,
            46.582816
          ],
          [
            9.782437,
            46.582613
          ],
          [
            9.782546,
            46.582464
          ],
          [
            9.782644,
            46.582464
          ],
          [
            9.782707,
            46.58244
          ],
          [
            9.782842,
            46.582403
          ],
          [
            9.782923,
            46.582341
          ],
          [
            9.78295,
            46.582285
          ],
          [
            9.783022,
            46.582175
          ],
          [
            9.783175,
            46.58202
          ],
          [
            9.783229,
            46.581946
          ],
          [
            9.783309,
            46.581866
          ],
          [
            9.783839,
            46.581459
          ],
          [
            9.784342,
            46.581199
          ],
          [
            9.784827,
            46.580624
          ],
          [
            9.785097,
            46.580532
          ],
          [
            9.785114,
            46.580483
          ],
          [
            9.78516,
            46.580353
          ],
          [
            9.785411,
            46.580248
          ],
          [
            9.785456,
            46.580229
          ],
          [
            9.785663,
            46.580168
          ],
          [
            9.785735,
            46.580223
          ],
          [
            9.785735,
            46.580223
          ],
          [
            9.785959,
            46.580415
          ],
          [
            9.786112,
            46.580476
          ],
          [
            9.786364,
            46.580495
          ],
          [
            9.786481,
            46.580569
          ],
          [
            9.786588,
            46.580588
          ],
          [
            9.786732,
            46.580674
          ],
          [
            9.786992,
            46.580711
          ],
          [
            9.787064,
            46.580643
          ],
          [
            9.78719,
            46.580458
          ],
          [
            9.78755,
            46.580483
          ],
          [
            9.787963,
            46.580643
          ],
          [
            9.788502,
            46.580693
          ],
          [
            9.789022,
            46.580791
          ],
          [
            9.789085,
            46.580803
          ],
          [
            9.789471,
            46.580909
          ],
          [
            9.789598,
            46.580976
          ],
          [
            9.79028,
            46.580903
          ],
          [
            9.790477,
            46.580989
          ],
          [
            9.790577,
            46.581082
          ],
          [
            9.790774,
            46.581063
          ],
          [
            9.791223,
            46.581076
          ],
          [
            9.791708,
            46.581107
          ],
          [
            9.792445,
            46.581113
          ],
          [
            9.792814,
            46.581267
          ],
          [
            9.793127,
            46.581434
          ],
          [
            9.793416,
            46.581538
          ],
          [
            9.793865,
            46.581575
          ],
          [
            9.794655,
            46.581459
          ],
          [
            9.794808,
            46.581415
          ],
          [
            9.795059,
            46.581459
          ],
          [
            9.79532,
            46.581575
          ],
          [
            9.79585,
            46.581613
          ],
          [
            9.796137,
            46.581569
          ],
          [
            9.796343,
            46.581526
          ],
          [
            9.796569,
            46.581551
          ],
          [
            9.796793,
            46.581526
          ],
          [
            9.796892,
            46.581575
          ],
          [
            9.797062,
            46.581613
          ],
          [
            9.797359,
            46.581606
          ],
          [
            9.797781,
            46.581526
          ],
          [
            9.797987,
            46.581544
          ],
          [
            9.798446,
            46.581459
          ],
          [
            9.798563,
            46.581465
          ],
          [
            9.798697,
            46.581452
          ],
          [
            9.798779,
            46.581459
          ],
          [
            9.798886,
            46.581471
          ],
          [
            9.798985,
            46.581483
          ],
          [
            9.799083,
            46.581477
          ],
          [
            9.799282,
            46.581452
          ],
          [
            9.79938,
            46.581446
          ],
          [
            9.799668,
            46.581452
          ],
          [
            9.799739,
            46.581446
          ],
          [
            9.800081,
            46.581378
          ],
          [
            9.800135,
            46.581403
          ],
          [
            9.80018,
            46.581421
          ],
          [
            9.800207,
            46.581471
          ],
          [
            9.800215,
            46.58152
          ],
          [
            9.800224,
            46.581563
          ],
          [
            9.800278,
            46.581557
          ],
          [
            9.800324,
            46.581588
          ],
          [
            9.800387,
            46.581631
          ],
          [
            9.800414,
            46.581675
          ],
          [
            9.800477,
            46.581723
          ],
          [
            9.800584,
            46.581754
          ],
          [
            9.800638,
            46.581779
          ],
          [
            9.800817,
            46.581798
          ],
          [
            9.801014,
            46.581798
          ],
          [
            9.801194,
            46.581792
          ],
          [
            9.801293,
            46.581786
          ],
          [
            9.801446,
            46.581767
          ],
          [
            9.801689,
            46.581786
          ],
          [
            9.801913,
            46.581829
          ],
          [
            9.802119,
            46.581896
          ],
          [
            9.802318,
            46.581965
          ],
          [
            9.802596,
            46.581971
          ],
          [
            9.80292,
            46.581977
          ],
          [
            9.803198,
            46.581965
          ],
          [
            9.80336,
            46.581977
          ],
          [
            9.803477,
            46.58202
          ],
          [
            9.803566,
            46.582033
          ],
          [
            9.803593,
            46.582027
          ],
          [
            9.803656,
            46.581989
          ],
          [
            9.803664,
            46.581971
          ],
          [
            9.80371,
            46.58194
          ],
          [
            9.803773,
            46.581896
          ],
          [
            9.80388,
            46.581854
          ],
          [
            9.803997,
            46.581829
          ],
          [
            9.804132,
            46.58181
          ],
          [
            9.80424,
            46.581779
          ],
          [
            9.804356,
            46.581736
          ],
          [
            9.804698,
            46.58173
          ],
          [
            9.804932,
            46.581748
          ],
          [
            9.805255,
            46.581687
          ],
          [
            9.80548,
            46.581631
          ],
          [
            9.805597,
            46.581606
          ],
          [
            9.805695,
            46.581544
          ],
          [
            9.805794,
            46.581483
          ],
          [
            9.806171,
            46.581347
          ],
          [
            9.806404,
            46.581261
          ],
          [
            9.80663,
            46.581125
          ],
          [
            9.807069,
            46.580976
          ],
          [
            9.807222,
            46.580946
          ],
          [
            9.807419,
            46.580946
          ],
          [
            9.807672,
            46.580915
          ],
          [
            9.807779,
            46.58089
          ],
          [
            9.807941,
            46.580847
          ],
          [
            9.808121,
            46.580791
          ],
          [
            9.80822,
            46.580767
          ],
          [
            9.808318,
            46.580755
          ],
          [
            9.808462,
            46.580748
          ],
          [
            9.808534,
            46.580755
          ],
          [
            9.808597,
            46.580767
          ],
          [
            9.808696,
            46.580779
          ],
          [
            9.808767,
            46.580785
          ],
          [
            9.808813,
            46.580773
          ],
          [
            9.808857,
            46.580767
          ],
          [
            9.808903,
            46.580779
          ],
          [
            9.808947,
            46.580803
          ],
          [
            9.80901,
            46.580884
          ],
          [
            9.809064,
            46.580964
          ],
          [
            9.809136,
            46.58102
          ],
          [
            9.809217,
            46.581057
          ],
          [
            9.809343,
            46.581057
          ],
          [
            9.809549,
            46.580995
          ],
          [
            9.809756,
            46.580946
          ],
          [
            9.809855,
            46.58097
          ],
          [
            9.809899,
            46.581026
          ],
          [
            9.80998,
            46.581076
          ],
          [
            9.810214,
            46.581107
          ],
          [
            9.810312,
            46.581131
          ],
          [
            9.810394,
            46.581174
          ],
          [
            9.810492,
            46.581174
          ],
          [
            9.810618,
            46.581162
          ],
          [
            9.810735,
            46.581199
          ],
          [
            9.810905,
            46.581168
          ],
          [
            9.811004,
            46.581149
          ],
          [
            9.811167,
            46.581125
          ],
          [
            9.811408,
            46.581014
          ],
          [
            9.811651,
            46.580909
          ],
          [
            9.81183,
            46.580866
          ],
          [
            9.811939,
            46.580853
          ],
          [
            9.812163,
            46.580859
          ],
          [
            9.81236,
            46.580847
          ],
          [
            9.812459,
            46.580841
          ],
          [
            9.812568,
            46.580853
          ],
          [
            9.812693,
            46.580847
          ],
          [
            9.812738,
            46.580841
          ],
          [
            9.812775,
            46.580828
          ],
          [
            9.812809,
            46.580803
          ],
          [
            9.812864,
            46.580767
          ],
          [
            9.812926,
            46.580736
          ],
          [
            9.813035,
            46.580693
          ],
          [
            9.813142,
            46.58068
          ],
          [
            9.813241,
            46.58068
          ],
          [
            9.813322,
            46.580687
          ],
          [
            9.813394,
            46.580699
          ],
          [
            9.813475,
            46.580711
          ],
          [
            9.813547,
            46.58073
          ],
          [
            9.813664,
            46.580748
          ],
          [
            9.813735,
            46.580755
          ],
          [
            9.81378,
            46.580742
          ],
          [
            9.813968,
            46.580674
          ],
          [
            9.814058,
            46.580631
          ],
          [
            9.814193,
            46.580588
          ],
          [
            9.814274,
            46.580557
          ],
          [
            9.81431,
            46.580539
          ],
          [
            9.814391,
            46.580495
          ],
          [
            9.814472,
            46.580439
          ],
          [
            9.81458,
            46.580384
          ],
          [
            9.814679,
            46.580273
          ],
          [
            9.814777,
            46.580205
          ],
          [
            9.814849,
            46.580174
          ],
          [
            9.814956,
            46.5801
          ],
          [
            9.815002,
            46.580081
          ],
          [
            9.8151,
            46.58002
          ],
          [
            9.81519,
            46.57997
          ],
          [
            9.815335,
            46.579921
          ],
          [
            9.815442,
            46.57989
          ],
          [
            9.815585,
            46.579841
          ],
          [
            9.815639,
            46.579816
          ],
          [
            9.815253,
            46.579686
          ],
          [
            9.814948,
            46.579513
          ],
          [
            9.81458,
            46.579433
          ],
          [
            9.81431,
            46.579254
          ],
          [
            9.813861,
            46.578797
          ],
          [
            9.813708,
            46.578667
          ],
          [
            9.813574,
            46.578433
          ],
          [
            9.81343,
            46.578359
          ],
          [
            9.813457,
            46.578062
          ],
          [
            9.813402,
            46.577964
          ],
          [
            9.813375,
            46.577939
          ],
          [
            9.813349,
            46.577933
          ],
          [
            9.813268,
            46.577945
          ],
          [
            9.813188,
            46.577889
          ],
          [
            9.813088,
            46.577834
          ],
          [
            9.812899,
            46.577741
          ],
          [
            9.812864,
            46.577679
          ],
          [
            9.812801,
            46.577612
          ],
          [
            9.812809,
            46.577581
          ],
          [
            9.812809,
            46.57755
          ],
          [
            9.812836,
            46.57755
          ],
          [
            9.812864,
            46.577562
          ],
          [
            9.812872,
            46.577556
          ],
          [
            9.812855,
            46.577531
          ],
          [
            9.812855,
            46.5775
          ],
          [
            9.812872,
            46.57742
          ],
          [
            9.812872,
            46.577383
          ],
          [
            9.812899,
            46.577333
          ],
          [
            9.812954,
            46.577352
          ],
          [
            9.813035,
            46.577389
          ],
          [
            9.813071,
            46.577408
          ],
          [
            9.813115,
            46.577396
          ],
          [
            9.813161,
            46.577278
          ],
          [
            9.813169,
            46.577192
          ],
          [
            9.813161,
            46.577075
          ],
          [
            9.813232,
            46.576963
          ],
          [
            9.813224,
            46.576803
          ],
          [
            9.813224,
            46.576784
          ],
          [
            9.813259,
            46.576686
          ],
          [
            9.813331,
            46.576599
          ],
          [
            9.813071,
            46.576494
          ],
          [
            9.812989,
            46.576334
          ],
          [
            9.812729,
            46.576124
          ],
          [
            9.81228,
            46.575907
          ],
          [
            9.811893,
            46.575753
          ],
          [
            9.811794,
            46.575691
          ],
          [
            9.811651,
            46.575499
          ],
          [
            9.811759,
            46.575481
          ],
          [
            9.811876,
            46.575537
          ],
          [
            9.811966,
            46.575524
          ],
          [
            9.812064,
            46.575481
          ],
          [
            9.81218,
            46.575475
          ],
          [
            9.812226,
            46.575518
          ],
          [
            9.812343,
            46.575518
          ],
          [
            9.812442,
            46.575537
          ],
          [
            9.812496,
            46.575512
          ],
          [
            9.812433,
            46.575475
          ],
          [
            9.812423,
            46.575432
          ],
          [
            9.812478,
            46.575376
          ],
          [
            9.812459,
            46.575166
          ],
          [
            9.812406,
            46.575117
          ],
          [
            9.811884,
            46.574956
          ],
          [
            9.811813,
            46.574919
          ],
          [
            9.811732,
            46.574827
          ],
          [
            9.811553,
            46.57474
          ],
          [
            9.811417,
            46.574654
          ],
          [
            9.811364,
            46.574598
          ],
          [
            9.811228,
            46.574567
          ],
          [
            9.811103,
            46.574469
          ],
          [
            9.810888,
            46.574197
          ],
          [
            9.810708,
            46.573993
          ],
          [
            9.810627,
            46.573863
          ],
          [
            9.810572,
            46.573727
          ],
          [
            9.810268,
            46.573443
          ],
          [
            9.810276,
            46.573376
          ],
          [
            9.810222,
            46.573295
          ],
          [
            9.810106,
            46.573153
          ],
          [
            9.809909,
            46.573067
          ],
          [
            9.809765,
            46.572924
          ],
          [
            9.809234,
            46.572801
          ],
          [
            9.809136,
            46.572733
          ],
          [
            9.80901,
            46.572733
          ],
          [
            9.808794,
            46.572659
          ],
          [
            9.808704,
            46.572597
          ],
          [
            9.808641,
            46.572591
          ],
          [
            9.808381,
            46.572572
          ],
          [
            9.808274,
            46.572505
          ],
          [
            9.808192,
            46.572474
          ],
          [
            9.80813,
            46.572474
          ],
          [
            9.808058,
            46.572437
          ],
          [
            9.808004,
            46.572437
          ],
          [
            9.807824,
            46.572381
          ],
          [
            9.807779,
            46.57235
          ],
          [
            9.807438,
            46.57227
          ],
          [
            9.807222,
            46.572245
          ],
          [
            9.807159,
            46.57222
          ],
          [
            9.806943,
            46.572072
          ],
          [
            9.806854,
            46.572035
          ],
          [
            9.806674,
            46.572017
          ],
          [
            9.806288,
            46.572004
          ],
          [
            9.806234,
            46.571986
          ],
          [
            9.806163,
            46.57198
          ],
          [
            9.80601,
            46.571862
          ],
          [
            9.805848,
            46.571868
          ],
          [
            9.805758,
            46.571831
          ],
          [
            9.805551,
            46.57161
          ],
          [
            9.805498,
            46.571603
          ],
          [
            9.805272,
            46.571603
          ],
          [
            9.805148,
            46.571585
          ],
          [
            9.805022,
            46.571517
          ],
          [
            9.804985,
            46.571461
          ],
          [
            9.804995,
            46.571387
          ],
          [
            9.804976,
            46.571344
          ],
          [
            9.804878,
            46.571337
          ],
          [
            9.804735,
            46.571356
          ],
          [
            9.804609,
            46.57135
          ],
          [
            9.804293,
            46.571313
          ],
          [
            9.804123,
            46.571381
          ],
          [
            9.803934,
            46.571418
          ],
          [
            9.803693,
            46.571387
          ],
          [
            9.803521,
            46.57143
          ],
          [
            9.803431,
            46.571443
          ],
          [
            9.803368,
            46.571443
          ],
          [
            9.80327,
            46.571437
          ],
          [
            9.803135,
            46.571412
          ],
          [
            9.80301,
            46.571406
          ],
          [
            9.802838,
            46.571276
          ],
          [
            9.802767,
            46.571189
          ],
          [
            9.802596,
            46.571189
          ],
          [
            9.802416,
            46.57114
          ],
          [
            9.802318,
            46.571072
          ],
          [
            9.802228,
            46.571097
          ],
          [
            9.802182,
            46.571171
          ],
          [
            9.802022,
            46.571171
          ],
          [
            9.80203,
            46.571041
          ],
          [
            9.801995,
            46.570986
          ],
          [
            9.801968,
            46.570967
          ],
          [
            9.801976,
            46.570942
          ],
          [
            9.80194,
            46.570936
          ],
          [
            9.801886,
            46.570869
          ],
          [
            9.801886,
            46.570856
          ],
          [
            9.801842,
            46.570844
          ],
          [
            9.801733,
            46.570831
          ],
          [
            9.801716,
            46.570794
          ],
          [
            9.801706,
            46.570769
          ],
          [
            9.80167,
            46.570745
          ],
          [
            9.801635,
            46.570751
          ],
          [
            9.801608,
            46.570782
          ],
          [
            9.801545,
            46.570775
          ],
          [
            9.8015,
            46.570813
          ],
          [
            9.80149,
            46.570819
          ],
          [
            9.801464,
            46.5708
          ],
          [
            9.801429,
            46.570702
          ],
          [
            9.801437,
            46.57059
          ],
          [
            9.80114,
            46.570448
          ],
          [
            9.801033,
            46.570374
          ],
          [
            9.800907,
            46.570313
          ],
          [
            9.800773,
            46.570195
          ],
          [
            9.800511,
            46.57014
          ],
          [
            9.800431,
            46.570121
          ],
          [
            9.80027,
            46.570053
          ],
          [
            9.800108,
            46.570028
          ],
          [
            9.799911,
            46.570047
          ],
          [
            9.799435,
            46.570127
          ],
          [
            9.799345,
            46.570053
          ],
          [
            9.799272,
            46.570034
          ],
          [
            9.7992,
            46.569979
          ],
          [
            9.799102,
            46.569955
          ],
          [
            9.798966,
            46.569899
          ],
          [
            9.79884,
            46.569911
          ],
          [
            9.798743,
            46.569868
          ],
          [
            9.798482,
            46.569868
          ],
          [
            9.798068,
            46.569868
          ],
          [
            9.79788,
            46.569806
          ],
          [
            9.797764,
            46.569682
          ],
          [
            9.797674,
            46.569658
          ],
          [
            9.79753,
            46.569528
          ],
          [
            9.797242,
            46.569263
          ],
          [
            9.797098,
            46.569213
          ],
          [
            9.796605,
            46.56912
          ],
          [
            9.796263,
            46.569047
          ],
          [
            9.795993,
            46.569016
          ],
          [
            9.795823,
            46.568978
          ],
          [
            9.795634,
            46.568972
          ],
          [
            9.7955,
            46.568935
          ],
          [
            9.795356,
            46.568874
          ],
          [
            9.795337,
            46.568843
          ],
          [
            9.795301,
            46.568725
          ],
          [
            9.795293,
            46.56862
          ],
          [
            9.795274,
            46.568571
          ],
          [
            9.795177,
            46.568491
          ],
          [
            9.79514,
            46.568435
          ],
          [
            9.795167,
            46.568392
          ],
          [
            9.795194,
            46.568343
          ],
          [
            9.795257,
            46.568293
          ],
          [
            9.795203,
            46.568219
          ],
          [
            9.795122,
            46.568003
          ],
          [
            9.795024,
            46.567898
          ],
          [
            9.795059,
            46.567774
          ],
          [
            9.795077,
            46.567675
          ],
          [
            9.795158,
            46.567589
          ],
          [
            9.795203,
            46.567515
          ],
          [
            9.795328,
            46.567484
          ],
          [
            9.795607,
            46.567472
          ],
          [
            9.795687,
            46.567441
          ],
          [
            9.795777,
            46.567379
          ],
          [
            9.795949,
            46.567385
          ],
          [
            9.796119,
            46.567342
          ],
          [
            9.796343,
            46.567237
          ],
          [
            9.796469,
            46.567126
          ],
          [
            9.796542,
            46.567015
          ],
          [
            9.796595,
            46.566823
          ],
          [
            9.796649,
            46.56678
          ],
          [
            9.796703,
            46.566761
          ],
          [
            9.796748,
            46.566731
          ],
          [
            9.796785,
            46.566681
          ],
          [
            9.796785,
            46.566644
          ],
          [
            9.796811,
            46.566601
          ],
          [
            9.796882,
            46.566558
          ],
          [
            9.796982,
            46.566477
          ],
          [
            9.796999,
            46.566452
          ],
          [
            9.797026,
            46.566434
          ],
          [
            9.797089,
            46.566421
          ],
          [
            9.797161,
            46.566342
          ],
          [
            9.797179,
            46.566267
          ],
          [
            9.797314,
            46.566175
          ],
          [
            9.797385,
            46.566144
          ],
          [
            9.797395,
            46.566082
          ],
          [
            9.79735,
            46.566014
          ],
          [
            9.797332,
            46.565959
          ],
          [
            9.797269,
            46.565854
          ],
          [
            9.797269,
            46.565804
          ],
          [
            9.797261,
            46.565755
          ],
          [
            9.797261,
            46.565699
          ],
          [
            9.797305,
            46.565569
          ],
          [
            9.797332,
            46.565508
          ],
          [
            9.797368,
            46.565446
          ],
          [
            9.797395,
            46.565396
          ],
          [
            9.797368,
            46.565353
          ],
          [
            9.797377,
            46.565322
          ],
          [
            9.797485,
            46.565199
          ],
          [
            9.797835,
            46.56489
          ],
          [
            9.797907,
            46.564865
          ],
          [
            9.797978,
            46.564822
          ],
          [
            9.79832,
            46.564501
          ],
          [
            9.79841,
            46.564334
          ],
          [
            9.798553,
            46.564205
          ],
          [
            9.798563,
            46.564149
          ],
          [
            9.798643,
            46.564056
          ],
          [
            9.798787,
            46.563982
          ],
          [
            9.798859,
            46.563853
          ],
          [
            9.798949,
            46.563828
          ],
          [
            9.799012,
            46.56376
          ],
          [
            9.799192,
            46.563686
          ],
          [
            9.799398,
            46.563741
          ],
          [
            9.799452,
            46.563716
          ],
          [
            9.799469,
            46.563667
          ],
          [
            9.799372,
            46.563543
          ],
          [
            9.799255,
            46.563457
          ],
          [
            9.799353,
            46.563426
          ],
          [
            9.799506,
            46.563426
          ],
          [
            9.799443,
            46.56334
          ],
          [
            9.799605,
            46.563383
          ],
          [
            9.799668,
            46.563439
          ],
          [
            9.799838,
            46.563507
          ],
          [
            9.799821,
            46.563426
          ],
          [
            9.799964,
            46.563476
          ],
          [
            9.80009,
            46.563556
          ],
          [
            9.800511,
            46.563692
          ],
          [
            9.800431,
            46.563513
          ],
          [
            9.800368,
            46.563414
          ],
          [
            9.800458,
            46.563414
          ],
          [
            9.800574,
            46.563495
          ],
          [
            9.8008,
            46.563574
          ],
          [
            9.800853,
            46.563507
          ],
          [
            9.80089,
            46.563543
          ],
          [
            9.801087,
            46.563574
          ],
          [
            9.801293,
            46.563587
          ],
          [
            9.801194,
            46.563507
          ],
          [
            9.801366,
            46.563525
          ],
          [
            9.801743,
            46.563618
          ],
          [
            9.801886,
            46.563686
          ],
          [
            9.801895,
            46.563562
          ],
          [
            9.801842,
            46.563519
          ],
          [
            9.801823,
            46.563488
          ],
          [
            9.801869,
            46.563488
          ],
          [
            9.802022,
            46.563568
          ],
          [
            9.802022,
            46.563495
          ],
          [
            9.801985,
            46.563426
          ],
          [
            9.80194,
            46.563389
          ],
          [
            9.801995,
            46.563377
          ],
          [
            9.802111,
            46.56342
          ],
          [
            9.802174,
            46.563476
          ],
          [
            9.802219,
            46.563543
          ],
          [
            9.802326,
            46.563568
          ],
          [
            9.802551,
            46.563605
          ],
          [
            9.80274,
            46.563574
          ],
          [
            9.80283,
            46.563568
          ],
          [
            9.802802,
            46.563525
          ],
          [
            9.802874,
            46.563531
          ],
          [
            9.802731,
            46.563414
          ],
          [
            9.802695,
            46.563408
          ],
          [
            9.802651,
            46.563334
          ],
          [
            9.802614,
            46.563328
          ],
          [
            9.802695,
            46.563272
          ],
          [
            9.802767,
            46.563303
          ],
          [
            9.802848,
            46.563297
          ],
          [
            9.802974,
            46.563309
          ],
          [
            9.803081,
            46.563247
          ],
          [
            9.803188,
            46.56326
          ],
          [
            9.803297,
            46.563173
          ],
          [
            9.803387,
            46.563148
          ],
          [
            9.803513,
            46.563136
          ],
          [
            9.803603,
            46.563142
          ],
          [
            9.803773,
            46.563148
          ],
          [
            9.804006,
            46.56321
          ],
          [
            9.804006,
            46.563197
          ],
          [
            9.803917,
            46.56313
          ],
          [
            9.803943,
            46.563124
          ],
          [
            9.804303,
            46.563235
          ],
          [
            9.80459,
            46.563253
          ],
          [
            9.80468,
            46.563247
          ],
          [
            9.804698,
            46.563222
          ],
          [
            9.804645,
            46.563185
          ],
          [
            9.80441,
            46.563024
          ],
          [
            9.804563,
            46.563049
          ],
          [
            9.804779,
            46.563043
          ],
          [
            9.805066,
            46.563068
          ],
          [
            9.804985,
            46.562994
          ],
          [
            9.805022,
            46.562975
          ],
          [
            9.805111,
            46.562957
          ],
          [
            9.805165,
            46.562963
          ],
          [
            9.805228,
            46.562945
          ],
          [
            9.805354,
            46.562969
          ],
          [
            9.805524,
            46.563018
          ],
          [
            9.805651,
            46.563037
          ],
          [
            9.805731,
            46.563056
          ],
          [
            9.805928,
            46.563142
          ],
          [
            9.805983,
            46.563148
          ],
          [
            9.806073,
            46.563118
          ],
          [
            9.80627,
            46.56313
          ],
          [
            9.806396,
            46.563118
          ],
          [
            9.806584,
            46.563093
          ],
          [
            9.806809,
            46.563099
          ],
          [
            9.806989,
            46.563111
          ],
          [
            9.807142,
            46.563136
          ],
          [
            9.807312,
            46.563167
          ],
          [
            9.807429,
            46.563179
          ],
          [
            9.807591,
            46.563179
          ],
          [
            9.807572,
            46.563148
          ],
          [
            9.807465,
            46.563099
          ],
          [
            9.807375,
            46.563074
          ],
          [
            9.807411,
            46.563062
          ],
          [
            9.807509,
            46.563049
          ],
          [
            9.807609,
            46.563056
          ],
          [
            9.807681,
            46.563024
          ],
          [
            9.807744,
            46.563018
          ],
          [
            9.807834,
            46.563031
          ],
          [
            9.808031,
            46.56308
          ],
          [
            9.808102,
            46.56308
          ],
          [
            9.80822,
            46.563056
          ],
          [
            9.808551,
            46.563012
          ],
          [
            9.808641,
            46.563
          ],
          [
            9.808848,
            46.563
          ],
          [
            9.808947,
            46.562988
          ],
          [
            9.809027,
            46.562994
          ],
          [
            9.80909,
            46.562982
          ],
          [
            9.809234,
            46.563012
          ],
          [
            9.809396,
            46.563031
          ],
          [
            9.809567,
            46.563062
          ],
          [
            9.809576,
            46.563049
          ],
          [
            9.809549,
            46.563018
          ],
          [
            9.809496,
            46.562975
          ],
          [
            9.809432,
            46.56292
          ],
          [
            9.809442,
            46.562907
          ],
          [
            9.809477,
            46.562907
          ],
          [
            9.809513,
            46.562914
          ],
          [
            9.80954,
            46.562895
          ],
          [
            9.809576,
            46.562901
          ],
          [
            9.809603,
            46.562876
          ],
          [
            9.809702,
            46.562864
          ],
          [
            9.809783,
            46.562858
          ],
          [
            9.809756,
            46.562821
          ],
          [
            9.809746,
            46.562796
          ],
          [
            9.809792,
            46.562766
          ],
          [
            9.809855,
            46.562759
          ],
          [
            9.809909,
            46.562753
          ],
          [
            9.809972,
            46.562747
          ],
          [
            9.809962,
            46.562716
          ],
          [
            9.80998,
            46.562704
          ],
          [
            9.810025,
            46.562716
          ],
          [
            9.810232,
            46.562679
          ],
          [
            9.810232,
            46.562629
          ],
          [
            9.810465,
            46.562537
          ],
          [
            9.810591,
            46.562383
          ],
          [
            9.810662,
            46.56221
          ],
          [
            9.81087,
            46.562086
          ],
          [
            9.810897,
            46.561907
          ],
          [
            9.811247,
            46.561987
          ],
          [
            9.812002,
            46.562086
          ],
          [
            9.812522,
            46.562068
          ],
          [
            9.812809,
            46.562092
          ],
          [
            9.813708,
            46.562253
          ],
          [
            9.81431,
            46.562685
          ],
          [
            9.814526,
            46.562809
          ],
          [
            9.814669,
            46.562876
          ],
          [
            9.815442,
            46.563006
          ],
          [
            9.815792,
            46.562982
          ],
          [
            9.816798,
            46.563056
          ],
          [
            9.817419,
            46.563167
          ],
          [
            9.818128,
            46.563148
          ],
          [
            9.819224,
            46.563315
          ],
          [
            9.82058,
            46.563266
          ],
          [
            9.820742,
            46.563241
          ],
          [
            9.820759,
            46.563241
          ],
          [
            9.820939,
            46.563222
          ],
          [
            9.821146,
            46.56321
          ],
          [
            9.821461,
            46.563136
          ],
          [
            9.821532,
            46.56313
          ],
          [
            9.82173,
            46.563124
          ],
          [
            9.821838,
            46.563105
          ],
          [
            9.822188,
            46.563043
          ],
          [
            9.822817,
            46.562969
          ],
          [
            9.822952,
            46.562988
          ],
          [
            9.823059,
            46.562969
          ],
          [
            9.823212,
            46.562914
          ],
          [
            9.823419,
            46.562907
          ],
          [
            9.823635,
            46.562914
          ],
          [
            9.824677,
            46.563031
          ],
          [
            9.824793,
            46.563056
          ],
          [
            9.825,
            46.563062
          ],
          [
            9.82508,
            46.563074
          ],
          [
            9.82526,
            46.563148
          ],
          [
            9.825342,
            46.563167
          ],
          [
            9.825656,
            46.56321
          ],
          [
            9.826222,
            46.563291
          ],
          [
            9.826805,
            46.563278
          ],
          [
            9.826967,
            46.563253
          ],
          [
            9.827254,
            46.563179
          ],
          [
            9.827488,
            46.563111
          ],
          [
            9.827614,
            46.563093
          ],
          [
            9.828162,
            46.563049
          ],
          [
            9.828575,
            46.56308
          ],
          [
            9.828836,
            46.563049
          ],
          [
            9.829231,
            46.563068
          ],
          [
            9.829357,
            46.563074
          ],
          [
            9.829591,
            46.563043
          ],
          [
            9.83013,
            46.562914
          ],
          [
            9.831046,
            46.562827
          ],
          [
            9.83118,
            46.562821
          ],
          [
            9.831315,
            46.562821
          ],
          [
            9.831449,
            46.562821
          ],
          [
            9.831575,
            46.562833
          ],
          [
            9.831656,
            46.562845
          ],
          [
            9.831755,
            46.562858
          ],
          [
            9.831971,
            46.562907
          ],
          [
            9.832042,
            46.56292
          ],
          [
            9.832097,
            46.562926
          ],
          [
            9.832141,
            46.562926
          ],
          [
            9.832187,
            46.56292
          ],
          [
            9.83251,
            46.562839
          ],
          [
            9.832591,
            46.562809
          ],
          [
            9.832654,
            46.562784
          ],
          [
            9.832698,
            46.562759
          ],
          [
            9.832734,
            46.562728
          ],
          [
            9.832761,
            46.562691
          ],
          [
            9.832788,
            46.562642
          ],
          [
            9.832816,
            46.562562
          ],
          [
            9.832833,
            46.562518
          ],
          [
            9.83286,
            46.562487
          ],
          [
            9.832887,
            46.562463
          ],
          [
            9.832933,
            46.562444
          ],
          [
            9.833013,
            46.56242
          ],
          [
            9.833147,
            46.562389
          ],
          [
            9.833193,
            46.56237
          ],
          [
            9.833237,
            46.562345
          ],
          [
            9.83331,
            46.562302
          ],
          [
            9.833373,
            46.562271
          ],
          [
            9.833436,
            46.562259
          ],
          [
            9.833533,
            46.562241
          ],
          [
            9.833615,
            46.562216
          ],
          [
            9.833678,
            46.562191
          ],
          [
            9.833749,
            46.562166
          ],
          [
            9.833812,
            46.562154
          ],
          [
            9.833858,
            46.562148
          ],
          [
            9.834118,
            46.562129
          ],
          [
            9.834262,
            46.56211
          ],
          [
            9.834495,
            46.56211
          ],
          [
            9.834954,
            46.562074
          ],
          [
            9.835133,
            46.562043
          ],
          [
            9.835294,
            46.562024
          ],
          [
            9.835376,
            46.562006
          ],
          [
            9.835493,
            46.561962
          ],
          [
            9.835556,
            46.561944
          ],
          [
            9.835852,
            46.561889
          ],
          [
            9.835986,
            46.561858
          ],
          [
            9.836238,
            46.561795
          ],
          [
            9.836382,
            46.561758
          ],
          [
            9.836652,
            46.561703
          ],
          [
            9.836939,
            46.561697
          ],
          [
            9.837038,
            46.561691
          ],
          [
            9.837415,
            46.561697
          ],
          [
            9.837694,
            46.561722
          ],
          [
            9.838097,
            46.561691
          ],
          [
            9.838367,
            46.561703
          ],
          [
            9.838627,
            46.561697
          ],
          [
            9.839122,
            46.561697
          ],
          [
            9.839399,
            46.561746
          ],
          [
            9.839732,
            46.561716
          ],
          [
            9.839885,
            46.561604
          ],
          [
            9.840137,
            46.561271
          ],
          [
            9.840361,
            46.561067
          ],
          [
            9.840478,
            46.560993
          ],
          [
            9.84055,
            46.560956
          ],
          [
            9.840621,
            46.560931
          ],
          [
            9.840954,
            46.560838
          ],
          [
            9.84125,
            46.560746
          ],
          [
            9.841799,
            46.560604
          ],
          [
            9.842059,
            46.560591
          ],
          [
            9.842418,
            46.56061
          ],
          [
            9.842688,
            46.560289
          ],
          [
            9.842715,
            46.560233
          ],
          [
            9.842732,
            46.560196
          ],
          [
            9.842732,
            46.560146
          ],
          [
            9.842724,
            46.560023
          ],
          [
            9.842741,
            46.559986
          ],
          [
            9.842751,
            46.559973
          ],
          [
            9.842805,
            46.559949
          ],
          [
            9.843155,
            46.559819
          ],
          [
            9.843236,
            46.559794
          ],
          [
            9.843271,
            46.55977
          ],
          [
            9.843307,
            46.559751
          ],
          [
            9.843344,
            46.559708
          ],
          [
            9.84337,
            46.559665
          ],
          [
            9.843416,
            46.559535
          ],
          [
            9.843478,
            46.559448
          ],
          [
            9.843497,
            46.559424
          ],
          [
            9.843586,
            46.559306
          ],
          [
            9.84364,
            46.55922
          ],
          [
            9.843667,
            46.559196
          ],
          [
            9.84372,
            46.559164
          ],
          [
            9.844376,
            46.559053
          ],
          [
            9.844449,
            46.559041
          ],
          [
            9.844592,
            46.559029
          ],
          [
            9.844655,
            46.559023
          ],
          [
            9.844709,
            46.559023
          ],
          [
            9.844781,
            46.55901
          ],
          [
            9.844889,
            46.558998
          ],
          [
            9.844915,
            46.558998
          ],
          [
            9.845212,
            46.55896
          ],
          [
            9.845401,
            46.558923
          ],
          [
            9.84586,
            46.5588
          ],
          [
            9.847018,
            46.558442
          ],
          [
            9.84735,
            46.558361
          ],
          [
            9.847619,
            46.558269
          ],
          [
            9.847682,
            46.55825
          ],
          [
            9.847907,
            46.558176
          ],
          [
            9.848078,
            46.558139
          ],
          [
            9.848527,
            46.558059
          ],
          [
            9.848634,
            46.558034
          ],
          [
            9.84877,
            46.557985
          ],
          [
            9.849047,
            46.557879
          ],
          [
            9.849183,
            46.557842
          ],
          [
            9.849317,
            46.557812
          ],
          [
            9.849489,
            46.557787
          ],
          [
            9.849982,
            46.557731
          ],
          [
            9.850701,
            46.557657
          ],
          [
            9.850988,
            46.557602
          ],
          [
            9.851347,
            46.557552
          ],
          [
            9.851599,
            46.557521
          ],
          [
            9.852416,
            46.55749
          ],
          [
            9.852615,
            46.557466
          ],
          [
            9.852839,
            46.557429
          ],
          [
            9.85441,
            46.557052
          ],
          [
            9.854546,
            46.557009
          ],
          [
            9.854752,
            46.556916
          ],
          [
            9.8553,
            46.556644
          ],
          [
            9.855596,
            46.556477
          ],
          [
            9.855804,
            46.556317
          ],
          [
            9.855938,
            46.556242
          ],
          [
            9.8561,
            46.556175
          ],
          [
            9.856271,
            46.556119
          ],
          [
            9.856486,
            46.556088
          ],
          [
            9.856639,
            46.556082
          ],
          [
            9.856989,
            46.556094
          ],
          [
            9.857097,
            46.556088
          ],
          [
            9.857429,
            46.556033
          ],
          [
            9.857529,
            46.556008
          ],
          [
            9.857735,
            46.555946
          ],
          [
            9.858426,
            46.555723
          ],
          [
            9.858426,
            46.555723
          ],
          [
            9.858651,
            46.55565
          ],
          [
            9.859558,
            46.555353
          ],
          [
            9.859756,
            46.555292
          ],
          [
            9.85998,
            46.555242
          ],
          [
            9.860187,
            46.555211
          ],
          [
            9.860592,
            46.555192
          ],
          [
            9.861445,
            46.555162
          ],
          [
            9.862774,
            46.555125
          ],
          [
            9.862963,
            46.555106
          ],
          [
            9.863116,
            46.555088
          ],
          [
            9.86334,
            46.555044
          ],
          [
            9.863519,
            46.555025
          ],
          [
            9.863968,
            46.554989
          ],
          [
            9.864292,
            46.554958
          ],
          [
            9.86449,
            46.554927
          ],
          [
            9.864876,
            46.554846
          ],
          [
            9.865011,
            46.554834
          ],
          [
            9.865289,
            46.554816
          ],
          [
            9.86581,
            46.55481
          ],
          [
            9.8659,
            46.554797
          ],
          [
            9.86599,
            46.554779
          ],
          [
            9.866502,
            46.554594
          ],
          [
            9.866655,
            46.554525
          ],
          [
            9.867194,
            46.554241
          ],
          [
            9.867607,
            46.553994
          ],
          [
            9.867993,
            46.55379
          ],
          [
            9.868129,
            46.553735
          ],
          [
            9.868129,
            46.553735
          ],
          [
            9.868398,
            46.553623
          ],
          [
            9.868802,
            46.553413
          ],
          [
            9.869054,
            46.553296
          ],
          [
            9.869718,
            46.553043
          ],
          [
            9.87049,
            46.552752
          ],
          [
            9.871138,
            46.552487
          ],
          [
            9.871245,
            46.552431
          ],
          [
            9.871326,
            46.552381
          ],
          [
            9.871559,
            46.55219
          ],
          [
            9.871622,
            46.552147
          ],
          [
            9.871784,
            46.552079
          ],
          [
            9.871874,
            46.552054
          ],
          [
            9.872027,
            46.552048
          ],
          [
            9.872063,
            46.551956
          ],
          [
            9.872117,
            46.551906
          ],
          [
            9.872224,
            46.551875
          ],
          [
            9.872431,
            46.551826
          ],
          [
            9.872601,
            46.551733
          ],
          [
            9.872781,
            46.551727
          ],
          [
            9.872907,
            46.551733
          ],
          [
            9.872979,
            46.55169
          ],
          [
            9.873167,
            46.55164
          ],
          [
            9.87332,
            46.551604
          ],
          [
            9.873635,
            46.551387
          ],
          [
            9.873796,
            46.551362
          ],
          [
            9.873922,
            46.551338
          ],
          [
            9.874165,
            46.551369
          ],
          [
            9.874291,
            46.551375
          ],
          [
            9.874444,
            46.55135
          ],
          [
            9.874561,
            46.551375
          ],
          [
            9.874632,
            46.551356
          ],
          [
            9.87474,
            46.551288
          ],
          [
            9.874884,
            46.551208
          ],
          [
            9.874947,
            46.551239
          ],
          [
            9.875037,
            46.551233
          ],
          [
            9.875117,
            46.551245
          ],
          [
            9.87519,
            46.551301
          ],
          [
            9.875243,
            46.551375
          ],
          [
            9.875261,
            46.551449
          ],
          [
            9.875306,
            46.551535
          ],
          [
            9.875369,
            46.551591
          ],
          [
            9.87553,
            46.55161
          ],
          [
            9.875692,
            46.551622
          ],
          [
            9.875979,
            46.551634
          ],
          [
            9.87606,
            46.551683
          ],
          [
            9.876159,
            46.551683
          ],
          [
            9.876339,
            46.551653
          ],
          [
            9.876555,
            46.551677
          ],
          [
            9.876635,
            46.551683
          ],
          [
            9.876779,
            46.551671
          ],
          [
            9.877004,
            46.551702
          ],
          [
            9.877121,
            46.551708
          ],
          [
            9.877264,
            46.55169
          ],
          [
            9.877381,
            46.551647
          ],
          [
            9.877471,
            46.55164
          ],
          [
            9.877507,
            46.551597
          ],
          [
            9.877578,
            46.551573
          ],
          [
            9.877687,
            46.551573
          ],
          [
            9.87775,
            46.551548
          ],
          [
            9.87775,
            46.551548
          ],
          [
            9.877803,
            46.551529
          ],
          [
            9.877884,
            46.551461
          ],
          [
            9.878054,
            46.551424
          ],
          [
            9.87818,
            46.551474
          ],
          [
            9.878216,
            46.55148
          ],
          [
            9.878253,
            46.551455
          ],
          [
            9.878279,
            46.551393
          ],
          [
            9.87835,
            46.551356
          ],
          [
            9.87862,
            46.551301
          ],
          [
            9.878962,
            46.551165
          ],
          [
            9.879232,
            46.551097
          ],
          [
            9.87933,
            46.551029
          ],
          [
            9.879456,
            46.551047
          ],
          [
            9.879528,
            46.551041
          ],
          [
            9.879591,
            46.551004
          ],
          [
            9.879654,
            46.55093
          ],
          [
            9.879744,
            46.550881
          ],
          [
            9.879941,
            46.550862
          ],
          [
            9.880031,
            46.55085
          ],
          [
            9.880085,
            46.550751
          ],
          [
            9.880184,
            46.550677
          ],
          [
            9.880247,
            46.550584
          ],
          [
            9.8803,
            46.550504
          ],
          [
            9.880327,
            46.550435
          ],
          [
            9.880417,
            46.550368
          ],
          [
            9.880471,
            46.550287
          ],
          [
            9.880696,
            46.550176
          ],
          [
            9.880848,
            46.550121
          ],
          [
            9.880966,
            46.549972
          ],
          [
            9.881243,
            46.549806
          ],
          [
            9.881289,
            46.549756
          ],
          [
            9.881423,
            46.549707
          ],
          [
            9.881459,
            46.549676
          ],
          [
            9.881477,
            46.549602
          ],
          [
            9.881702,
            46.549528
          ],
          [
            9.881971,
            46.549429
          ],
          [
            9.882088,
            46.549349
          ],
          [
            9.882205,
            46.549299
          ],
          [
            9.882331,
            46.549262
          ],
          [
            9.882564,
            46.549095
          ],
          [
            9.882771,
            46.548959
          ],
          [
            9.883094,
            46.548675
          ],
          [
            9.883201,
            46.548551
          ],
          [
            9.883247,
            46.548434
          ],
          [
            9.883327,
            46.54828
          ],
          [
            9.883327,
            46.548249
          ],
          [
            9.883327,
            46.548249
          ],
          [
            9.883327,
            46.548218
          ],
          [
            9.883301,
            46.548156
          ],
          [
            9.883291,
            46.548076
          ],
          [
            9.883247,
            46.547853
          ],
          [
            9.883157,
            46.547649
          ],
          [
            9.883022,
            46.547223
          ],
          [
            9.883004,
            46.547155
          ],
          [
            9.883031,
            46.547081
          ],
          [
            9.882977,
            46.546717
          ],
          [
            9.882977,
            46.5465
          ],
          [
            9.883103,
            46.54613
          ],
          [
            9.883201,
            46.546043
          ],
          [
            9.883077,
            46.545852
          ],
          [
            9.882924,
            46.545667
          ],
          [
            9.883184,
            46.545759
          ],
          [
            9.883606,
            46.54595
          ],
          [
            9.883706,
            46.546037
          ],
          [
            9.883866,
            46.546234
          ],
          [
            9.884172,
            46.546476
          ],
          [
            9.884243,
            46.546525
          ],
          [
            9.884325,
            46.546544
          ],
          [
            9.884495,
            46.546593
          ],
          [
            9.884622,
            46.546649
          ],
          [
            9.884774,
            46.546766
          ],
          [
            9.884855,
            46.546884
          ],
          [
            9.884891,
            46.547007
          ],
          [
            9.884935,
            46.547063
          ],
          [
            9.885017,
            46.547112
          ],
          [
            9.885142,
            46.547199
          ],
          [
            9.885331,
            46.547309
          ],
          [
            9.88543,
            46.547384
          ],
          [
            9.885564,
            46.547439
          ],
          [
            9.885672,
            46.547458
          ],
          [
            9.885807,
            46.547476
          ],
          [
            9.885924,
            46.547513
          ],
          [
            9.886121,
            46.547594
          ],
          [
            9.886274,
            46.547693
          ],
          [
            9.886436,
            46.547928
          ],
          [
            9.88657,
            46.548119
          ],
          [
            9.886562,
            46.54823
          ],
          [
            9.88658,
            46.548317
          ],
          [
            9.886616,
            46.548372
          ],
          [
            9.886867,
            46.548582
          ],
          [
            9.887145,
            46.548817
          ],
          [
            9.887163,
            46.548842
          ],
          [
            9.887226,
            46.54899
          ],
          [
            9.887245,
            46.549009
          ],
          [
            9.887272,
            46.549021
          ],
          [
            9.887325,
            46.549009
          ],
          [
            9.887577,
            46.548935
          ],
          [
            9.887585,
            46.548953
          ],
          [
            9.887604,
            46.548978
          ],
          [
            9.887685,
            46.54912
          ],
          [
            9.887702,
            46.549145
          ],
          [
            9.887801,
            46.54933
          ],
          [
            9.887828,
            46.549385
          ],
          [
            9.887972,
            46.54967
          ],
          [
            9.888044,
            46.549806
          ],
          [
            9.888098,
            46.549904
          ],
          [
            9.888115,
            46.549935
          ],
          [
            9.888143,
            46.549985
          ],
          [
            9.888151,
            46.55001
          ],
          [
            9.888411,
            46.550516
          ],
          [
            9.888547,
            46.550442
          ],
          [
            9.888673,
            46.550479
          ],
          [
            9.888771,
            46.55046
          ],
          [
            9.888591,
            46.550133
          ],
          [
            9.888744,
            46.550053
          ],
          [
            9.888654,
            46.549886
          ]
        ]
      }
    }
  ]
}