{
  "type": "FeatureCollection",
  "features": [
    {
      "type": "Feature",
      "properties": {},
      "geometry": {
        "type": "LineString",
        "coordinates": [
          [
            7.658883,
            47.476198,
            678.0
          ],
          [
            7.658883,
            47.476191,
            678.0
          ],
          [
            7.658892,
            47.476161,
            678.0
          ],
          [
            7.658902,
            47.476137,
            678.0
          ],
          [
            7.658928,
            47.476016,
            678.0
          ],
          [
            7.65891,
            47.475785,
            677.0
          ],
          [
            7.658883,
            47.475633,
            676.0
          ],
          [
            7.658875,
            47.475505,
            676.0
          ],
          [
            7.65882,
            47.475487,
            676.0
          ],
          [
            7.658766,
            47.475445,
            676.0
          ],
          [
            7.658713,
            47.475378,
            675.0
          ],
          [
            7.65865,
            47.475208,
            675.0
          ],
          [
            7.658613,
            47.47502,
            674.0
          ],
          [
            7.658596,
            47.474813,
            674.0
          ],
          [
            7.658552,
            47.474813,
            674.0
          ],
          [
            7.658407,
            47.474801,
            674.0
          ],
          [
            7.658263,
            47.474789,
            675.0
          ],
          [
            7.6582,
            47.474783,
            675.0
          ],
          [
            7.658165,
            47.474771,
            676.0
          ],
          [
            7.658129,
            47.474752,
            676.0
          ],
          [
            7.658102,
            47.474722,
            676.0
          ],
          [
            7.657967,
            47.474583,
            677.0
          ],
          [
            7.657904,
            47.474534,
            678.0
          ],
          [
            7.65786,
            47.474516,
            678.0
          ],
          [
            7.657823,
            47.474497,
            678.0
          ],
          [
            7.657734,
            47.474485,
            679.0
          ],
          [
            7.65742,
            47.474449,
            680.0
          ],
          [
            7.65732,
            47.474443,
            681.0
          ],
          [
            7.657087,
            47.474449,
            682.0
          ],
          [
            7.656925,
            47.474461,
            682.0
          ],
          [
            7.656791,
            47.474461,
            683.0
          ],
          [
            7.656692,
            47.474461,
            684.0
          ],
          [
            7.656602,
            47.474449,
            684.0
          ],
          [
            7.656422,
            47.474418,
            685.0
          ],
          [
            7.656323,
            47.474406,
            685.0
          ],
          [
            7.656215,
            47.474406,
            686.0
          ],
          [
            7.656135,
            47.474406,
            686.0
          ],
          [
            7.656053,
            47.474412,
            686.0
          ],
          [
            7.655676,
            47.474455,
            688.0
          ],
          [
            7.65538,
            47.474491,
            689.0
          ],
          [
            7.65476,
            47.474552,
            690.0
          ],
          [
            7.654644,
            47.47457,
            690.0
          ],
          [
            7.654544,
            47.474589,
            690.0
          ],
          [
            7.654464,
            47.474607,
            690.0
          ],
          [
            7.654311,
            47.474662,
            690.0
          ],
          [
            7.654212,
            47.474692,
            690.0
          ],
          [
            7.654105,
            47.47471,
            690.0
          ],
          [
            7.653996,
            47.474722,
            690.0
          ],
          [
            7.653835,
            47.474734,
            690.0
          ],
          [
            7.653548,
            47.47474,
            690.0
          ],
          [
            7.653349,
            47.474734,
            690.0
          ],
          [
            7.652353,
            47.474601,
            690.0
          ],
          [
            7.652155,
            47.474589,
            690.0
          ],
          [
            7.651894,
            47.474583,
            690.0
          ],
          [
            7.651634,
            47.474577,
            690.0
          ],
          [
            7.651023,
            47.474595,
            689.0
          ],
          [
            7.650915,
            47.474595,
            688.0
          ],
          [
            7.650745,
            47.474595,
            688.0
          ],
          [
            7.650484,
            47.474589,
            688.0
          ],
          [
            7.650179,
            47.474577,
            687.0
          ],
          [
            7.649873,
            47.474552,
            686.0
          ],
          [
            7.649649,
            47.474528,
            686.0
          ],
          [
            7.649541,
            47.474503,
            686.0
          ],
          [
            7.649442,
            47.474479,
            685.0
          ],
          [
            7.648975,
            47.474328,
            684.0
          ],
          [
            7.648868,
            47.474303,
            684.0
          ],
          [
            7.648741,
            47.474285,
            684.0
          ],
          [
            7.648552,
            47.474267,
            683.0
          ],
          [
            7.648445,
            47.474261,
            683.0
          ],
          [
            7.64813,
            47.474261,
            683.0
          ],
          [
            7.647807,
            47.474267,
            682.0
          ],
          [
            7.647717,
            47.474261,
            682.0
          ],
          [
            7.647646,
            47.474255,
            682.0
          ],
          [
            7.64752,
            47.474231,
            681.0
          ],
          [
            7.64742,
            47.474218,
            681.0
          ],
          [
            7.647331,
            47.474212,
            681.0
          ],
          [
            7.64726,
            47.474218,
            681.0
          ],
          [
            7.647187,
            47.474231,
            681.0
          ],
          [
            7.647124,
            47.474249,
            681.0
          ],
          [
            7.647061,
            47.474273,
            680.0
          ],
          [
            7.646927,
            47.474328,
            680.0
          ],
          [
            7.64682,
            47.47437,
            679.0
          ],
          [
            7.64672,
            47.4744,
            678.0
          ],
          [
            7.64664,
            47.474424,
            678.0
          ],
          [
            7.64655,
            47.474437,
            677.0
          ],
          [
            7.646405,
            47.474449,
            676.0
          ],
          [
            7.646325,
            47.474461,
            675.0
          ],
          [
            7.646271,
            47.474485,
            675.0
          ],
          [
            7.646254,
            47.474503,
            675.0
          ],
          [
            7.646235,
            47.474528,
            675.0
          ],
          [
            7.646235,
            47.474552,
            674.0
          ],
          [
            7.646254,
            47.474583,
            674.0
          ],
          [
            7.646289,
            47.474619,
            674.0
          ],
          [
            7.646352,
            47.474656,
            673.0
          ],
          [
            7.646541,
            47.474771,
            672.0
          ],
          [
            7.646873,
            47.474947,
            670.0
          ],
          [
            7.647017,
            47.475014,
            669.0
          ],
          [
            7.647241,
            47.475111,
            667.0
          ],
          [
            7.647475,
            47.475202,
            666.0
          ],
          [
            7.647627,
            47.475281,
            665.0
          ],
          [
            7.647709,
            47.475336,
            664.0
          ],
          [
            7.647772,
            47.475384,
            663.0
          ],
          [
            7.647816,
            47.475445,
            663.0
          ],
          [
            7.64787,
            47.475536,
            662.0
          ],
          [
            7.647915,
            47.475621,
            661.0
          ],
          [
            7.647952,
            47.475748,
            660.0
          ],
          [
            7.64796,
            47.475803,
            659.0
          ],
          [
            7.647969,
            47.475851,
            658.0
          ],
          [
            7.647952,
            47.475888,
            658.0
          ],
          [
            7.647933,
            47.475906,
            658.0
          ],
          [
            7.647906,
            47.47593,
            657.0
          ],
          [
            7.647834,
            47.475979,
            656.0
          ],
          [
            7.64778,
            47.476016,
            656.0
          ],
          [
            7.647744,
            47.476046,
            655.0
          ],
          [
            7.647717,
            47.476082,
            654.0
          ],
          [
            7.64769,
            47.476143,
            654.0
          ],
          [
            7.647654,
            47.476198,
            653.0
          ],
          [
            7.64761,
            47.47624,
            652.0
          ],
          [
            7.647556,
            47.476282,
            651.0
          ],
          [
            7.64752,
            47.476301,
            651.0
          ],
          [
            7.647466,
            47.476319,
            650.0
          ],
          [
            7.647412,
            47.476325,
            650.0
          ],
          [
            7.647367,
            47.476319,
            649.0
          ],
          [
            7.647323,
            47.476307,
            649.0
          ],
          [
            7.647187,
            47.476252,
            647.0
          ],
          [
            7.646971,
            47.476161,
            645.0
          ],
          [
            7.64681,
            47.476095,
            643.0
          ],
          [
            7.646774,
            47.476082,
            642.0
          ],
          [
            7.646684,
            47.476101,
            641.0
          ],
          [
            7.646612,
            47.476113,
            641.0
          ],
          [
            7.646514,
            47.476155,
            639.0
          ],
          [
            7.646361,
            47.476349,
            636.0
          ],
          [
            7.646199,
            47.476538,
            634.0
          ],
          [
            7.646011,
            47.476616,
            632.0
          ],
          [
            7.645778,
            47.476671,
            630.0
          ],
          [
            7.645606,
            47.476756,
            628.0
          ],
          [
            7.645418,
            47.476914,
            626.0
          ],
          [
            7.645238,
            47.477115,
            624.0
          ],
          [
            7.645139,
            47.477157,
            623.0
          ],
          [
            7.644897,
            47.477254,
            622.0
          ],
          [
            7.64442,
            47.477375,
            618.0
          ],
          [
            7.643541,
            47.477673,
            612.0
          ],
          [
            7.643235,
            47.47788,
            610.0
          ],
          [
            7.643109,
            47.478031,
            609.0
          ],
          [
            7.643109,
            47.478104,
            608.0
          ],
          [
            7.643109,
            47.478104,
            608.0
          ],
          [
            7.643109,
            47.478487,
            606.0
          ],
          [
            7.642975,
            47.478753,
            604.0
          ],
          [
            7.642472,
            47.479009,
            602.0
          ],
          [
            7.642327,
            47.479051,
            601.0
          ],
          [
            7.641968,
            47.479075,
            599.0
          ],
          [
            7.641357,
            47.479069,
            597.0
          ],
          [
            7.641141,
            47.479081,
            596.0
          ],
          [
            7.640944,
            47.4791,
            595.0
          ],
          [
            7.640774,
            47.479081,
            595.0
          ],
          [
            7.640315,
            47.479124,
            593.0
          ],
          [
            7.640153,
            47.47916,
            592.0
          ],
          [
            7.640001,
            47.479227,
            591.0
          ],
          [
            7.63974,
            47.479506,
            590.0
          ],
          [
            7.639669,
            47.479701,
            589.0
          ],
          [
            7.639407,
            47.480709,
            585.0
          ],
          [
            7.63939,
            47.480958,
            584.0
          ],
          [
            7.639436,
            47.481109,
            584.0
          ],
          [
            7.639489,
            47.481249,
            583.0
          ],
          [
            7.639659,
            47.481583,
            582.0
          ],
          [
            7.63965,
            47.481668,
            582.0
          ],
          [
            7.639596,
            47.481735,
            581.0
          ],
          [
            7.639138,
            47.481965,
            580.0
          ],
          [
            7.638788,
            47.482403,
            578.0
          ],
          [
            7.6386,
            47.482566,
            577.0
          ],
          [
            7.638402,
            47.482657,
            576.0
          ],
          [
            7.638267,
            47.482694,
            575.0
          ],
          [
            7.638069,
            47.482724,
            575.0
          ],
          [
            7.637988,
            47.482712,
            574.0
          ],
          [
            7.637925,
            47.482694,
            573.0
          ],
          [
            7.637862,
            47.482663,
            573.0
          ],
          [
            7.637799,
            47.482621,
            572.0
          ],
          [
            7.637701,
            47.482524,
            570.0
          ],
          [
            7.63762,
            47.482451,
            569.0
          ],
          [
            7.637575,
            47.482415,
            568.0
          ],
          [
            7.637522,
            47.482397,
            568.0
          ],
          [
            7.637459,
            47.482372,
            567.0
          ],
          [
            7.637378,
            47.48236,
            566.0
          ],
          [
            7.637333,
            47.482354,
            566.0
          ],
          [
            7.637296,
            47.48236,
            565.0
          ],
          [
            7.637243,
            47.482378,
            565.0
          ],
          [
            7.637199,
            47.482403,
            564.0
          ],
          [
            7.637144,
            47.482439,
            564.0
          ],
          [
            7.637073,
            47.482494,
            562.0
          ],
          [
            7.636786,
            47.482828,
            554.0
          ],
          [
            7.636614,
            47.483052,
            548.0
          ],
          [
            7.636344,
            47.483477,
            539.0
          ],
          [
            7.636281,
            47.48341,
            537.0
          ],
          [
            7.63621,
            47.483367,
            536.0
          ],
          [
            7.636165,
            47.483343,
            535.0
          ],
          [
            7.636093,
            47.483325,
            534.0
          ],
          [
            7.635985,
            47.483319,
            533.0
          ],
          [
            7.635752,
            47.483313,
            530.0
          ],
          [
            7.634755,
            47.483325,
            519.0
          ],
          [
            7.633604,
            47.483343,
            507.0
          ],
          [
            7.633524,
            47.483355,
            507.0
          ],
          [
            7.63347,
            47.483374,
            506.0
          ],
          [
            7.63338,
            47.483416,
            506.0
          ],
          [
            7.63303,
            47.483629,
            502.0
          ],
          [
            7.632796,
            47.483635,
            500.0
          ],
          [
            7.632446,
            47.483641,
            500.0
          ],
          [
            7.632293,
            47.483635,
            500.0
          ],
          [
            7.632203,
            47.483623,
            500.0
          ],
          [
            7.632122,
            47.483605,
            500.0
          ],
          [
            7.632033,
            47.483574,
            500.0
          ],
          [
            7.631952,
            47.483538,
            500.0
          ],
          [
            7.631736,
            47.483441,
            500.0
          ],
          [
            7.631017,
            47.483009,
            500.0
          ],
          [
            7.630901,
            47.482931,
            500.0
          ],
          [
            7.630757,
            47.482834,
            500.0
          ],
          [
            7.630578,
            47.482669,
            500.0
          ],
          [
            7.630164,
            47.482323,
            500.0
          ],
          [
            7.629949,
            47.482166,
            500.0
          ],
          [
            7.629715,
            47.482014,
            500.0
          ],
          [
            7.629599,
            47.481947,
            499.0
          ],
          [
            7.629526,
            47.48188,
            498.0
          ],
          [
            7.629436,
            47.481808,
            497.0
          ],
          [
            7.629373,
            47.481741,
            496.0
          ],
          [
            7.62932,
            47.481674,
            496.0
          ],
          [
            7.629365,
            47.481516,
            494.0
          ],
          [
            7.629338,
            47.481413,
            494.0
          ],
          [
            7.62932,
            47.481322,
            493.0
          ],
          [
            7.629302,
            47.481261,
            492.0
          ],
          [
            7.629248,
            47.481206,
            492.0
          ],
          [
            7.629194,
            47.48117,
            491.0
          ],
          [
            7.62914,
            47.481122,
            491.0
          ],
          [
            7.629033,
            47.481,
            489.0
          ],
          [
            7.628933,
            47.480927,
            488.0
          ],
          [
            7.628897,
            47.480854,
            487.0
          ],
          [
            7.628862,
            47.480806,
            486.0
          ],
          [
            7.628807,
            47.480776,
            486.0
          ],
          [
            7.628754,
            47.480757,
            485.0
          ],
          [
            7.6287,
            47.480757,
            485.0
          ],
          [
            7.62861,
            47.480769,
            484.0
          ],
          [
            7.628538,
            47.480806,
            483.0
          ],
          [
            7.628556,
            47.480836,
            483.0
          ],
          [
            7.628556,
            47.480872,
            482.0
          ],
          [
            7.628503,
            47.480921,
            482.0
          ],
          [
            7.628314,
            47.481091,
            480.0
          ],
          [
            7.627937,
            47.481522,
            476.0
          ],
          [
            7.627864,
            47.481668,
            475.0
          ],
          [
            7.627801,
            47.481814,
            473.0
          ],
          [
            7.627775,
            47.481917,
            472.0
          ],
          [
            7.627801,
            47.48216,
            469.0
          ],
          [
            7.627811,
            47.482427,
            466.0
          ],
          [
            7.627792,
            47.482591,
            464.0
          ],
          [
            7.627748,
            47.48273,
            462.0
          ],
          [
            7.627675,
            47.482749,
            462.0
          ],
          [
            7.627595,
            47.482918,
            460.0
          ],
          [
            7.627478,
            47.483046,
            458.0
          ],
          [
            7.627398,
            47.483113,
            457.0
          ],
          [
            7.627262,
            47.483168,
            455.0
          ],
          [
            7.627128,
            47.483192,
            454.0
          ],
          [
            7.627191,
            47.483246,
            453.0
          ],
          [
            7.626876,
            47.483234,
            450.0
          ],
          [
            7.626805,
            47.483234,
            449.0
          ],
          [
            7.626572,
            47.483355,
            446.0
          ],
          [
            7.626643,
            47.483683,
            440.0
          ],
          [
            7.626562,
            47.483848,
            436.0
          ],
          [
            7.62658,
            47.483932,
            435.0
          ],
          [
            7.626589,
            47.484035,
            434.0
          ],
          [
            7.626633,
            47.484309,
            430.0
          ],
          [
            7.626652,
            47.484509,
            428.0
          ],
          [
            7.626652,
            47.484727,
            425.0
          ],
          [
            7.62666,
            47.48474,
            425.0
          ],
          [
            7.626696,
            47.484958,
            422.0
          ],
          [
            7.626723,
            47.485116,
            420.0
          ],
          [
            7.626616,
            47.485159,
            418.0
          ],
          [
            7.625897,
            47.485474,
            407.0
          ],
          [
            7.625888,
            47.485498,
            407.0
          ],
          [
            7.625538,
            47.485614,
            403.0
          ],
          [
            7.625404,
            47.485711,
            401.0
          ],
          [
            7.625295,
            47.485814,
            400.0
          ],
          [
            7.625088,
            47.48596,
            397.0
          ],
          [
            7.624729,
            47.486093,
            394.0
          ],
          [
            7.624658,
            47.486081,
            393.0
          ],
          [
            7.624549,
            47.485997,
            392.0
          ],
          [
            7.624478,
            47.485972,
            392.0
          ],
          [
            7.62437,
            47.48599,
            391.0
          ],
          [
            7.62419,
            47.486099,
            388.0
          ],
          [
            7.624146,
            47.486172,
            386.0
          ],
          [
            7.624136,
            47.486245,
            385.0
          ],
          [
            7.624172,
            47.486343,
            383.0
          ],
          [
            7.624253,
            47.486451,
            381.0
          ],
          [
            7.624289,
            47.48653,
            379.0
          ],
          [
            7.62428,
            47.486561,
            379.0
          ],
          [
            7.62419,
            47.486634,
            378.0
          ],
          [
            7.624046,
            47.486664,
            377.0
          ],
          [
            7.623714,
            47.486749,
            374.0
          ],
          [
            7.62349,
            47.486604,
            371.0
          ],
          [
            7.623346,
            47.486695,
            370.0
          ],
          [
            7.623256,
            47.486743,
            369.0
          ],
          [
            7.623148,
            47.486779,
            368.0
          ],
          [
            7.622412,
            47.486962,
            362.0
          ],
          [
            7.622448,
            47.487047,
            361.0
          ],
          [
            7.622268,
            47.487101,
            360.0
          ],
          [
            7.621962,
            47.487162,
            358.0
          ],
          [
            7.620983,
            47.487362,
            350.0
          ],
          [
            7.620849,
            47.487417,
            349.0
          ],
          [
            7.620723,
            47.487447,
            349.0
          ],
          [
            7.620561,
            47.487447,
            348.0
          ],
          [
            7.620318,
            47.487483,
            347.0
          ],
          [
            7.620112,
            47.487483,
            346.0
          ],
          [
            7.619897,
            47.487453,
            345.0
          ],
          [
            7.619861,
            47.487411,
            345.0
          ],
          [
            7.619698,
            47.487459,
            344.0
          ],
          [
            7.619519,
            47.487508,
            343.0
          ],
          [
            7.619142,
            47.487581,
            340.0
          ],
          [
            7.618297,
            47.487745,
            336.0
          ],
          [
            7.61792,
            47.487854,
            334.0
          ],
          [
            7.617525,
            47.487963,
            332.0
          ],
          [
            7.617354,
            47.488018,
            331.0
          ],
          [
            7.616788,
            47.488248,
            330.0
          ],
          [
            7.616411,
            47.488394,
            330.0
          ],
          [
            7.616339,
            47.488419,
            330.0
          ],
          [
            7.61633,
            47.488443,
            330.0
          ],
          [
            7.616232,
            47.488455,
            329.0
          ],
          [
            7.616132,
            47.488455,
            328.0
          ],
          [
            7.616043,
            47.488455,
            327.0
          ],
          [
            7.61598,
            47.488455,
            326.0
          ],
          [
            7.61598,
            47.488479,
            326.0
          ],
          [
            7.61597,
            47.488503,
            326.0
          ],
          [
            7.615943,
            47.488528,
            325.0
          ],
          [
            7.615909,
            47.488576,
            324.0
          ],
          [
            7.614758,
            47.488843,
            315.0
          ],
          [
            7.614614,
            47.488874,
            314.0
          ],
          [
            7.614534,
            47.488886,
            314.0
          ],
          [
            7.614461,
            47.488898,
            313.0
          ],
          [
            7.614398,
            47.488898,
            313.0
          ],
          [
            7.614345,
            47.488892,
            313.0
          ],
          [
            7.614291,
            47.488886,
            312.0
          ],
          [
            7.614031,
            47.488831,
            311.0
          ],
          [
            7.613788,
            47.488789,
            309.0
          ],
          [
            7.613366,
            47.488716,
            306.0
          ],
          [
            7.613024,
            47.488668,
            304.0
          ],
          [
            7.61297,
            47.488674,
            304.0
          ],
          [
            7.61297,
            47.488668,
            304.0
          ],
          [
            7.612917,
            47.4886,
            303.0
          ],
          [
            7.61289,
            47.488576,
            303.0
          ],
          [
            7.61288,
            47.488558,
            303.0
          ],
          [
            7.612836,
            47.488515,
            302.0
          ],
          [
            7.61279,
            47.488479,
            302.0
          ],
          [
            7.612746,
            47.488443,
            301.0
          ],
          [
            7.612683,
            47.488407,
            301.0
          ],
          [
            7.61263,
            47.488382,
            301.0
          ],
          [
            7.612557,
            47.488364,
            300.0
          ],
          [
            7.61245,
            47.488346,
            298.0
          ],
          [
            7.612368,
            47.488346,
            296.0
          ],
          [
            7.612278,
            47.48834,
            294.0
          ],
          [
            7.612135,
            47.488334,
            294.0
          ],
          [
            7.611416,
            47.488297,
            294.0
          ],
          [
            7.611408,
            47.488491,
            294.0
          ],
          [
            7.611408,
            47.488522,
            294.0
          ],
          [
            7.611362,
            47.488515,
            294.0
          ],
          [
            7.611335,
            47.488515,
            294.0
          ],
          [
            7.611381,
            47.488182,
            294.0
          ],
          [
            7.611129,
            47.488169,
            294.0
          ],
          [
            7.611093,
            47.488169,
            294.0
          ],
          [
            7.610995,
            47.48837,
            294.0
          ],
          [
            7.610976,
            47.4884,
            294.0
          ],
          [
            7.610842,
            47.488479,
            294.0
          ],
          [
            7.610733,
            47.488546,
            294.0
          ],
          [
            7.610716,
            47.48854,
            294.0
          ],
          [
            7.610563,
            47.488509,
            294.0
          ],
          [
            7.609718,
            47.488358,
            294.0
          ],
          [
            7.60944,
            47.488322,
            294.0
          ],
          [
            7.609305,
            47.488279,
            294.0
          ],
          [
            7.609288,
            47.488303,
            294.0
          ],
          [
            7.609251,
            47.488328,
            294.0
          ],
          [
            7.609215,
            47.48834,
            294.0
          ],
          [
            7.609171,
            47.488346,
            294.0
          ],
          [
            7.609125,
            47.488346,
            294.0
          ],
          [
            7.60909,
            47.488334,
            294.0
          ],
          [
            7.609054,
            47.488315,
            294.0
          ],
          [
            7.609035,
            47.488285,
            294.0
          ],
          [
            7.609001,
            47.488291,
            294.0
          ],
          [
            7.608928,
            47.488303,
            294.0
          ],
          [
            7.608838,
            47.488334,
            294.0
          ],
          [
            7.608758,
            47.488376,
            294.0
          ],
          [
            7.608722,
            47.4884,
            294.0
          ],
          [
            7.608685,
            47.488437,
            294.0
          ],
          [
            7.608551,
            47.488407,
            293.0
          ],
          [
            7.608515,
            47.488407,
            293.0
          ],
          [
            7.608102,
            47.488425,
            293.0
          ],
          [
            7.607958,
            47.488394,
            293.0
          ],
          [
            7.607877,
            47.488388,
            293.0
          ],
          [
            7.607634,
            47.488382,
            292.0
          ],
          [
            7.60706,
            47.488358,
            292.0
          ],
          [
            7.606997,
            47.488352,
            292.0
          ],
          [
            7.606988,
            47.488394,
            291.0
          ],
          [
            7.606978,
            47.488425,
            291.0
          ],
          [
            7.606978,
            47.488461,
            290.0
          ],
          [
            7.606997,
            47.488503,
            290.0
          ],
          [
            7.607014,
            47.488546,
            290.0
          ],
          [
            7.607006,
            47.488558,
            290.0
          ],
          [
            7.607006,
            47.488582,
            290.0
          ],
          [
            7.606988,
            47.488619,
            290.0
          ],
          [
            7.606943,
            47.488649,
            290.0
          ],
          [
            7.606924,
            47.488668,
            290.0
          ],
          [
            7.606844,
            47.488789,
            289.0
          ],
          [
            7.606835,
            47.488813,
            289.0
          ],
          [
            7.606827,
            47.488849,
            289.0
          ],
          [
            7.606817,
            47.488874,
            289.0
          ],
          [
            7.606808,
            47.489001,
            289.0
          ],
          [
            7.606764,
            47.489153,
            289.0
          ],
          [
            7.60671,
            47.489226,
            289.0
          ],
          [
            7.606628,
            47.489366,
            288.0
          ],
          [
            7.606548,
            47.489256,
            296.0
          ],
          [
            7.606341,
            47.489559,
            295.0
          ],
          [
            7.606035,
            47.489869,
            293.0
          ],
          [
            7.605299,
            47.490398,
            290.0
          ],
          [
            7.605039,
            47.490567,
            290.0
          ],
          [
            7.604643,
            47.490634,
            290.0
          ],
          [
            7.604284,
            47.490786,
            291.0
          ],
          [
            7.602443,
            47.491611,
            294.0
          ],
          [
            7.601993,
            47.491769,
            295.0
          ],
          [
            7.601382,
            47.491969,
            296.0
          ],
          [
            7.60114,
            47.492042,
            296.0
          ],
          [
            7.599864,
            47.492455,
            299.0
          ],
          [
            7.599766,
            47.49248,
            299.0
          ],
          [
            7.599514,
            47.49254,
            299.0
          ],
          [
            7.598957,
            47.492643,
            300.0
          ],
          [
            7.598607,
            47.492692,
            304.0
          ],
          [
            7.598508,
            47.492704,
            304.0
          ],
          [
            7.598175,
            47.49274,
            303.0
          ],
          [
            7.596953,
            47.492868,
            301.0
          ],
          [
            7.596414,
            47.492947,
            302.0
          ],
          [
            7.595848,
            47.493056,
            302.0
          ],
          [
            7.595076,
            47.493159,
            301.0
          ],
          [
            7.595076,
            47.493159,
            301.0
          ],
          [
            7.594403,
            47.49325,
            300.0
          ],
          [
            7.593971,
            47.493299,
            301.0
          ],
          [
            7.593611,
            47.493341,
            301.0
          ],
          [
            7.593477,
            47.493359,
            301.0
          ],
          [
            7.593244,
            47.493384,
            301.0
          ],
          [
            7.593108,
            47.493402,
            301.0
          ],
          [
            7.592965,
            47.493414,
            301.0
          ],
          [
            7.592947,
            47.49339,
            302.0
          ],
          [
            7.592911,
            47.493365,
            302.0
          ],
          [
            7.592866,
            47.493353,
            302.0
          ],
          [
            7.592821,
            47.493353,
            302.0
          ],
          [
            7.592776,
            47.493365,
            302.0
          ],
          [
            7.592382,
            47.493286,
            302.0
          ],
          [
            7.592309,
            47.49328,
            302.0
          ],
          [
            7.592219,
            47.493299,
            302.0
          ],
          [
            7.592219,
            47.493299,
            302.0
          ],
          [
            7.592219,
            47.493299,
            302.0
          ],
          [
            7.592148,
            47.493311,
            302.0
          ],
          [
            7.592129,
            47.493323,
            302.0
          ],
          [
            7.592103,
            47.493335,
            302.0
          ],
          [
            7.591644,
            47.493317,
            302.0
          ],
          [
            7.591554,
            47.493317,
            302.0
          ],
          [
            7.591393,
            47.493311,
            302.0
          ],
          [
            7.590747,
            47.493293,
            302.0
          ],
          [
            7.590747,
            47.493293,
            302.0
          ],
          [
            7.590468,
            47.493286,
            302.0
          ],
          [
            7.590306,
            47.493286,
            303.0
          ],
          [
            7.590036,
            47.493274,
            305.0
          ],
          [
            7.589982,
            47.493286,
            305.0
          ],
          [
            7.589929,
            47.493293,
            305.0
          ],
          [
            7.589875,
            47.493293,
            305.0
          ],
          [
            7.589875,
            47.493293,
            305.0
          ],
          [
            7.589776,
            47.493286,
            305.0
          ],
          [
            7.589642,
            47.493256,
            305.0
          ],
          [
            7.58965,
            47.493244,
            305.0
          ],
          [
            7.589668,
            47.49322,
            305.0
          ],
          [
            7.589668,
            47.493208,
            305.0
          ],
          [
            7.589552,
            47.493153,
            305.0
          ],
          [
            7.589479,
            47.493105,
            305.0
          ],
          [
            7.589426,
            47.493044,
            305.0
          ],
          [
            7.589399,
            47.49305,
            305.0
          ],
          [
            7.589363,
            47.493056,
            305.0
          ],
          [
            7.589318,
            47.493068,
            305.0
          ],
          [
            7.589327,
            47.493074,
            305.0
          ],
          [
            7.589327,
            47.493074,
            305.0
          ],
          [
            7.589318,
            47.493068,
            305.0
          ],
          [
            7.589183,
            47.493105,
            305.0
          ],
          [
            7.588994,
            47.493141,
            305.0
          ],
          [
            7.588644,
            47.49322,
            304.0
          ],
          [
            7.5885,
            47.49325,
            303.0
          ],
          [
            7.587629,
            47.493438,
            303.0
          ],
          [
            7.587189,
            47.493584,
            304.0
          ],
          [
            7.586246,
            47.493888,
            306.0
          ],
          [
            7.585841,
            47.49396,
            307.0
          ],
          [
            7.585374,
            47.493997,
            307.0
          ],
          [
            7.584539,
            47.494027,
            308.0
          ],
          [
            7.584315,
            47.494027,
            308.0
          ],
          [
            7.583802,
            47.49399,
            308.0
          ],
          [
            7.58347,
            47.493997,
            313.0
          ],
          [
            7.583273,
            47.493997,
            317.0
          ],
          [
            7.583128,
            47.494003,
            319.0
          ],
          [
            7.582868,
            47.494003,
            319.0
          ],
          [
            7.582365,
            47.494009,
            318.0
          ],
          [
            7.582365,
            47.494009,
            318.0
          ],
          [
            7.581493,
            47.494027,
            318.0
          ],
          [
            7.580874,
            47.494021,
            318.0
          ],
          [
            7.580074,
            47.494015,
            317.0
          ],
          [
            7.579445,
            47.494003,
            318.0
          ],
          [
            7.579185,
            47.494009,
            318.0
          ],
          [
            7.579105,
            47.494009,
            318.0
          ],
          [
            7.578529,
            47.494069,
            319.0
          ],
          [
            7.578197,
            47.494106,
            319.0
          ],
          [
            7.578008,
            47.494124,
            319.0
          ],
          [
            7.577721,
            47.494124,
            319.0
          ],
          [
            7.577361,
            47.494106,
            320.0
          ],
          [
            7.576436,
            47.494051,
            321.0
          ],
          [
            7.576193,
            47.494039,
            321.0
          ],
          [
            7.575197,
            47.493984,
            322.0
          ],
          [
            7.574837,
            47.493966,
            323.0
          ],
          [
            7.574639,
            47.493954,
            323.0
          ],
          [
            7.574505,
            47.49393,
            323.0
          ],
          [
            7.574415,
            47.493912,
            323.0
          ],
          [
            7.574289,
            47.493869,
            323.0
          ],
          [
            7.574244,
            47.493912,
            324.0
          ],
          [
            7.574055,
            47.493906,
            325.0
          ],
          [
            7.573885,
            47.4939,
            326.0
          ],
          [
            7.573499,
            47.494015,
            328.0
          ],
          [
            7.573489,
            47.494033,
            328.0
          ],
          [
            7.573543,
            47.494076,
            329.0
          ],
          [
            7.573552,
            47.494137,
            329.0
          ],
          [
            7.573822,
            47.494282,
            332.0
          ],
          [
            7.573615,
            47.494355,
            333.0
          ],
          [
            7.572914,
            47.494586,
            337.0
          ],
          [
            7.571684,
            47.494974,
            338.0
          ],
          [
            7.571298,
            47.495065,
            334.0
          ],
          [
            7.570759,
            47.495156,
            332.0
          ],
          [
            7.570615,
            47.495175,
            331.0
          ],
          [
            7.570273,
            47.495217,
            330.0
          ],
          [
            7.569644,
            47.495314,
            328.0
          ],
          [
            7.569015,
            47.495417,
            325.0
          ],
          [
            7.568746,
            47.495417,
            324.0
          ],
          [
            7.568639,
            47.495441,
            324.0
          ],
          [
            7.567013,
            47.495738,
            320.0
          ],
          [
            7.566555,
            47.495836,
            319.0
          ],
          [
            7.566572,
            47.495872,
            319.0
          ],
          [
            7.566581,
            47.495951,
            319.0
          ],
          [
            7.566365,
            47.495969,
            319.0
          ],
          [
            7.56544,
            47.49623,
            320.0
          ],
          [
            7.565162,
            47.496309,
            318.0
          ],
          [
            7.565099,
            47.496224,
            317.0
          ],
          [
            7.564812,
            47.496309,
            316.0
          ],
          [
            7.564812,
            47.496309,
            316.0
          ],
          [
            7.564327,
            47.496455,
            315.0
          ],
          [
            7.563994,
            47.496552,
            315.0
          ],
          [
            7.563805,
            47.496607,
            314.0
          ],
          [
            7.563626,
            47.496661,
            314.0
          ],
          [
            7.563545,
            47.496685,
            314.0
          ],
          [
            7.563339,
            47.496746,
            314.0
          ],
          [
            7.563339,
            47.496746,
            314.0
          ],
          [
            7.56297,
            47.496856,
            313.0
          ],
          [
            7.562755,
            47.496922,
            313.0
          ],
          [
            7.56192,
            47.497171,
            311.0
          ],
          [
            7.561775,
            47.497214,
            311.0
          ],
          [
            7.561461,
            47.497305,
            311.0
          ],
          [
            7.561308,
            47.497347,
            310.0
          ],
          [
            7.561318,
            47.497359,
            311.0
          ],
          [
            7.561318,
            47.497359,
            311.0
          ],
          [
            7.561308,
            47.497347,
            310.0
          ],
          [
            7.560968,
            47.49745,
            310.0
          ],
          [
            7.560086,
            47.497717,
            310.0
          ],
          [
            7.559916,
            47.497772,
            310.0
          ],
          [
            7.559736,
            47.497821,
            310.0
          ],
          [
            7.55936,
            47.497936,
            310.0
          ],
          [
            7.55927,
            47.49796,
            310.0
          ],
          [
            7.559117,
            47.498008,
            310.0
          ],
          [
            7.559036,
            47.498039,
            310.0
          ],
          [
            7.558955,
            47.498081,
            310.0
          ],
          [
            7.558946,
            47.498087,
            310.0
          ],
          [
            7.558946,
            47.498087,
            310.0
          ],
          [
            7.558865,
            47.49813,
            310.0
          ],
          [
            7.558794,
            47.498179,
            310.0
          ],
          [
            7.558757,
            47.498209,
            310.0
          ],
          [
            7.558712,
            47.498258,
            310.0
          ],
          [
            7.558658,
            47.498318,
            310.0
          ],
          [
            7.558622,
            47.498385,
            310.0
          ],
          [
            7.558587,
            47.498464,
            310.0
          ],
          [
            7.558551,
            47.498603,
            310.0
          ],
          [
            7.558524,
            47.498682,
            310.0
          ],
          [
            7.558425,
            47.498688,
            310.0
          ],
          [
            7.558344,
            47.4987,
            310.0
          ],
          [
            7.558291,
            47.498706,
            310.0
          ],
          [
            7.558155,
            47.498731,
            310.0
          ],
          [
            7.557976,
            47.498767,
            310.0
          ],
          [
            7.557823,
            47.498804,
            310.0
          ],
          [
            7.557715,
            47.498834,
            310.0
          ],
          [
            7.557589,
            47.498859,
            310.0
          ],
          [
            7.557373,
            47.498913,
            310.0
          ],
          [
            7.557203,
            47.498955,
            310.0
          ],
          [
            7.557104,
            47.498974,
            310.0
          ],
          [
            7.557041,
            47.498992,
            310.0
          ],
          [
            7.557006,
            47.498998,
            309.0
          ],
          [
            7.556979,
            47.499004,
            309.0
          ],
          [
            7.556924,
            47.499016,
            309.0
          ],
          [
            7.556709,
            47.499064,
            309.0
          ],
          [
            7.556511,
            47.499107,
            309.0
          ],
          [
            7.556511,
            47.499107,
            309.0
          ],
          [
            7.556341,
            47.49915,
            309.0
          ],
          [
            7.555937,
            47.499241,
            309.0
          ],
          [
            7.555865,
            47.499259,
            309.0
          ],
          [
            7.555765,
            47.499277,
            309.0
          ],
          [
            7.555595,
            47.499301,
            308.0
          ],
          [
            7.555595,
            47.499301,
            308.0
          ],
          [
            7.555595,
            47.499301,
            308.0
          ],
          [
            7.555379,
            47.499332,
            308.0
          ],
          [
            7.555083,
            47.499362,
            308.0
          ],
          [
            7.554859,
            47.499362,
            308.0
          ],
          [
            7.55466,
            47.499362,
            308.0
          ],
          [
            7.554616,
            47.499362,
            308.0
          ],
          [
            7.554481,
            47.499356,
            308.0
          ],
          [
            7.554257,
            47.499338,
            307.0
          ],
          [
            7.554094,
            47.499313,
            307.0
          ],
          [
            7.554094,
            47.499313,
            307.0
          ],
          [
            7.553951,
            47.499295,
            307.0
          ],
          [
            7.553735,
            47.499247,
            307.0
          ],
          [
            7.553565,
            47.499198,
            307.0
          ],
          [
            7.553475,
            47.499174,
            307.0
          ],
          [
            7.553358,
            47.49915,
            307.0
          ],
          [
            7.553232,
            47.499131,
            307.0
          ],
          [
            7.553215,
            47.499144,
            307.0
          ],
          [
            7.553161,
            47.499156,
            307.0
          ],
          [
            7.553107,
            47.499156,
            307.0
          ],
          [
            7.553071,
            47.49915,
            307.0
          ],
          [
            7.553035,
            47.499138,
            307.0
          ],
          [
            7.553008,
            47.499113,
            307.0
          ],
          [
            7.552981,
            47.499083,
            307.0
          ],
          [
            7.552972,
            47.499058,
            307.0
          ],
          [
            7.552972,
            47.499028,
            307.0
          ],
          [
            7.552855,
            47.49901,
            307.0
          ],
          [
            7.552838,
            47.49901,
            307.0
          ],
          [
            7.552838,
            47.49901,
            307.0
          ],
          [
            7.552702,
            47.498998,
            307.0
          ],
          [
            7.552549,
            47.498998,
            307.0
          ],
          [
            7.552442,
            47.49901,
            307.0
          ],
          [
            7.552352,
            47.499016,
            308.0
          ],
          [
            7.552173,
            47.499034,
            308.0
          ],
          [
            7.551957,
            47.499052,
            308.0
          ],
          [
            7.551886,
            47.499058,
            308.0
          ],
          [
            7.551769,
            47.499058,
            308.0
          ],
          [
            7.551687,
            47.499058,
            308.0
          ],
          [
            7.551328,
            47.499058,
            309.0
          ],
          [
            7.551274,
            47.499058,
            309.0
          ],
          [
            7.551121,
            47.499046,
            309.0
          ],
          [
            7.551121,
            47.499046,
            309.0
          ],
          [
            7.550125,
            47.498949,
            310.0
          ],
          [
            7.549999,
            47.498937,
            310.0
          ],
          [
            7.549477,
            47.498889,
            311.0
          ],
          [
            7.549325,
            47.498871,
            311.0
          ],
          [
            7.549325,
            47.498871,
            311.0
          ],
          [
            7.54893,
            47.498834,
            311.0
          ],
          [
            7.5484,
            47.498792,
            311.0
          ],
          [
            7.54831,
            47.498785,
            311.0
          ],
          [
            7.548004,
            47.498773,
            312.0
          ],
          [
            7.547941,
            47.498767,
            312.0
          ],
          [
            7.547825,
            47.498773,
            312.0
          ],
          [
            7.547725,
            47.498773,
            312.0
          ],
          [
            7.547717,
            47.498731,
            312.0
          ],
          [
            7.547691,
            47.498706,
            312.0
          ],
          [
            7.547628,
            47.498688,
            312.0
          ],
          [
            7.54698,
            47.498646,
            312.0
          ],
          [
            7.546675,
            47.498622,
            313.0
          ],
          [
            7.546549,
            47.498616,
            313.0
          ],
          [
            7.546064,
            47.498579,
            314.0
          ],
          [
            7.546064,
            47.498573,
            314.0
          ],
          [
            7.546064,
            47.498573,
            314.0
          ],
          [
            7.546064,
            47.498579,
            314.0
          ],
          [
            7.545238,
            47.498549,
            316.0
          ],
          [
            7.544699,
            47.498531,
            317.0
          ],
          [
            7.543217,
            47.4985,
            320.0
          ],
          [
            7.541949,
            47.498397,
            322.0
          ],
          [
            7.540341,
            47.498142,
            325.0
          ],
          [
            7.536613,
            47.497675,
            333.0
          ],
          [
            7.535517,
            47.497529,
            335.0
          ],
          [
            7.535473,
            47.497529,
            336.0
          ],
          [
            7.534422,
            47.497444,
            338.0
          ],
          [
            7.533362,
            47.497487,
            341.0
          ],
          [
            7.532643,
            47.497487,
            343.0
          ],
          [
            7.531789,
            47.497426,
            346.0
          ],
          [
            7.531781,
            47.497426,
            346.0
          ],
          [
            7.531781,
            47.497426,
            346.0
          ],
          [
            7.531332,
            47.497359,
            347.0
          ],
          [
            7.530604,
            47.497323,
            349.0
          ],
          [
            7.530093,
            47.497292,
            350.0
          ],
          [
            7.529464,
            47.497274,
            350.0
          ],
          [
            7.529095,
            47.49728,
            350.0
          ],
          [
            7.528798,
            47.497286,
            350.0
          ],
          [
            7.528619,
            47.49728,
            350.0
          ],
          [
            7.528529,
            47.49728,
            350.0
          ],
          [
            7.528242,
            47.497268,
            350.0
          ],
          [
            7.527739,
            47.497238,
            350.0
          ],
          [
            7.527523,
            47.497214,
            350.0
          ],
          [
            7.526328,
            47.497129,
            350.0
          ],
          [
            7.525986,
            47.497086,
            350.0
          ],
          [
            7.52551,
            47.497031,
            350.0
          ],
          [
            7.525043,
            47.496989,
            350.0
          ],
          [
            7.524244,
            47.496898,
            350.0
          ],
          [
            7.523848,
            47.496856,
            350.0
          ],
          [
            7.522573,
            47.496789,
            350.0
          ],
          [
            7.521414,
            47.496752,
            350.0
          ],
          [
            7.520569,
            47.496752,
            350.0
          ],
          [
            7.520183,
            47.496758,
            350.0
          ],
          [
            7.519833,
            47.496783,
            350.0
          ],
          [
            7.519527,
            47.496819,
            350.0
          ],
          [
            7.518988,
            47.496928,
            350.0
          ],
          [
            7.515225,
            47.497729,
            366.0
          ],
          [
            7.514856,
            47.497754,
            367.0
          ],
          [
            7.514506,
            47.497729,
            367.0
          ],
          [
            7.513608,
            47.497596,
            369.0
          ],
          [
            7.513015,
            47.497481,
            370.0
          ],
          [
            7.512916,
            47.497462,
            370.0
          ],
          [
            7.512916,
            47.497462,
            370.0
          ],
          [
            7.512395,
            47.497347,
            371.0
          ],
          [
            7.511927,
            47.497214,
            371.0
          ],
          [
            7.511353,
            47.497013,
            371.0
          ],
          [
            7.511218,
            47.496983,
            372.0
          ],
          [
            7.511065,
            47.496953,
            372.0
          ],
          [
            7.510535,
            47.496868,
            372.0
          ],
          [
            7.508424,
            47.496424,
            374.0
          ],
          [
            7.507652,
            47.496206,
            375.0
          ],
          [
            7.506925,
            47.495981,
            375.0
          ],
          [
            7.505407,
            47.495447,
            377.0
          ],
          [
            7.504841,
            47.495162,
            377.0
          ],
          [
            7.504292,
            47.494871,
            378.0
          ],
          [
            7.504292,
            47.494871,
            378.0
          ],
          [
            7.504149,
            47.494792,
            378.0
          ],
          [
            7.502757,
            47.494167,
            380.0
          ],
          [
            7.501705,
            47.493699,
            380.0
          ],
          [
            7.501499,
            47.493396,
            380.0
          ],
          [
            7.501327,
            47.493208,
            380.0
          ],
          [
            7.501292,
            47.493165,
            380.0
          ],
          [
            7.501274,
            47.493135,
            380.0
          ],
          [
            7.501237,
            47.493068,
            380.0
          ],
          [
            7.501176,
            47.492928,
            380.0
          ],
          [
            7.501103,
            47.492795,
            380.0
          ],
          [
            7.501059,
            47.492716,
            380.0
          ],
          [
            7.500977,
            47.492607,
            380.0
          ],
          [
            7.50087,
            47.492449,
            380.0
          ],
          [
            7.500744,
            47.492297,
            380.0
          ],
          [
            7.500547,
            47.492085,
            380.0
          ],
          [
            7.50034,
            47.491866,
            380.0
          ],
          [
            7.500205,
            47.491715,
            380.0
          ],
          [
            7.500115,
            47.491593,
            380.0
          ],
          [
            7.500079,
            47.491532,
            380.0
          ],
          [
            7.500044,
            47.49143,
            380.0
          ],
          [
            7.499945,
            47.491132,
            380.0
          ],
          [
            7.499899,
            47.491029,
            380.0
          ],
          [
            7.499845,
            47.490949,
            380.0
          ],
          [
            7.499765,
            47.490847,
            380.0
          ],
          [
            7.499648,
            47.490731,
            380.0
          ],
          [
            7.499568,
            47.490658,
            380.0
          ],
          [
            7.499163,
            47.490367,
            380.0
          ],
          [
            7.498893,
            47.490203,
            380.0
          ],
          [
            7.498795,
            47.4901,
            380.0
          ],
          [
            7.49875,
            47.490003,
            380.0
          ],
          [
            7.498687,
            47.489918,
            380.0
          ],
          [
            7.498597,
            47.489821,
            380.0
          ],
          [
            7.498534,
            47.489754,
            380.0
          ],
          [
            7.498499,
            47.489748,
            380.0
          ],
          [
            7.498363,
            47.489566,
            380.0
          ],
          [
            7.498247,
            47.48936,
            379.0
          ],
          [
            7.498193,
            47.489232,
            379.0
          ],
          [
            7.498174,
            47.489123,
            379.0
          ],
          [
            7.498166,
            47.489007,
            379.0
          ],
          [
            7.498184,
            47.488922,
            378.0
          ],
          [
            7.498201,
            47.488861,
            378.0
          ],
          [
            7.498274,
            47.488789,
            378.0
          ],
          [
            7.498436,
            47.48871,
            378.0
          ],
          [
            7.498526,
            47.48868,
            378.0
          ],
          [
            7.498633,
            47.488661,
            379.0
          ],
          [
            7.498669,
            47.488704,
            379.0
          ],
          [
            7.498723,
            47.48874,
            379.0
          ],
          [
            7.498885,
            47.488801,
            379.0
          ],
          [
            7.499019,
            47.488837,
            379.0
          ],
          [
            7.499118,
            47.488771,
            379.0
          ],
          [
            7.499199,
            47.48874,
            379.0
          ],
          [
            7.499279,
            47.488753,
            378.0
          ],
          [
            7.499342,
            47.488783,
            378.0
          ],
          [
            7.499352,
            47.488837,
            378.0
          ],
          [
            7.499352,
            47.488855,
            378.0
          ],
          [
            7.499352,
            47.488892,
            378.0
          ],
          [
            7.499333,
            47.488928,
            377.0
          ],
          [
            7.499271,
            47.488959,
            380.0
          ],
          [
            7.49919,
            47.488995,
            380.0
          ]
        ]
      }
    }
  ]
}