{
  "type": "FeatureCollection",
  "features": [
    {
      "type": "Feature",
      "properties": {},
      "geometry": {
        "type": "LineString",
        "coordinates": [
          [
            7.000831,
            47.151629,
            792.0
          ],
          [
            7.000796,
            47.151714,
            792.0
          ],
          [
            7.000858,
            47.151727,
            792.0
          ],
          [
            7.000957,
            47.151751,
            791.0
          ],
          [
            7.001083,
            47.151482,
            787.0
          ],
          [
            7.001119,
            47.151409,
            786.0
          ],
          [
            7.00111,
            47.151372,
            785.0
          ],
          [
            7.001101,
            47.15128,
            784.0
          ],
          [
            7.002592,
            47.149754,
            760.0
          ],
          [
            7.002601,
            47.149723,
            760.0
          ],
          [
            7.002701,
            47.149729,
            760.0
          ],
          [
            7.002735,
            47.149735,
            760.0
          ],
          [
            7.002988,
            47.149754,
            760.0
          ],
          [
            7.003714,
            47.149821,
            760.0
          ],
          [
            7.003841,
            47.149833,
            760.0
          ],
          [
            7.003877,
            47.149797,
            760.0
          ],
          [
            7.004003,
            47.149754,
            760.0
          ],
          [
            7.004003,
            47.149723,
            760.0
          ],
          [
            7.004003,
            47.149717,
            760.0
          ],
          [
            7.003976,
            47.149674,
            760.0
          ],
          [
            7.003949,
            47.149619,
            760.0
          ],
          [
            7.003913,
            47.149546,
            760.0
          ],
          [
            7.003894,
            47.149473,
            760.0
          ],
          [
            7.0042,
            47.149454,
            760.0
          ],
          [
            7.00428,
            47.149467,
            760.0
          ],
          [
            7.004299,
            47.149479,
            760.0
          ],
          [
            7.004936,
            47.149485,
            760.0
          ],
          [
            7.004946,
            47.149436,
            760.0
          ],
          [
            7.004946,
            47.14943,
            760.0
          ],
          [
            7.004946,
            47.149369,
            760.0
          ],
          [
            7.004946,
            47.149332,
            760.0
          ],
          [
            7.004919,
            47.149259,
            760.0
          ],
          [
            7.004928,
            47.149069,
            760.0
          ],
          [
            7.005018,
            47.149027,
            760.0
          ],
          [
            7.005116,
            47.14899,
            760.0
          ],
          [
            7.005332,
            47.148947,
            762.0
          ],
          [
            7.005395,
            47.148935,
            763.0
          ],
          [
            7.005458,
            47.148892,
            764.0
          ],
          [
            7.005485,
            47.148862,
            764.0
          ],
          [
            7.005494,
            47.148813,
            765.0
          ],
          [
            7.005485,
            47.148776,
            766.0
          ],
          [
            7.005458,
            47.148739,
            766.0
          ],
          [
            7.005412,
            47.148715,
            767.0
          ],
          [
            7.005171,
            47.148629,
            769.0
          ],
          [
            7.005081,
            47.148587,
            777.0
          ],
          [
            7.005225,
            47.148538,
            777.0
          ],
          [
            7.005368,
            47.14847,
            777.0
          ],
          [
            7.006114,
            47.14811,
            779.0
          ],
          [
            7.006383,
            47.147963,
            780.0
          ],
          [
            7.006814,
            47.148055,
            780.0
          ],
          [
            7.007848,
            47.148287,
            780.0
          ],
          [
            7.007955,
            47.148281,
            780.0
          ],
          [
            7.008404,
            47.148183,
            780.0
          ],
          [
            7.008548,
            47.148171,
            780.0
          ],
          [
            7.009006,
            47.148202,
            780.0
          ],
          [
            7.009096,
            47.148195,
            780.0
          ],
          [
            7.00924,
            47.148214,
            780.0
          ],
          [
            7.010192,
            47.148263,
            780.0
          ],
          [
            7.011037,
            47.148312,
            780.0
          ],
          [
            7.011791,
            47.148367,
            780.0
          ],
          [
            7.012473,
            47.148422,
            781.0
          ],
          [
            7.012653,
            47.148434,
            782.0
          ],
          [
            7.012825,
            47.148434,
            783.0
          ],
          [
            7.012941,
            47.148415,
            784.0
          ],
          [
            7.013012,
            47.148385,
            785.0
          ],
          [
            7.013255,
            47.148287,
            787.0
          ],
          [
            7.013364,
            47.148263,
            788.0
          ],
          [
            7.013471,
            47.148244,
            789.0
          ],
          [
            7.013588,
            47.148134,
            790.0
          ],
          [
            7.013777,
            47.148067,
            793.0
          ],
          [
            7.013893,
            47.148,
            795.0
          ],
          [
            7.014064,
            47.147841,
            800.0
          ],
          [
            7.014163,
            47.147725,
            800.0
          ],
          [
            7.014882,
            47.147963,
            802.0
          ],
          [
            7.015393,
            47.148122,
            804.0
          ],
          [
            7.015815,
            47.148263,
            805.0
          ],
          [
            7.015941,
            47.148305,
            805.0
          ],
          [
            7.016121,
            47.148354,
            806.0
          ],
          [
            7.016354,
            47.148391,
            806.0
          ],
          [
            7.016714,
            47.148422,
            807.0
          ],
          [
            7.016821,
            47.148428,
            807.0
          ],
          [
            7.016903,
            47.148452,
            807.0
          ],
          [
            7.016974,
            47.148483,
            808.0
          ],
          [
            7.017083,
            47.148544,
            808.0
          ],
          [
            7.017226,
            47.148635,
            808.0
          ],
          [
            7.017406,
            47.148733,
            809.0
          ],
          [
            7.017746,
            47.14891,
            810.0
          ],
          [
            7.017926,
            47.148996,
            810.0
          ],
          [
            7.018125,
            47.149057,
            811.0
          ],
          [
            7.018286,
            47.149088,
            811.0
          ],
          [
            7.018511,
            47.149124,
            812.0
          ],
          [
            7.019058,
            47.149192,
            813.0
          ],
          [
            7.01922,
            47.149216,
            813.0
          ],
          [
            7.019507,
            47.149277,
            814.0
          ],
          [
            7.020423,
            47.149558,
            816.0
          ],
          [
            7.02072,
            47.149864,
            817.0
          ],
          [
            7.020899,
            47.149894,
            817.0
          ],
          [
            7.020945,
            47.149925,
            817.0
          ],
          [
            7.020989,
            47.149949,
            817.0
          ],
          [
            7.021268,
            47.150017,
            818.0
          ],
          [
            7.021834,
            47.150194,
            819.0
          ],
          [
            7.022077,
            47.150224,
            820.0
          ],
          [
            7.022383,
            47.150242,
            820.0
          ],
          [
            7.022562,
            47.150242,
            820.0
          ],
          [
            7.022867,
            47.150206,
            820.0
          ],
          [
            7.023038,
            47.150145,
            820.0
          ],
          [
            7.023515,
            47.14998,
            820.0
          ],
          [
            7.023622,
            47.149949,
            820.0
          ],
          [
            7.023828,
            47.149943,
            820.0
          ],
          [
            7.023936,
            47.1499,
            820.0
          ],
          [
            7.023972,
            47.149858,
            820.0
          ],
          [
            7.024044,
            47.149839,
            820.0
          ],
          [
            7.024367,
            47.149833,
            815.0
          ],
          [
            7.024628,
            47.149797,
            810.0
          ],
          [
            7.024717,
            47.149815,
            810.0
          ],
          [
            7.024771,
            47.149742,
            810.0
          ],
          [
            7.02488,
            47.149662,
            810.0
          ],
          [
            7.025149,
            47.14957,
            813.0
          ],
          [
            7.025383,
            47.149491,
            815.0
          ],
          [
            7.02549,
            47.149412,
            817.0
          ],
          [
            7.025616,
            47.149265,
            819.0
          ],
          [
            7.025876,
            47.149137,
            822.0
          ],
          [
            7.026056,
            47.149088,
            825.0
          ],
          [
            7.026272,
            47.148941,
            828.0
          ],
          [
            7.026425,
            47.14888,
            831.0
          ],
          [
            7.026928,
            47.148709,
            837.0
          ],
          [
            7.027062,
            47.148654,
            839.0
          ],
          [
            7.02717,
            47.148538,
            842.0
          ],
          [
            7.027341,
            47.148538,
            843.0
          ],
          [
            7.027358,
            47.148483,
            844.0
          ],
          [
            7.027368,
            47.148293,
            847.0
          ],
          [
            7.027331,
            47.148183,
            849.0
          ],
          [
            7.027457,
            47.148055,
            852.0
          ],
          [
            7.02753,
            47.147988,
            853.0
          ],
          [
            7.027574,
            47.14792,
            855.0
          ],
          [
            7.027574,
            47.147817,
            857.0
          ],
          [
            7.027601,
            47.147713,
            858.0
          ],
          [
            7.027656,
            47.147658,
            860.0
          ],
          [
            7.027709,
            47.147609,
            861.0
          ],
          [
            7.028123,
            47.147346,
            868.0
          ],
          [
            7.028167,
            47.147267,
            869.0
          ],
          [
            7.028212,
            47.147169,
            871.0
          ],
          [
            7.028302,
            47.147016,
            873.0
          ],
          [
            7.0284,
            47.146931,
            875.0
          ],
          [
            7.028455,
            47.146797,
            877.0
          ],
          [
            7.028482,
            47.146656,
            879.0
          ],
          [
            7.028562,
            47.146632,
            880.0
          ],
          [
            7.028562,
            47.146595,
            880.0
          ],
          [
            7.028562,
            47.146485,
            882.0
          ],
          [
            7.028572,
            47.146345,
            884.0
          ],
          [
            7.028572,
            47.14629,
            885.0
          ],
          [
            7.028616,
            47.146265,
            885.0
          ],
          [
            7.028643,
            47.146247,
            886.0
          ],
          [
            7.028815,
            47.146161,
            888.0
          ],
          [
            7.028895,
            47.146113,
            889.0
          ],
          [
            7.029084,
            47.145917,
            892.0
          ],
          [
            7.029182,
            47.145813,
            894.0
          ],
          [
            7.029281,
            47.145734,
            896.0
          ],
          [
            7.02965,
            47.145538,
            900.0
          ],
          [
            7.029748,
            47.145532,
            901.0
          ],
          [
            7.029964,
            47.145306,
            906.0
          ],
          [
            7.030044,
            47.145232,
            907.0
          ],
          [
            7.030117,
            47.145116,
            909.0
          ],
          [
            7.030126,
            47.145037,
            910.0
          ],
          [
            7.030153,
            47.144878,
            912.0
          ],
          [
            7.030207,
            47.144817,
            913.0
          ],
          [
            7.030243,
            47.14475,
            914.0
          ],
          [
            7.030278,
            47.144688,
            915.0
          ],
          [
            7.030341,
            47.144572,
            917.0
          ],
          [
            7.030449,
            47.144462,
            919.0
          ],
          [
            7.030683,
            47.144322,
            922.0
          ],
          [
            7.030826,
            47.144218,
            924.0
          ],
          [
            7.031052,
            47.144114,
            926.0
          ],
          [
            7.031465,
            47.143857,
            932.0
          ],
          [
            7.031689,
            47.143711,
            935.0
          ],
          [
            7.031815,
            47.143595,
            937.0
          ],
          [
            7.031922,
            47.143448,
            939.0
          ],
          [
            7.032138,
            47.143314,
            942.0
          ],
          [
            7.032335,
            47.143235,
            944.0
          ],
          [
            7.032497,
            47.142935,
            947.0
          ],
          [
            7.032488,
            47.142734,
            950.0
          ],
          [
            7.032587,
            47.142538,
            953.0
          ],
          [
            7.032631,
            47.142422,
            955.0
          ],
          [
            7.03274,
            47.14233,
            957.0
          ],
          [
            7.032748,
            47.142159,
            960.0
          ],
          [
            7.03265,
            47.142012,
            963.0
          ],
          [
            7.03265,
            47.141927,
            965.0
          ],
          [
            7.032704,
            47.141866,
            966.0
          ],
          [
            7.03274,
            47.141829,
            967.0
          ],
          [
            7.032803,
            47.141756,
            968.0
          ],
          [
            7.032857,
            47.14164,
            970.0
          ],
          [
            7.032847,
            47.141505,
            974.0
          ],
          [
            7.032811,
            47.141365,
            978.0
          ],
          [
            7.032893,
            47.141212,
            982.0
          ],
          [
            7.033162,
            47.14101,
            991.0
          ],
          [
            7.033314,
            47.140906,
            995.0
          ],
          [
            7.033665,
            47.140784,
            1004.0
          ],
          [
            7.034069,
            47.140686,
            1013.0
          ],
          [
            7.034123,
            47.140564,
            1015.0
          ],
          [
            7.034149,
            47.140296,
            1021.0
          ],
          [
            7.034375,
            47.140063,
            1025.0
          ],
          [
            7.034536,
            47.139776,
            1030.0
          ],
          [
            7.034689,
            47.13952,
            1036.0
          ],
          [
            7.03477,
            47.139269,
            1042.0
          ],
          [
            7.034841,
            47.139135,
            1046.0
          ],
          [
            7.03486,
            47.139104,
            1047.0
          ],
          [
            7.034922,
            47.138982,
            1050.0
          ],
          [
            7.035012,
            47.138792,
            1053.0
          ],
          [
            7.034958,
            47.138597,
            1056.0
          ],
          [
            7.035057,
            47.138487,
            1058.0
          ],
          [
            7.035273,
            47.13823,
            1069.0
          ],
          [
            7.035281,
            47.138187,
            1070.0
          ],
          [
            7.035327,
            47.13815,
            1072.0
          ],
          [
            7.035417,
            47.138108,
            1075.0
          ],
          [
            7.035434,
            47.138077,
            1076.0
          ],
          [
            7.035533,
            47.138004,
            1079.0
          ],
          [
            7.035633,
            47.137955,
            1082.0
          ],
          [
            7.035713,
            47.137918,
            1085.0
          ],
          [
            7.03582,
            47.137888,
            1088.0
          ],
          [
            7.03583,
            47.137796,
            1094.0
          ],
          [
            7.035857,
            47.137717,
            1099.0
          ],
          [
            7.035839,
            47.137656,
            1101.0
          ],
          [
            7.035857,
            47.137607,
            1103.0
          ],
          [
            7.035902,
            47.13757,
            1104.0
          ],
          [
            7.035937,
            47.13757,
            1105.0
          ],
          [
            7.035992,
            47.137595,
            1106.0
          ],
          [
            7.036019,
            47.137637,
            1107.0
          ],
          [
            7.036046,
            47.137711,
            1109.0
          ],
          [
            7.036054,
            47.137814,
            1113.0
          ],
          [
            7.036082,
            47.137851,
            1114.0
          ],
          [
            7.036162,
            47.137741,
            1118.0
          ],
          [
            7.036216,
            47.13768,
            1121.0
          ],
          [
            7.036243,
            47.137576,
            1131.0
          ],
          [
            7.036279,
            47.137613,
            1133.0
          ],
          [
            7.036333,
            47.137698,
            1137.0
          ],
          [
            7.036476,
            47.137833,
            1143.0
          ],
          [
            7.036512,
            47.137943,
            1145.0
          ],
          [
            7.036566,
            47.137967,
            1147.0
          ],
          [
            7.036612,
            47.137937,
            1148.0
          ],
          [
            7.03653,
            47.137802,
            1150.0
          ],
          [
            7.036522,
            47.137711,
            1150.0
          ],
          [
            7.036396,
            47.137588,
            1150.0
          ],
          [
            7.036369,
            47.137552,
            1150.0
          ],
          [
            7.036306,
            47.137515,
            1150.0
          ],
          [
            7.036234,
            47.137393,
            1150.0
          ],
          [
            7.036225,
            47.13732,
            1152.0
          ],
          [
            7.036234,
            47.137277,
            1154.0
          ],
          [
            7.036252,
            47.137185,
            1160.0
          ],
          [
            7.036323,
            47.137234,
            1164.0
          ],
          [
            7.036369,
            47.137283,
            1167.0
          ],
          [
            7.036413,
            47.137308,
            1169.0
          ],
          [
            7.036449,
            47.137283,
            1171.0
          ],
          [
            7.036423,
            47.137222,
            1172.0
          ],
          [
            7.036315,
            47.137094,
            1175.0
          ],
          [
            7.036306,
            47.137027,
            1176.0
          ],
          [
            7.036315,
            47.136996,
            1177.0
          ],
          [
            7.036468,
            47.136849,
            1180.0
          ],
          [
            7.036486,
            47.136764,
            1180.0
          ],
          [
            7.036522,
            47.136703,
            1180.0
          ],
          [
            7.036593,
            47.136666,
            1182.0
          ],
          [
            7.036629,
            47.136593,
            1187.0
          ],
          [
            7.036656,
            47.136593,
            1188.0
          ],
          [
            7.036675,
            47.136605,
            1189.0
          ],
          [
            7.036692,
            47.13666,
            1190.0
          ],
          [
            7.036656,
            47.136709,
            1190.0
          ],
          [
            7.03662,
            47.136739,
            1190.0
          ],
          [
            7.036566,
            47.136831,
            1194.0
          ],
          [
            7.036566,
            47.136862,
            1196.0
          ],
          [
            7.036602,
            47.13688,
            1198.0
          ],
          [
            7.036656,
            47.136855,
            1200.0
          ],
          [
            7.036836,
            47.136666,
            1211.0
          ],
          [
            7.036899,
            47.136568,
            1214.0
          ],
          [
            7.036926,
            47.136574,
            1215.0
          ],
          [
            7.036952,
            47.13677,
            1221.0
          ],
          [
            7.036979,
            47.136764,
            1222.0
          ],
          [
            7.037006,
            47.136739,
            1224.0
          ],
          [
            7.037025,
            47.136684,
            1228.0
          ],
          [
            7.037052,
            47.136635,
            1230.0
          ],
          [
            7.037061,
            47.136599,
            1230.0
          ],
          [
            7.037006,
            47.136538,
            1230.0
          ],
          [
            7.036979,
            47.136476,
            1230.0
          ],
          [
            7.036962,
            47.13644,
            1230.0
          ],
          [
            7.036935,
            47.136421,
            1230.0
          ],
          [
            7.036971,
            47.136415,
            1230.0
          ],
          [
            7.037006,
            47.13644,
            1230.0
          ],
          [
            7.037078,
            47.136427,
            1235.0
          ],
          [
            7.037214,
            47.136476,
            1243.0
          ],
          [
            7.037222,
            47.136415,
            1246.0
          ],
          [
            7.037258,
            47.136397,
            1248.0
          ],
          [
            7.037402,
            47.136379,
            1251.0
          ],
          [
            7.037483,
            47.13633,
            1253.0
          ],
          [
            7.037555,
            47.136305,
            1254.0
          ],
          [
            7.03778,
            47.136189,
            1258.0
          ],
          [
            7.03786,
            47.136146,
            1259.0
          ],
          [
            7.037931,
            47.136097,
            1260.0
          ],
          [
            7.037977,
            47.136067,
            1260.0
          ],
          [
            7.038021,
            47.135932,
            1261.0
          ],
          [
            7.038048,
            47.13589,
            1261.0
          ],
          [
            7.03812,
            47.135865,
            1262.0
          ],
          [
            7.038354,
            47.135816,
            1262.0
          ],
          [
            7.038462,
            47.135743,
            1263.0
          ],
          [
            7.038507,
            47.135657,
            1263.0
          ],
          [
            7.038614,
            47.135608,
            1264.0
          ],
          [
            7.038704,
            47.13548,
            1265.0
          ],
          [
            7.038794,
            47.135437,
            1265.0
          ],
          [
            7.038822,
            47.135352,
            1265.0
          ],
          [
            7.038965,
            47.13515,
            1267.0
          ],
          [
            7.039002,
            47.135058,
            1267.0
          ],
          [
            7.039145,
            47.134906,
            1268.0
          ],
          [
            7.039369,
            47.134594,
            1270.0
          ],
          [
            7.039468,
            47.134521,
            1270.0
          ],
          [
            7.039684,
            47.134393,
            1272.0
          ],
          [
            7.039809,
            47.134313,
            1273.0
          ],
          [
            7.039891,
            47.13424,
            1274.0
          ],
          [
            7.039981,
            47.134167,
            1275.0
          ],
          [
            7.039981,
            47.13413,
            1276.0
          ],
          [
            7.039855,
            47.134087,
            1276.0
          ],
          [
            7.039648,
            47.133904,
            1279.0
          ],
          [
            7.039612,
            47.133861,
            1279.0
          ],
          [
            7.039513,
            47.133843,
            1280.0
          ],
          [
            7.039459,
            47.13383,
            1280.0
          ],
          [
            7.039352,
            47.133708,
            1282.0
          ],
          [
            7.03927,
            47.133586,
            1284.0
          ],
          [
            7.039216,
            47.133464,
            1286.0
          ],
          [
            7.039199,
            47.133243,
            1289.0
          ],
          [
            7.038713,
            47.132492,
            1299.0
          ],
          [
            7.03856,
            47.131912,
            1307.0
          ],
          [
            7.038426,
            47.131441,
            1318.0
          ],
          [
            7.038193,
            47.131306,
            1322.0
          ],
          [
            7.037815,
            47.131025,
            1327.0
          ],
          [
            7.037744,
            47.130921,
            1329.0
          ],
          [
            7.037627,
            47.130811,
            1331.0
          ],
          [
            7.037681,
            47.130493,
            1336.0
          ],
          [
            7.037734,
            47.130255,
            1340.0
          ],
          [
            7.03769,
            47.130163,
            1341.0
          ],
          [
            7.037545,
            47.130115,
            1343.0
          ],
          [
            7.037357,
            47.130084,
            1345.0
          ],
          [
            7.037178,
            47.12995,
            1348.0
          ],
          [
            7.036918,
            47.129846,
            1351.0
          ],
          [
            7.036639,
            47.129705,
            1355.0
          ],
          [
            7.036386,
            47.129455,
            1359.0
          ],
          [
            7.036063,
            47.129112,
            1364.0
          ],
          [
            7.035866,
            47.128788,
            1369.0
          ],
          [
            7.035812,
            47.128654,
            1371.0
          ],
          [
            7.035884,
            47.128538,
            1373.0
          ],
          [
            7.035857,
            47.128256,
            1377.0
          ],
          [
            7.035847,
            47.128177,
            1379.0
          ],
          [
            7.036027,
            47.127884,
            1384.0
          ],
          [
            7.036162,
            47.12778,
            1386.0
          ],
          [
            7.036396,
            47.127585,
            1391.0
          ],
          [
            7.036639,
            47.127444,
            1397.0
          ],
          [
            7.037006,
            47.127291,
            1404.0
          ],
          [
            7.037285,
            47.127212,
            1408.0
          ],
          [
            7.037518,
            47.127181,
            1411.0
          ],
          [
            7.037994,
            47.127077,
            1417.0
          ],
          [
            7.038138,
            47.127089,
            1418.0
          ],
          [
            7.038381,
            47.126869,
            1423.0
          ],
          [
            7.038534,
            47.126698,
            1427.0
          ],
          [
            7.038794,
            47.126521,
            1433.0
          ],
          [
            7.038973,
            47.126264,
            1441.0
          ],
          [
            7.03892,
            47.126172,
            1443.0
          ],
          [
            7.038983,
            47.126191,
            1444.0
          ],
          [
            7.039073,
            47.126221,
            1445.0
          ],
          [
            7.040411,
            47.126545,
            1461.0
          ],
          [
            7.043304,
            47.127187,
            1504.0
          ],
          [
            7.043564,
            47.127267,
            1508.0
          ],
          [
            7.043699,
            47.127303,
            1510.0
          ],
          [
            7.04395,
            47.127365,
            1515.0
          ],
          [
            7.044589,
            47.127536,
            1526.0
          ],
          [
            7.045101,
            47.127725,
            1534.0
          ],
          [
            7.045397,
            47.127884,
            1539.0
          ],
          [
            7.045657,
            47.127975,
            1542.0
          ],
          [
            7.04616,
            47.128067,
            1547.0
          ],
          [
            7.046763,
            47.128311,
            1551.0
          ],
          [
            7.046843,
            47.128299,
            1552.0
          ],
          [
            7.046834,
            47.128262,
            1552.0
          ],
          [
            7.046682,
            47.128012,
            1553.0
          ],
          [
            7.046709,
            47.127969,
            1553.0
          ],
          [
            7.04678,
            47.128012,
            1554.0
          ],
          [
            7.046906,
            47.128134,
            1555.0
          ],
          [
            7.047122,
            47.128305,
            1556.0
          ],
          [
            7.047248,
            47.128379,
            1556.0
          ],
          [
            7.047355,
            47.128434,
            1557.0
          ],
          [
            7.047472,
            47.128483,
            1557.0
          ],
          [
            7.047598,
            47.128538,
            1558.0
          ],
          [
            7.047742,
            47.12858,
            1558.0
          ],
          [
            7.047948,
            47.128654,
            1559.0
          ],
          [
            7.048002,
            47.128666,
            1559.0
          ],
          [
            7.048774,
            47.128917,
            1562.0
          ],
          [
            7.049673,
            47.129204,
            1564.0
          ],
          [
            7.050005,
            47.129308,
            1565.0
          ],
          [
            7.050113,
            47.129351,
            1565.0
          ],
          [
            7.050212,
            47.1294,
            1566.0
          ],
          [
            7.050526,
            47.129601,
            1567.0
          ],
          [
            7.051137,
            47.129913,
            1569.0
          ],
          [
            7.05121,
            47.129956,
            1569.0
          ],
          [
            7.051254,
            47.129999,
            1569.0
          ],
          [
            7.051281,
            47.130047,
            1570.0
          ],
          [
            7.051308,
            47.130108,
            1570.0
          ],
          [
            7.051344,
            47.1302,
            1570.0
          ],
          [
            7.051434,
            47.130414,
            1572.0
          ],
          [
            7.051487,
            47.130573,
            1574.0
          ],
          [
            7.05156,
            47.130781,
            1576.0
          ],
          [
            7.051587,
            47.130848,
            1576.0
          ],
          [
            7.05164,
            47.130897,
            1577.0
          ],
          [
            7.051541,
            47.130866,
            1578.0
          ],
          [
            7.051397,
            47.130787,
            1579.0
          ],
          [
            7.051137,
            47.130689,
            1580.0
          ],
          [
            7.050975,
            47.130585,
            1580.0
          ],
          [
            7.050975,
            47.130585,
            1580.0
          ],
          [
            7.051137,
            47.130689,
            1580.0
          ],
          [
            7.051397,
            47.130787,
            1579.0
          ],
          [
            7.051541,
            47.130866,
            1578.0
          ],
          [
            7.05164,
            47.130897,
            1577.0
          ],
          [
            7.051587,
            47.130848,
            1576.0
          ],
          [
            7.05156,
            47.130781,
            1576.0
          ],
          [
            7.051487,
            47.130573,
            1574.0
          ],
          [
            7.051434,
            47.130414,
            1572.0
          ],
          [
            7.051344,
            47.1302,
            1570.0
          ],
          [
            7.051308,
            47.130108,
            1570.0
          ],
          [
            7.051281,
            47.130047,
            1570.0
          ],
          [
            7.051254,
            47.129999,
            1569.0
          ],
          [
            7.05121,
            47.129956,
            1569.0
          ],
          [
            7.051137,
            47.129913,
            1569.0
          ],
          [
            7.050526,
            47.129601,
            1567.0
          ],
          [
            7.050212,
            47.1294,
            1566.0
          ],
          [
            7.050113,
            47.129351,
            1565.0
          ],
          [
            7.050005,
            47.129308,
            1565.0
          ],
          [
            7.049673,
            47.129204,
            1564.0
          ],
          [
            7.048774,
            47.128917,
            1562.0
          ],
          [
            7.048002,
            47.128666,
            1559.0
          ],
          [
            7.047948,
            47.128654,
            1559.0
          ],
          [
            7.047742,
            47.12858,
            1558.0
          ],
          [
            7.047598,
            47.128538,
            1558.0
          ],
          [
            7.047472,
            47.128483,
            1557.0
          ],
          [
            7.047355,
            47.128434,
            1557.0
          ],
          [
            7.047248,
            47.128379,
            1556.0
          ],
          [
            7.047122,
            47.128305,
            1556.0
          ],
          [
            7.046906,
            47.128134,
            1555.0
          ],
          [
            7.04678,
            47.128012,
            1554.0
          ],
          [
            7.046709,
            47.127969,
            1553.0
          ],
          [
            7.046484,
            47.127749,
            1552.0
          ],
          [
            7.046061,
            47.127395,
            1548.0
          ],
          [
            7.045963,
            47.127316,
            1547.0
          ],
          [
            7.045837,
            47.12723,
            1546.0
          ],
          [
            7.045757,
            47.127181,
            1545.0
          ],
          [
            7.04581,
            47.127132,
            1544.0
          ],
          [
            7.045881,
            47.127083,
            1544.0
          ],
          [
            7.04591,
            47.127065,
            1543.0
          ],
          [
            7.045918,
            47.127053,
            1543.0
          ],
          [
            7.045936,
            47.127053,
            1543.0
          ],
          [
            7.045999,
            47.127004,
            1543.0
          ],
          [
            7.04608,
            47.1269,
            1541.0
          ],
          [
            7.046107,
            47.126912,
            1541.0
          ],
          [
            7.046403,
            47.126961,
            1538.0
          ],
          [
            7.04678,
            47.127022,
            1534.0
          ],
          [
            7.046933,
            47.127016,
            1532.0
          ],
          [
            7.047076,
            47.126985,
            1531.0
          ],
          [
            7.047688,
            47.126869,
            1521.0
          ],
          [
            7.047966,
            47.126765,
            1516.0
          ],
          [
            7.04829,
            47.126667,
            1509.0
          ],
          [
            7.048649,
            47.126521,
            1501.0
          ],
          [
            7.048739,
            47.126466,
            1499.0
          ],
          [
            7.048837,
            47.126417,
            1496.0
          ],
          [
            7.048973,
            47.126374,
            1493.0
          ],
          [
            7.04908,
            47.126319,
            1490.0
          ],
          [
            7.04926,
            47.126227,
            1486.0
          ],
          [
            7.049413,
            47.126197,
            1483.0
          ],
          [
            7.049556,
            47.126142,
            1480.0
          ],
          [
            7.049646,
            47.126123,
            1477.0
          ],
          [
            7.049726,
            47.12605,
            1474.0
          ],
          [
            7.049843,
            47.125995,
            1471.0
          ],
          [
            7.049979,
            47.125946,
            1468.0
          ],
          [
            7.050113,
            47.125909,
            1466.0
          ],
          [
            7.050338,
            47.125787,
            1462.0
          ],
          [
            7.050499,
            47.125653,
            1458.0
          ],
          [
            7.050625,
            47.12558,
            1455.0
          ],
          [
            7.050787,
            47.12547,
            1451.0
          ],
          [
            7.050975,
            47.125354,
            1447.0
          ],
          [
            7.05111,
            47.125329,
            1445.0
          ],
          [
            7.051271,
            47.125213,
            1441.0
          ],
          [
            7.051434,
            47.12506,
            1437.0
          ],
          [
            7.051739,
            47.124962,
            1433.0
          ],
          [
            7.052053,
            47.124913,
            1428.0
          ],
          [
            7.052206,
            47.124877,
            1426.0
          ],
          [
            7.052395,
            47.124889,
            1424.0
          ],
          [
            7.052592,
            47.124962,
            1421.0
          ],
          [
            7.052736,
            47.124981,
            1420.0
          ],
          [
            7.052871,
            47.12492,
            1417.0
          ],
          [
            7.053059,
            47.124846,
            1414.0
          ],
          [
            7.053464,
            47.124803,
            1408.0
          ],
          [
            7.053958,
            47.124785,
            1403.0
          ],
          [
            7.05411,
            47.124828,
            1401.0
          ],
          [
            7.054263,
            47.124865,
            1400.0
          ],
          [
            7.054336,
            47.124889,
            1400.0
          ],
          [
            7.05438,
            47.12492,
            1400.0
          ],
          [
            7.054426,
            47.124938,
            1400.0
          ],
          [
            7.05447,
            47.12495,
            1400.0
          ],
          [
            7.054569,
            47.124956,
            1399.0
          ],
          [
            7.054659,
            47.124938,
            1399.0
          ],
          [
            7.054703,
            47.124938,
            1398.0
          ],
          [
            7.054757,
            47.124962,
            1398.0
          ],
          [
            7.054839,
            47.124975,
            1397.0
          ],
          [
            7.054902,
            47.125005,
            1397.0
          ],
          [
            7.055009,
            47.12503,
            1396.0
          ],
          [
            7.055089,
            47.125072,
            1395.0
          ],
          [
            7.055198,
            47.125091,
            1394.0
          ],
          [
            7.055233,
            47.125103,
            1394.0
          ],
          [
            7.055305,
            47.125109,
            1393.0
          ],
          [
            7.055368,
            47.125109,
            1393.0
          ],
          [
            7.055521,
            47.125115,
            1392.0
          ],
          [
            7.055755,
            47.125152,
            1389.0
          ],
          [
            7.055871,
            47.125176,
            1388.0
          ],
          [
            7.056158,
            47.125195,
            1385.0
          ],
          [
            7.056401,
            47.125225,
            1382.0
          ],
          [
            7.056743,
            47.125293,
            1378.0
          ],
          [
            7.057003,
            47.125329,
            1374.0
          ],
          [
            7.05729,
            47.125348,
            1371.0
          ],
          [
            7.057426,
            47.125342,
            1369.0
          ],
          [
            7.057516,
            47.125354,
            1368.0
          ],
          [
            7.057632,
            47.125335,
            1366.0
          ],
          [
            7.058018,
            47.125366,
            1361.0
          ],
          [
            7.058208,
            47.125378,
            1359.0
          ],
          [
            7.058332,
            47.125397,
            1357.0
          ],
          [
            7.058485,
            47.125439,
            1355.0
          ],
          [
            7.058621,
            47.125458,
            1353.0
          ],
          [
            7.058871,
            47.125494,
            1349.0
          ],
          [
            7.05898,
            47.125482,
            1348.0
          ],
          [
            7.05915,
            47.125482,
            1345.0
          ],
          [
            7.059267,
            47.125482,
            1343.0
          ],
          [
            7.059339,
            47.1255,
            1342.0
          ],
          [
            7.059491,
            47.125519,
            1340.0
          ],
          [
            7.059671,
            47.125525,
            1337.0
          ],
          [
            7.05986,
            47.125506,
            1334.0
          ],
          [
            7.060139,
            47.125488,
            1329.0
          ],
          [
            7.06021,
            47.125494,
            1328.0
          ],
          [
            7.060345,
            47.125519,
            1325.0
          ],
          [
            7.060516,
            47.125537,
            1322.0
          ],
          [
            7.061271,
            47.125635,
            1309.0
          ],
          [
            7.061378,
            47.125635,
            1307.0
          ],
          [
            7.061548,
            47.125622,
            1304.0
          ],
          [
            7.061998,
            47.125616,
            1297.0
          ],
          [
            7.062177,
            47.125622,
            1294.0
          ],
          [
            7.06259,
            47.125635,
            1288.0
          ],
          [
            7.062779,
            47.125653,
            1285.0
          ],
          [
            7.062879,
            47.125665,
            1284.0
          ],
          [
            7.062959,
            47.125671,
            1282.0
          ],
          [
            7.06304,
            47.125665,
            1281.0
          ],
          [
            7.063058,
            47.125635,
            1281.0
          ],
          [
            7.063022,
            47.125561,
            1278.0
          ],
          [
            7.063318,
            47.125635,
            1276.0
          ],
          [
            7.063605,
            47.125665,
            1275.0
          ],
          [
            7.064028,
            47.125775,
            1274.0
          ],
          [
            7.06419,
            47.1258,
            1273.0
          ],
          [
            7.06437,
            47.125726,
            1271.0
          ],
          [
            7.064701,
            47.125751,
            1268.0
          ],
          [
            7.065439,
            47.125494,
            1257.0
          ],
          [
            7.066399,
            47.125348,
            1245.0
          ],
          [
            7.066634,
            47.125384,
            1242.0
          ],
          [
            7.06684,
            47.12539,
            1239.0
          ],
          [
            7.067047,
            47.125366,
            1237.0
          ],
          [
            7.067576,
            47.125287,
            1231.0
          ],
          [
            7.067766,
            47.125134,
            1227.0
          ],
          [
            7.068366,
            47.125164,
            1219.0
          ],
          [
            7.068628,
            47.125128,
            1215.0
          ],
          [
            7.069068,
            47.124901,
            1208.0
          ],
          [
            7.069256,
            47.124828,
            1205.0
          ],
          [
            7.069374,
            47.124797,
            1204.0
          ],
          [
            7.06949,
            47.124779,
            1202.0
          ],
          [
            7.069544,
            47.124779,
            1201.0
          ],
          [
            7.069607,
            47.124791,
            1201.0
          ],
          [
            7.069643,
            47.124785,
            1200.0
          ],
          [
            7.06967,
            47.124779,
            1200.0
          ],
          [
            7.069678,
            47.124767,
            1199.0
          ],
          [
            7.06967,
            47.124748,
            1199.0
          ],
          [
            7.06958,
            47.124577,
            1195.0
          ],
          [
            7.069525,
            47.12451,
            1193.0
          ],
          [
            7.06949,
            47.124418,
            1191.0
          ],
          [
            7.069525,
            47.124388,
            1190.0
          ],
          [
            7.069553,
            47.124363,
            1189.0
          ],
          [
            7.069724,
            47.124345,
            1187.0
          ],
          [
            7.070001,
            47.124369,
            1183.0
          ],
          [
            7.069974,
            47.124278,
            1181.0
          ],
          [
            7.069903,
            47.124119,
            1178.0
          ],
          [
            7.069741,
            47.123935,
            1174.0
          ],
          [
            7.069454,
            47.12377,
            1170.0
          ],
          [
            7.069535,
            47.12374,
            1169.0
          ],
          [
            7.07011,
            47.12352,
            1159.0
          ],
          [
            7.070416,
            47.123544,
            1155.0
          ],
          [
            7.070649,
            47.123563,
            1152.0
          ],
          [
            7.070666,
            47.12352,
            1151.0
          ],
          [
            7.070559,
            47.123386,
            1148.0
          ],
          [
            7.070469,
            47.123263,
            1145.0
          ],
          [
            7.070802,
            47.123221,
            1141.0
          ],
          [
            7.071169,
            47.123221,
            1136.0
          ],
          [
            7.071619,
            47.123214,
            1130.0
          ],
          [
            7.072024,
            47.123153,
            1125.0
          ],
          [
            7.071645,
            47.122878,
            1119.0
          ],
          [
            7.071458,
            47.122707,
            1116.0
          ],
          [
            7.071286,
            47.122462,
            1112.0
          ],
          [
            7.071215,
            47.12234,
            1110.0
          ],
          [
            7.071142,
            47.122212,
            1107.0
          ],
          [
            7.070846,
            47.121924,
            1102.0
          ],
          [
            7.070406,
            47.12171,
            1095.0
          ],
          [
            7.07037,
            47.121503,
            1091.0
          ],
          [
            7.070577,
            47.121411,
            1088.0
          ],
          [
            7.071098,
            47.121387,
            1082.0
          ],
          [
            7.071259,
            47.121332,
            1080.0
          ],
          [
            7.071493,
            47.121326,
            1078.0
          ],
          [
            7.071735,
            47.121234,
            1075.0
          ],
          [
            7.072085,
            47.121222,
            1071.0
          ],
          [
            7.072301,
            47.120977,
            1066.0
          ],
          [
            7.072238,
            47.120806,
            1062.0
          ],
          [
            7.072265,
            47.120696,
            1060.0
          ],
          [
            7.072194,
            47.120671,
            1059.0
          ],
          [
            7.072175,
            47.120573,
            1057.0
          ],
          [
            7.072437,
            47.120531,
            1053.0
          ],
          [
            7.072527,
            47.120463,
            1051.0
          ],
          [
            7.072661,
            47.120463,
            1049.0
          ],
          [
            7.072687,
            47.120421,
            1048.0
          ],
          [
            7.072697,
            47.120359,
            1047.0
          ],
          [
            7.072481,
            47.120323,
            1045.0
          ],
          [
            7.072571,
            47.120133,
            1042.0
          ],
          [
            7.072706,
            47.120072,
            1040.0
          ],
          [
            7.073037,
            47.119718,
            1030.0
          ],
          [
            7.073066,
            47.119687,
            1029.0
          ],
          [
            7.073127,
            47.119663,
            1028.0
          ],
          [
            7.073263,
            47.119651,
            1027.0
          ],
          [
            7.073416,
            47.119602,
            1025.0
          ],
          [
            7.073469,
            47.119541,
            1023.0
          ],
          [
            7.073542,
            47.119498,
            1022.0
          ],
          [
            7.073603,
            47.119388,
            1020.0
          ],
          [
            7.073658,
            47.119351,
            1019.0
          ],
          [
            7.07364,
            47.119302,
            1018.0
          ],
          [
            7.073712,
            47.119272,
            1017.0
          ],
          [
            7.073829,
            47.119174,
            1014.0
          ],
          [
            7.074215,
            47.118984,
            1007.0
          ],
          [
            7.074385,
            47.118911,
            1005.0
          ],
          [
            7.074494,
            47.118838,
            1003.0
          ],
          [
            7.074619,
            47.118721,
            1000.0
          ],
          [
            7.074817,
            47.118642,
            997.0
          ],
          [
            7.07497,
            47.118532,
            994.0
          ],
          [
            7.075104,
            47.118501,
            993.0
          ],
          [
            7.075274,
            47.118471,
            990.0
          ],
          [
            7.075419,
            47.118458,
            988.0
          ],
          [
            7.075509,
            47.118428,
            987.0
          ],
          [
            7.075697,
            47.118379,
            985.0
          ],
          [
            7.075867,
            47.11836,
            982.0
          ],
          [
            7.076029,
            47.118354,
            980.0
          ],
          [
            7.076209,
            47.118293,
            977.0
          ],
          [
            7.076389,
            47.118257,
            974.0
          ],
          [
            7.076595,
            47.118171,
            970.0
          ],
          [
            7.076811,
            47.118104,
            966.0
          ],
          [
            7.077035,
            47.118055,
            962.0
          ],
          [
            7.077224,
            47.11803,
            960.0
          ],
          [
            7.077422,
            47.118024,
            957.0
          ],
          [
            7.077737,
            47.117939,
            954.0
          ],
          [
            7.07806,
            47.117792,
            950.0
          ],
          [
            7.078482,
            47.117591,
            946.0
          ],
          [
            7.078886,
            47.117469,
            943.0
          ],
          [
            7.078903,
            47.117456,
            943.0
          ],
          [
            7.078922,
            47.117444,
            943.0
          ],
          [
            7.078966,
            47.11745,
            943.0
          ],
          [
            7.079039,
            47.117334,
            941.0
          ],
          [
            7.079066,
            47.117181,
            940.0
          ],
          [
            7.079075,
            47.117157,
            939.0
          ],
          [
            7.079318,
            47.116673,
            932.0
          ],
          [
            7.079587,
            47.116178,
            925.0
          ],
          [
            7.079677,
            47.116093,
            923.0
          ],
          [
            7.079712,
            47.115958,
            922.0
          ],
          [
            7.079829,
            47.115604,
            918.0
          ],
          [
            7.079955,
            47.115359,
            915.0
          ],
          [
            7.080234,
            47.114827,
            909.0
          ],
          [
            7.080287,
            47.114595,
            906.0
          ],
          [
            7.080351,
            47.114412,
            903.0
          ],
          [
            7.08044,
            47.114247,
            901.0
          ],
          [
            7.080494,
            47.114167,
            900.0
          ],
          [
            7.080647,
            47.113978,
            898.0
          ],
          [
            7.080754,
            47.113794,
            896.0
          ],
          [
            7.080754,
            47.113752,
            896.0
          ],
          [
            7.080853,
            47.113593,
            894.0
          ],
          [
            7.080871,
            47.113568,
            894.0
          ],
          [
            7.080934,
            47.113489,
            893.0
          ],
          [
            7.08115,
            47.113262,
            891.0
          ],
          [
            7.081285,
            47.113115,
            889.0
          ],
          [
            7.081303,
            47.113085,
            889.0
          ],
          [
            7.081312,
            47.11306,
            889.0
          ],
          [
            7.081303,
            47.11303,
            889.0
          ],
          [
            7.08124,
            47.113036,
            889.0
          ],
          [
            7.081186,
            47.113024,
            889.0
          ],
          [
            7.081114,
            47.113011,
            890.0
          ],
          [
            7.081069,
            47.112993,
            890.0
          ],
          [
            7.081033,
            47.112975,
            890.0
          ],
          [
            7.080979,
            47.11295,
            890.0
          ],
          [
            7.080907,
            47.112901,
            890.0
          ],
          [
            7.080844,
            47.112859,
            890.0
          ],
          [
            7.080548,
            47.112639,
            890.0
          ],
          [
            7.080584,
            47.112614,
            890.0
          ],
          [
            7.080494,
            47.112547,
            890.0
          ],
          [
            7.080278,
            47.112419,
            890.0
          ],
          [
            7.080098,
            47.112303,
            890.0
          ],
          [
            7.080064,
            47.112327,
            890.0
          ],
          [
            7.079946,
            47.11226,
            890.0
          ],
          [
            7.079821,
            47.112187,
            890.0
          ],
          [
            7.079722,
            47.112132,
            890.0
          ],
          [
            7.079614,
            47.112089,
            890.0
          ],
          [
            7.079165,
            47.111917,
            887.0
          ]
        ]
      }
    }
  ]
}