{
  "type": "FeatureCollection",
  "features": [
    {
      "type": "Feature",
      "properties": {},
      "geometry": {
        "type": "LineString",
        "coordinates": [
          [
            8.778122,
            47.203103,
            411.0
          ],
          [
            8.778166,
            47.203103,
            411.0
          ],
          [
            8.778166,
            47.203128,
            411.0
          ],
          [
            8.778328,
            47.203122,
            411.0
          ],
          [
            8.77831,
            47.202987,
            411.0
          ],
          [
            8.77831,
            47.202902,
            412.0
          ],
          [
            8.77831,
            47.202896,
            412.0
          ],
          [
            8.778319,
            47.20289,
            412.0
          ],
          [
            8.778365,
            47.202847,
            412.0
          ],
          [
            8.778426,
            47.202798,
            412.0
          ],
          [
            8.778426,
            47.202762,
            412.0
          ],
          [
            8.778399,
            47.202511,
            413.0
          ],
          [
            8.778472,
            47.202469,
            413.0
          ],
          [
            8.778562,
            47.202457,
            413.0
          ],
          [
            8.778625,
            47.20245,
            413.0
          ],
          [
            8.778552,
            47.202243,
            414.0
          ],
          [
            8.778462,
            47.201913,
            415.0
          ],
          [
            8.778355,
            47.201541,
            416.0
          ],
          [
            8.778346,
            47.201413,
            416.0
          ],
          [
            8.778346,
            47.201352,
            416.0
          ],
          [
            8.778562,
            47.201364,
            417.0
          ],
          [
            8.778678,
            47.20137,
            417.0
          ],
          [
            8.778661,
            47.201315,
            417.0
          ],
          [
            8.778598,
            47.201126,
            418.0
          ],
          [
            8.778625,
            47.201102,
            418.0
          ],
          [
            8.779002,
            47.201029,
            418.0
          ],
          [
            8.778875,
            47.200724,
            419.0
          ],
          [
            8.778768,
            47.200486,
            420.0
          ],
          [
            8.778678,
            47.20029,
            420.0
          ],
          [
            8.778571,
            47.200119,
            420.0
          ],
          [
            8.778328,
            47.199967,
            420.0
          ],
          [
            8.777986,
            47.199704,
            425.0
          ],
          [
            8.777726,
            47.199509,
            430.0
          ],
          [
            8.777753,
            47.199289,
            430.0
          ],
          [
            8.777923,
            47.198984,
            430.0
          ],
          [
            8.777978,
            47.198898,
            430.0
          ],
          [
            8.778049,
            47.198752,
            432.0
          ],
          [
            8.778139,
            47.198459,
            437.0
          ],
          [
            8.77813,
            47.198428,
            438.0
          ],
          [
            8.778112,
            47.198416,
            438.0
          ],
          [
            8.778112,
            47.198379,
            438.0
          ],
          [
            8.778112,
            47.198343,
            439.0
          ],
          [
            8.77813,
            47.198092,
            449.0
          ],
          [
            8.778122,
            47.197995,
            450.0
          ],
          [
            8.778112,
            47.197903,
            451.0
          ],
          [
            8.777564,
            47.197836,
            452.0
          ],
          [
            8.777709,
            47.197653,
            453.0
          ],
          [
            8.77787,
            47.197501,
            454.0
          ],
          [
            8.77786,
            47.197446,
            454.0
          ],
          [
            8.777959,
            47.197336,
            455.0
          ],
          [
            8.778157,
            47.197122,
            456.0
          ],
          [
            8.77822,
            47.196921,
            457.0
          ],
          [
            8.778292,
            47.196823,
            458.0
          ],
          [
            8.778472,
            47.196762,
            458.0
          ],
          [
            8.778598,
            47.196732,
            459.0
          ],
          [
            8.779154,
            47.196707,
            461.0
          ],
          [
            8.779694,
            47.196695,
            466.0
          ],
          [
            8.779703,
            47.196622,
            467.0
          ],
          [
            8.779747,
            47.196506,
            468.0
          ],
          [
            8.779837,
            47.196353,
            471.0
          ],
          [
            8.779909,
            47.196213,
            475.0
          ],
          [
            8.780053,
            47.196164,
            477.0
          ],
          [
            8.780107,
            47.196115,
            479.0
          ],
          [
            8.780152,
            47.196079,
            480.0
          ],
          [
            8.78017,
            47.196048,
            480.0
          ],
          [
            8.78008,
            47.19603,
            481.0
          ],
          [
            8.77999,
            47.196011,
            481.0
          ],
          [
            8.77973,
            47.195981,
            483.0
          ],
          [
            8.779594,
            47.195956,
            484.0
          ],
          [
            8.779541,
            47.195944,
            484.0
          ],
          [
            8.779478,
            47.195926,
            484.0
          ],
          [
            8.779424,
            47.195908,
            485.0
          ],
          [
            8.779378,
            47.195889,
            485.0
          ],
          [
            8.779325,
            47.195865,
            485.0
          ],
          [
            8.77928,
            47.195834,
            486.0
          ],
          [
            8.779244,
            47.195804,
            486.0
          ],
          [
            8.779208,
            47.195773,
            486.0
          ],
          [
            8.779181,
            47.195731,
            487.0
          ],
          [
            8.779164,
            47.195688,
            487.0
          ],
          [
            8.779164,
            47.19567,
            487.0
          ],
          [
            8.779154,
            47.195645,
            488.0
          ],
          [
            8.779154,
            47.195621,
            488.0
          ],
          [
            8.779154,
            47.19559,
            488.0
          ],
          [
            8.779164,
            47.19556,
            488.0
          ],
          [
            8.779172,
            47.195535,
            488.0
          ],
          [
            8.779181,
            47.195517,
            489.0
          ],
          [
            8.779191,
            47.195493,
            489.0
          ],
          [
            8.779208,
            47.195468,
            489.0
          ],
          [
            8.779227,
            47.19545,
            489.0
          ],
          [
            8.779254,
            47.195426,
            489.0
          ],
          [
            8.779289,
            47.195395,
            490.0
          ],
          [
            8.779325,
            47.195371,
            490.0
          ],
          [
            8.779388,
            47.195346,
            491.0
          ],
          [
            8.779065,
            47.195175,
            490.0
          ],
          [
            8.778723,
            47.195126,
            490.0
          ],
          [
            8.778246,
            47.195114,
            490.0
          ],
          [
            8.778212,
            47.195084,
            490.0
          ],
          [
            8.778202,
            47.195029,
            490.0
          ],
          [
            8.778292,
            47.194888,
            492.0
          ],
          [
            8.778328,
            47.194815,
            493.0
          ],
          [
            8.778336,
            47.194766,
            494.0
          ],
          [
            8.778328,
            47.194693,
            496.0
          ],
          [
            8.77831,
            47.194675,
            496.0
          ],
          [
            8.778157,
            47.194522,
            500.0
          ],
          [
            8.778095,
            47.194479,
            501.0
          ],
          [
            8.777923,
            47.194394,
            504.0
          ],
          [
            8.777681,
            47.194174,
            510.0
          ],
          [
            8.777636,
            47.194095,
            513.0
          ],
          [
            8.777591,
            47.194015,
            516.0
          ],
          [
            8.777573,
            47.193948,
            519.0
          ],
          [
            8.777529,
            47.193887,
            521.0
          ],
          [
            8.777204,
            47.19371,
            530.0
          ],
          [
            8.777376,
            47.193643,
            533.0
          ],
          [
            8.777502,
            47.193631,
            535.0
          ],
          [
            8.777654,
            47.193606,
            537.0
          ],
          [
            8.777762,
            47.193576,
            539.0
          ],
          [
            8.777736,
            47.193509,
            540.0
          ],
          [
            8.777663,
            47.193448,
            543.0
          ],
          [
            8.77751,
            47.193393,
            546.0
          ],
          [
            8.777304,
            47.193301,
            551.0
          ],
          [
            8.777143,
            47.193252,
            553.0
          ],
          [
            8.776818,
            47.193142,
            559.0
          ],
          [
            8.776585,
            47.193014,
            565.0
          ],
          [
            8.776181,
            47.192794,
            574.0
          ],
          [
            8.775831,
            47.192666,
            582.0
          ],
          [
            8.775812,
            47.192623,
            584.0
          ],
          [
            8.775831,
            47.192477,
            589.0
          ],
          [
            8.775894,
            47.192348,
            593.0
          ],
          [
            8.775965,
            47.192269,
            596.0
          ],
          [
            8.775975,
            47.192257,
            597.0
          ],
          [
            8.776011,
            47.192233,
            598.0
          ],
          [
            8.775741,
            47.192025,
            600.0
          ],
          [
            8.775651,
            47.191946,
            601.0
          ],
          [
            8.775562,
            47.19186,
            602.0
          ],
          [
            8.775535,
            47.191836,
            602.0
          ],
          [
            8.775426,
            47.191732,
            604.0
          ],
          [
            8.775273,
            47.191586,
            606.0
          ],
          [
            8.775183,
            47.191512,
            607.0
          ],
          [
            8.77513,
            47.191482,
            607.0
          ],
          [
            8.775086,
            47.191451,
            608.0
          ],
          [
            8.775004,
            47.191409,
            609.0
          ],
          [
            8.774923,
            47.191372,
            609.0
          ],
          [
            8.774807,
            47.191329,
            610.0
          ],
          [
            8.774762,
            47.191311,
            611.0
          ],
          [
            8.774717,
            47.191305,
            611.0
          ],
          [
            8.774636,
            47.191286,
            612.0
          ],
          [
            8.774554,
            47.19128,
            612.0
          ],
          [
            8.77442,
            47.191262,
            613.0
          ],
          [
            8.774294,
            47.191256,
            614.0
          ],
          [
            8.773927,
            47.191232,
            617.0
          ],
          [
            8.773809,
            47.191219,
            618.0
          ],
          [
            8.77372,
            47.191207,
            619.0
          ],
          [
            8.773648,
            47.191195,
            619.0
          ],
          [
            8.773594,
            47.191183,
            620.0
          ],
          [
            8.773549,
            47.191164,
            620.0
          ],
          [
            8.773504,
            47.191152,
            621.0
          ],
          [
            8.773441,
            47.191122,
            621.0
          ],
          [
            8.773396,
            47.191097,
            622.0
          ],
          [
            8.773342,
            47.191067,
            623.0
          ],
          [
            8.773288,
            47.19103,
            624.0
          ],
          [
            8.773244,
            47.190987,
            624.0
          ],
          [
            8.773189,
            47.190939,
            625.0
          ],
          [
            8.773154,
            47.190908,
            626.0
          ],
          [
            8.773126,
            47.190865,
            626.0
          ],
          [
            8.773109,
            47.190835,
            627.0
          ],
          [
            8.773099,
            47.190816,
            627.0
          ],
          [
            8.773099,
            47.190798,
            628.0
          ],
          [
            8.773099,
            47.190774,
            628.0
          ],
          [
            8.773109,
            47.190762,
            628.0
          ],
          [
            8.773145,
            47.190719,
            629.0
          ],
          [
            8.773154,
            47.1907,
            629.0
          ],
          [
            8.773154,
            47.190682,
            629.0
          ],
          [
            8.773199,
            47.19067,
            630.0
          ],
          [
            8.773288,
            47.190652,
            631.0
          ],
          [
            8.773306,
            47.190597,
            632.0
          ],
          [
            8.773315,
            47.19042,
            636.0
          ],
          [
            8.773315,
            47.190304,
            638.0
          ],
          [
            8.773288,
            47.190206,
            640.0
          ],
          [
            8.773252,
            47.190078,
            643.0
          ],
          [
            8.773216,
            47.189919,
            647.0
          ],
          [
            8.773118,
            47.189797,
            650.0
          ],
          [
            8.773028,
            47.189669,
            653.0
          ],
          [
            8.772893,
            47.18959,
            655.0
          ],
          [
            8.772803,
            47.189492,
            657.0
          ],
          [
            8.772713,
            47.189217,
            665.0
          ],
          [
            8.772678,
            47.189022,
            671.0
          ],
          [
            8.772713,
            47.188863,
            677.0
          ],
          [
            8.772786,
            47.188692,
            684.0
          ],
          [
            8.772812,
            47.188576,
            688.0
          ],
          [
            8.772875,
            47.188454,
            692.0
          ],
          [
            8.772866,
            47.188393,
            694.0
          ],
          [
            8.772786,
            47.188198,
            699.0
          ],
          [
            8.772839,
            47.188015,
            703.0
          ],
          [
            8.772839,
            47.187905,
            705.0
          ],
          [
            8.772803,
            47.187758,
            708.0
          ],
          [
            8.772885,
            47.18763,
            710.0
          ],
          [
            8.772885,
            47.187435,
            712.0
          ],
          [
            8.772992,
            47.187398,
            713.0
          ],
          [
            8.773109,
            47.187386,
            714.0
          ],
          [
            8.773271,
            47.187337,
            715.0
          ],
          [
            8.773225,
            47.187185,
            716.0
          ],
          [
            8.773208,
            47.187038,
            718.0
          ],
          [
            8.773181,
            47.186904,
            719.0
          ],
          [
            8.773262,
            47.186776,
            721.0
          ],
          [
            8.773181,
            47.186647,
            720.0
          ],
          [
            8.773162,
            47.186537,
            720.0
          ],
          [
            8.773405,
            47.186373,
            724.0
          ],
          [
            8.773585,
            47.186311,
            727.0
          ],
          [
            8.773845,
            47.186269,
            727.0
          ],
          [
            8.774187,
            47.18622,
            728.0
          ],
          [
            8.774528,
            47.186153,
            729.0
          ],
          [
            8.774879,
            47.186092,
            730.0
          ],
          [
            8.775166,
            47.186024,
            731.0
          ],
          [
            8.775363,
            47.185963,
            732.0
          ],
          [
            8.775669,
            47.185811,
            733.0
          ],
          [
            8.775965,
            47.185689,
            734.0
          ],
          [
            8.776549,
            47.185487,
            736.0
          ],
          [
            8.77717,
            47.185481,
            737.0
          ],
          [
            8.777466,
            47.185463,
            738.0
          ],
          [
            8.778095,
            47.185463,
            740.0
          ],
          [
            8.778365,
            47.185457,
            741.0
          ],
          [
            8.778688,
            47.185389,
            741.0
          ],
          [
            8.779002,
            47.18528,
            742.0
          ],
          [
            8.779558,
            47.185102,
            744.0
          ],
          [
            8.779783,
            47.185017,
            745.0
          ],
          [
            8.780097,
            47.184877,
            746.0
          ],
          [
            8.780403,
            47.184681,
            747.0
          ],
          [
            8.780799,
            47.184406,
            748.0
          ],
          [
            8.781139,
            47.18418,
            750.0
          ],
          [
            8.781265,
            47.184052,
            750.0
          ],
          [
            8.781535,
            47.183741,
            752.0
          ],
          [
            8.781652,
            47.1836,
            752.0
          ],
          [
            8.78176,
            47.183405,
            753.0
          ],
          [
            8.781814,
            47.18338,
            753.0
          ],
          [
            8.781877,
            47.18338,
            753.0
          ],
          [
            8.781931,
            47.183405,
            754.0
          ],
          [
            8.782028,
            47.183466,
            754.0
          ],
          [
            8.782101,
            47.183497,
            754.0
          ],
          [
            8.782244,
            47.183527,
            755.0
          ],
          [
            8.782388,
            47.183539,
            755.0
          ],
          [
            8.782586,
            47.183545,
            756.0
          ],
          [
            8.782793,
            47.183527,
            756.0
          ],
          [
            8.7829,
            47.183533,
            756.0
          ],
          [
            8.78299,
            47.183558,
            757.0
          ],
          [
            8.783133,
            47.183625,
            757.0
          ],
          [
            8.783242,
            47.183643,
            757.0
          ],
          [
            8.783368,
            47.183625,
            758.0
          ],
          [
            8.783485,
            47.18357,
            758.0
          ],
          [
            8.783565,
            47.183503,
            758.0
          ],
          [
            8.783691,
            47.183356,
            759.0
          ],
          [
            8.783754,
            47.183326,
            759.0
          ],
          [
            8.783862,
            47.183301,
            760.0
          ],
          [
            8.784194,
            47.18321,
            761.0
          ],
          [
            8.784445,
            47.183167,
            762.0
          ],
          [
            8.784741,
            47.183142,
            763.0
          ],
          [
            8.784868,
            47.183124,
            764.0
          ],
          [
            8.785137,
            47.18302,
            765.0
          ],
          [
            8.78529,
            47.182971,
            766.0
          ],
          [
            8.785307,
            47.182965,
            766.0
          ],
          [
            8.785307,
            47.182965,
            766.0
          ],
          [
            8.785353,
            47.182953,
            766.0
          ],
          [
            8.785407,
            47.182953,
            766.0
          ],
          [
            8.785353,
            47.182892,
            768.0
          ],
          [
            8.785254,
            47.182752,
            771.0
          ],
          [
            8.7852,
            47.182648,
            774.0
          ],
          [
            8.785083,
            47.182422,
            780.0
          ],
          [
            8.785047,
            47.182367,
            780.0
          ],
          [
            8.785003,
            47.182324,
            780.0
          ],
          [
            8.784858,
            47.182269,
            780.0
          ],
          [
            8.784544,
            47.182178,
            780.0
          ],
          [
            8.784257,
            47.182068,
            780.0
          ],
          [
            8.784131,
            47.182031,
            781.0
          ],
          [
            8.783952,
            47.181958,
            782.0
          ],
          [
            8.783754,
            47.181897,
            784.0
          ],
          [
            8.783575,
            47.181823,
            786.0
          ],
          [
            8.783332,
            47.181707,
            788.0
          ],
          [
            8.783053,
            47.181573,
            791.0
          ],
          [
            8.782774,
            47.181414,
            793.0
          ],
          [
            8.782478,
            47.181243,
            795.0
          ],
          [
            8.782191,
            47.181085,
            797.0
          ],
          [
            8.78202,
            47.180987,
            799.0
          ],
          [
            8.781912,
            47.180926,
            800.0
          ],
          [
            8.781768,
            47.180847,
            801.0
          ],
          [
            8.781697,
            47.180798,
            801.0
          ],
          [
            8.781508,
            47.180572,
            804.0
          ],
          [
            8.781365,
            47.180389,
            806.0
          ],
          [
            8.781284,
            47.180297,
            807.0
          ],
          [
            8.781229,
            47.18026,
            808.0
          ],
          [
            8.781104,
            47.180181,
            809.0
          ],
          [
            8.780986,
            47.18012,
            810.0
          ],
          [
            8.780753,
            47.180022,
            812.0
          ],
          [
            8.780592,
            47.179912,
            813.0
          ],
          [
            8.780466,
            47.179833,
            814.0
          ],
          [
            8.780286,
            47.179766,
            815.0
          ],
          [
            8.779963,
            47.179668,
            817.0
          ],
          [
            8.779801,
            47.179589,
            818.0
          ],
          [
            8.779407,
            47.179448,
            821.0
          ],
          [
            8.779074,
            47.179259,
            824.0
          ],
          [
            8.778841,
            47.179113,
            826.0
          ],
          [
            8.778732,
            47.179003,
            827.0
          ],
          [
            8.778588,
            47.17885,
            828.0
          ],
          [
            8.778426,
            47.178594,
            830.0
          ],
          [
            8.778185,
            47.178343,
            834.0
          ],
          [
            8.778013,
            47.1783,
            835.0
          ],
          [
            8.77787,
            47.178191,
            837.0
          ],
          [
            8.777799,
            47.178032,
            839.0
          ],
          [
            8.777762,
            47.177977,
            840.0
          ],
          [
            8.777591,
            47.177763,
            844.0
          ],
          [
            8.777457,
            47.177537,
            847.0
          ],
          [
            8.777376,
            47.177403,
            849.0
          ],
          [
            8.777124,
            47.177183,
            854.0
          ],
          [
            8.776954,
            47.176945,
            859.0
          ],
          [
            8.776774,
            47.176731,
            863.0
          ],
          [
            8.776675,
            47.176579,
            866.0
          ],
          [
            8.776585,
            47.176536,
            867.0
          ],
          [
            8.776522,
            47.176542,
            867.0
          ],
          [
            8.776424,
            47.17653,
            868.0
          ],
          [
            8.776334,
            47.176493,
            870.0
          ],
          [
            8.776208,
            47.176389,
            873.0
          ],
          [
            8.776082,
            47.176304,
            876.0
          ],
          [
            8.775812,
            47.176292,
            880.0
          ],
          [
            8.77557,
            47.176255,
            882.0
          ],
          [
            8.775336,
            47.176157,
            884.0
          ],
          [
            8.775149,
            47.176127,
            885.0
          ],
          [
            8.774879,
            47.176029,
            887.0
          ],
          [
            8.774797,
            47.175992,
            888.0
          ],
          [
            8.774753,
            47.175919,
            889.0
          ],
          [
            8.774707,
            47.175754,
            891.0
          ],
          [
            8.774564,
            47.175663,
            893.0
          ],
          [
            8.774411,
            47.175504,
            895.0
          ],
          [
            8.774357,
            47.175431,
            896.0
          ],
          [
            8.774061,
            47.175223,
            900.0
          ],
          [
            8.773872,
            47.175137,
            903.0
          ],
          [
            8.773504,
            47.174966,
            909.0
          ],
          [
            8.773405,
            47.174881,
            911.0
          ],
          [
            8.773361,
            47.174771,
            913.0
          ],
          [
            8.773279,
            47.174673,
            914.0
          ],
          [
            8.773162,
            47.174545,
            917.0
          ],
          [
            8.773126,
            47.174386,
            919.0
          ],
          [
            8.773091,
            47.174282,
            921.0
          ],
          [
            8.773082,
            47.174215,
            922.0
          ],
          [
            8.773082,
            47.174209,
            922.0
          ],
          [
            8.773028,
            47.174179,
            923.0
          ],
          [
            8.772965,
            47.174154,
            924.0
          ],
          [
            8.77292,
            47.174087,
            925.0
          ],
          [
            8.772857,
            47.174057,
            926.0
          ],
          [
            8.77283,
            47.174032,
            927.0
          ],
          [
            8.772786,
            47.173971,
            928.0
          ],
          [
            8.77274,
            47.173953,
            928.0
          ],
          [
            8.772659,
            47.173928,
            930.0
          ],
          [
            8.772615,
            47.17391,
            931.0
          ],
          [
            8.772606,
            47.173861,
            933.0
          ],
          [
            8.772588,
            47.173782,
            935.0
          ],
          [
            8.772579,
            47.173708,
            938.0
          ],
          [
            8.772623,
            47.173641,
            940.0
          ],
          [
            8.772669,
            47.173623,
            940.0
          ],
          [
            8.772713,
            47.173605,
            940.0
          ],
          [
            8.772722,
            47.173599,
            940.0
          ],
          [
            8.772722,
            47.17358,
            940.0
          ],
          [
            8.772713,
            47.173574,
            940.0
          ],
          [
            8.772722,
            47.173544,
            940.0
          ],
          [
            8.772615,
            47.173519,
            940.0
          ],
          [
            8.772372,
            47.17347,
            940.0
          ],
          [
            8.772336,
            47.173464,
            940.0
          ],
          [
            8.772273,
            47.173446,
            940.0
          ],
          [
            8.772166,
            47.173428,
            940.0
          ],
          [
            8.772193,
            47.173464,
            948.0
          ],
          [
            8.772256,
            47.173501,
            950.0
          ],
          [
            8.772273,
            47.173519,
            951.0
          ],
          [
            8.772273,
            47.173544,
            951.0
          ],
          [
            8.77221,
            47.173635,
            952.0
          ],
          [
            8.772013,
            47.173892,
            954.0
          ],
          [
            8.771959,
            47.174069,
            955.0
          ],
          [
            8.771941,
            47.174112,
            956.0
          ],
          [
            8.77178,
            47.174722,
            960.0
          ],
          [
            8.771491,
            47.175082,
            962.0
          ],
          [
            8.771241,
            47.175424,
            964.0
          ],
          [
            8.771132,
            47.175626,
            969.0
          ],
          [
            8.771078,
            47.175736,
            971.0
          ],
          [
            8.771051,
            47.17584,
            974.0
          ],
          [
            8.77107,
            47.175895,
            976.0
          ],
          [
            8.771042,
            47.17595,
            978.0
          ],
          [
            8.770971,
            47.176005,
            980.0
          ],
          [
            8.77098,
            47.176072,
            982.0
          ],
          [
            8.770962,
            47.176139,
            983.0
          ],
          [
            8.770952,
            47.176389,
            990.0
          ],
          [
            8.770952,
            47.176438,
            992.0
          ],
          [
            8.770935,
            47.176511,
            995.0
          ],
          [
            8.770891,
            47.176591,
            998.0
          ],
          [
            8.770773,
            47.176749,
            1005.0
          ],
          [
            8.770675,
            47.176872,
            1011.0
          ],
          [
            8.770558,
            47.176969,
            1016.0
          ],
          [
            8.770351,
            47.177073,
            1021.0
          ],
          [
            8.770199,
            47.177128,
            1025.0
          ],
          [
            8.770055,
            47.177189,
            1028.0
          ],
          [
            8.76992,
            47.177226,
            1031.0
          ],
          [
            8.769803,
            47.177262,
            1034.0
          ],
          [
            8.769579,
            47.177305,
            1039.0
          ],
          [
            8.769407,
            47.177317,
            1043.0
          ],
          [
            8.769138,
            47.177342,
            1048.0
          ],
          [
            8.768967,
            47.177342,
            1052.0
          ],
          [
            8.768833,
            47.177299,
            1054.0
          ],
          [
            8.768751,
            47.177262,
            1056.0
          ],
          [
            8.76868,
            47.177214,
            1058.0
          ],
          [
            8.768635,
            47.17722,
            1059.0
          ],
          [
            8.768608,
            47.177244,
            1060.0
          ],
          [
            8.768654,
            47.177323,
            1061.0
          ],
          [
            8.768751,
            47.177446,
            1064.0
          ],
          [
            8.768833,
            47.177519,
            1065.0
          ],
          [
            8.768841,
            47.177531,
            1065.0
          ],
          [
            8.768967,
            47.177647,
            1068.0
          ],
          [
            8.769103,
            47.177751,
            1070.0
          ],
          [
            8.769283,
            47.177885,
            1074.0
          ],
          [
            8.769336,
            47.177952,
            1076.0
          ],
          [
            8.769291,
            47.17802,
            1077.0
          ],
          [
            8.76922,
            47.178038,
            1078.0
          ],
          [
            8.76912,
            47.178007,
            1080.0
          ],
          [
            8.769075,
            47.177965,
            1081.0
          ],
          [
            8.769013,
            47.17794,
            1082.0
          ],
          [
            8.768841,
            47.177891,
            1084.0
          ],
          [
            8.768572,
            47.177781,
            1089.0
          ],
          [
            8.768491,
            47.177757,
            1090.0
          ],
          [
            8.768365,
            47.17769,
            1090.0
          ],
          [
            8.768275,
            47.177653,
            1090.0
          ],
          [
            8.768195,
            47.177635,
            1090.0
          ],
          [
            8.768088,
            47.177623,
            1090.0
          ],
          [
            8.767952,
            47.177604,
            1090.0
          ],
          [
            8.76753,
            47.177562,
            1090.0
          ],
          [
            8.767422,
            47.177562,
            1090.0
          ],
          [
            8.767323,
            47.177574,
            1090.0
          ],
          [
            8.767207,
            47.177623,
            1090.0
          ],
          [
            8.767153,
            47.177604,
            1090.0
          ],
          [
            8.767117,
            47.177562,
            1090.0
          ],
          [
            8.767117,
            47.177562,
            1090.0
          ],
          [
            8.767153,
            47.177604,
            1090.0
          ],
          [
            8.767207,
            47.177623,
            1090.0
          ],
          [
            8.767027,
            47.177678,
            1090.0
          ],
          [
            8.766057,
            47.177977,
            1083.0
          ],
          [
            8.765859,
            47.17802,
            1080.0
          ],
          [
            8.765204,
            47.178117,
            1076.0
          ],
          [
            8.764916,
            47.178136,
            1074.0
          ],
          [
            8.764782,
            47.178142,
            1073.0
          ],
          [
            8.763227,
            47.177983,
            1063.0
          ],
          [
            8.762365,
            47.178062,
            1051.0
          ],
          [
            8.760937,
            47.178197,
            1033.0
          ],
          [
            8.760505,
            47.178239,
            1018.0
          ],
          [
            8.760577,
            47.178087,
            1019.0
          ],
          [
            8.76064,
            47.17794,
            1020.0
          ],
          [
            8.760685,
            47.177781,
            1022.0
          ],
          [
            8.760694,
            47.177458,
            1025.0
          ],
          [
            8.760677,
            47.177256,
            1028.0
          ],
          [
            8.760721,
            47.177073,
            1030.0
          ],
          [
            8.76082,
            47.176933,
            1032.0
          ],
          [
            8.761008,
            47.176823,
            1034.0
          ],
          [
            8.761197,
            47.176731,
            1036.0
          ],
          [
            8.761153,
            47.176695,
            1034.0
          ],
          [
            8.761153,
            47.176695,
            1034.0
          ],
          [
            8.760937,
            47.17653,
            1024.0
          ],
          [
            8.760793,
            47.176316,
            1019.0
          ],
          [
            8.760748,
            47.17623,
            1017.0
          ],
          [
            8.760694,
            47.176108,
            1013.0
          ],
          [
            8.760622,
            47.175968,
            1010.0
          ],
          [
            8.760497,
            47.175772,
            1008.0
          ],
          [
            8.760335,
            47.175559,
            1005.0
          ],
          [
            8.759912,
            47.175009,
            990.0
          ],
          [
            8.759822,
            47.174991,
            990.0
          ],
          [
            8.759733,
            47.174985,
            990.0
          ],
          [
            8.759589,
            47.174966,
            990.0
          ],
          [
            8.759373,
            47.174936,
            990.0
          ],
          [
            8.75922,
            47.174911,
            990.0
          ],
          [
            8.758853,
            47.174857,
            990.0
          ],
          [
            8.758404,
            47.174802,
            990.0
          ],
          [
            8.758331,
            47.174789,
            990.0
          ],
          [
            8.758287,
            47.174783,
            990.0
          ],
          [
            8.758287,
            47.174783,
            990.0
          ],
          [
            8.758251,
            47.174783,
            990.0
          ],
          [
            8.758143,
            47.174789,
            990.0
          ],
          [
            8.757972,
            47.174802,
            990.0
          ],
          [
            8.757711,
            47.174869,
            990.0
          ],
          [
            8.757388,
            47.174936,
            990.0
          ],
          [
            8.756769,
            47.17504,
            990.0
          ],
          [
            8.756535,
            47.175082,
            990.0
          ],
          [
            8.75623,
            47.175308,
            988.0
          ],
          [
            8.756004,
            47.175443,
            987.0
          ],
          [
            8.755924,
            47.175516,
            987.0
          ],
          [
            8.75587,
            47.175565,
            987.0
          ],
          [
            8.755771,
            47.175669,
            986.0
          ],
          [
            8.755637,
            47.175772,
            986.0
          ],
          [
            8.75552,
            47.175791,
            985.0
          ],
          [
            8.755385,
            47.17576,
            985.0
          ],
          [
            8.755205,
            47.175699,
            984.0
          ],
          [
            8.755017,
            47.175632,
            983.0
          ],
          [
            8.754335,
            47.175351,
            981.0
          ],
          [
            8.75374,
            47.175162,
            970.0
          ],
          [
            8.75358,
            47.175321,
            970.0
          ],
          [
            8.75314,
            47.175858,
            970.0
          ],
          [
            8.75296,
            47.176072,
            970.0
          ],
          [
            8.752843,
            47.176188,
            970.0
          ],
          [
            8.752727,
            47.176261,
            970.0
          ],
          [
            8.752367,
            47.176414,
            970.0
          ],
          [
            8.751855,
            47.176615,
            965.0
          ],
          [
            8.751423,
            47.176774,
            961.0
          ],
          [
            8.751019,
            47.176933,
            957.0
          ],
          [
            8.75101,
            47.176951,
            956.0
          ],
          [
            8.75075,
            47.17689,
            954.0
          ],
          [
            8.750534,
            47.176798,
            952.0
          ],
          [
            8.749788,
            47.17642,
            944.0
          ],
          [
            8.749501,
            47.176322,
            942.0
          ],
          [
            8.749186,
            47.176273,
            939.0
          ],
          [
            8.748935,
            47.176267,
            936.0
          ],
          [
            8.748495,
            47.176285,
            930.0
          ],
          [
            8.748387,
            47.176285,
            929.0
          ],
          [
            8.74827,
            47.176279,
            927.0
          ],
          [
            8.748226,
            47.176243,
            926.0
          ],
          [
            8.748117,
            47.176188,
            924.0
          ],
          [
            8.747947,
            47.17609,
            921.0
          ],
          [
            8.747813,
            47.175986,
            919.0
          ],
          [
            8.747687,
            47.175882,
            918.0
          ],
          [
            8.747588,
            47.175772,
            917.0
          ],
          [
            8.747345,
            47.175479,
            914.0
          ],
          [
            8.747291,
            47.175363,
            913.0
          ],
          [
            8.747255,
            47.175107,
            911.0
          ],
          [
            8.747228,
            47.174911,
            909.0
          ],
          [
            8.747192,
            47.174783,
            907.0
          ],
          [
            8.747129,
            47.174637,
            905.0
          ],
          [
            8.747031,
            47.174429,
            902.0
          ],
          [
            8.746869,
            47.174044,
            897.0
          ],
          [
            8.746735,
            47.173757,
            892.0
          ],
          [
            8.746653,
            47.17355,
            888.0
          ],
          [
            8.746608,
            47.173305,
            883.0
          ],
          [
            8.746591,
            47.173226,
            881.0
          ],
          [
            8.746563,
            47.173171,
            880.0
          ],
          [
            8.746501,
            47.173134,
            880.0
          ],
          [
            8.746366,
            47.173079,
            879.0
          ],
          [
            8.746285,
            47.173098,
            879.0
          ],
          [
            8.746222,
            47.173116,
            879.0
          ],
          [
            8.746069,
            47.173189,
            878.0
          ],
          [
            8.74589,
            47.173318,
            877.0
          ],
          [
            8.745729,
            47.173458,
            876.0
          ],
          [
            8.745557,
            47.173641,
            875.0
          ],
          [
            8.745171,
            47.174087,
            872.0
          ],
          [
            8.744955,
            47.174246,
            871.0
          ],
          [
            8.744811,
            47.174331,
            870.0
          ],
          [
            8.744632,
            47.174411,
            869.0
          ],
          [
            8.744498,
            47.174466,
            868.0
          ],
          [
            8.744291,
            47.174527,
            865.0
          ],
          [
            8.744121,
            47.174557,
            863.0
          ],
          [
            8.743913,
            47.174582,
            861.0
          ],
          [
            8.743706,
            47.174594,
            859.0
          ],
          [
            8.743473,
            47.174588,
            857.0
          ],
          [
            8.743266,
            47.174563,
            855.0
          ],
          [
            8.741982,
            47.17438,
            847.0
          ],
          [
            8.741461,
            47.174307,
            845.0
          ],
          [
            8.741326,
            47.174289,
            845.0
          ],
          [
            8.741056,
            47.174246,
            844.0
          ],
          [
            8.740779,
            47.174209,
            843.0
          ],
          [
            8.740626,
            47.174197,
            842.0
          ],
          [
            8.740456,
            47.174197,
            842.0
          ],
          [
            8.740033,
            47.17424,
            840.0
          ],
          [
            8.739773,
            47.174289,
            839.0
          ],
          [
            8.739763,
            47.174264,
            839.0
          ],
          [
            8.739737,
            47.174173,
            838.0
          ],
          [
            8.739691,
            47.174124,
            837.0
          ],
          [
            8.739574,
            47.174044,
            837.0
          ],
          [
            8.739538,
            47.174008,
            836.0
          ],
          [
            8.739358,
            47.173788,
            834.0
          ],
          [
            8.739269,
            47.17366,
            833.0
          ],
          [
            8.739144,
            47.173501,
            832.0
          ],
          [
            8.739062,
            47.173434,
            831.0
          ],
          [
            8.738972,
            47.173391,
            830.0
          ],
          [
            8.738848,
            47.173366,
            830.0
          ],
          [
            8.738676,
            47.17336,
            828.0
          ],
          [
            8.738578,
            47.173348,
            828.0
          ],
          [
            8.738506,
            47.173318,
            827.0
          ],
          [
            8.738461,
            47.173275,
            826.0
          ],
          [
            8.738452,
            47.173226,
            826.0
          ],
          [
            8.738461,
            47.173171,
            825.0
          ],
          [
            8.738506,
            47.173116,
            824.0
          ],
          [
            8.738578,
            47.173049,
            823.0
          ],
          [
            8.738676,
            47.172957,
            822.0
          ],
          [
            8.738731,
            47.172878,
            821.0
          ],
          [
            8.738811,
            47.172744,
            819.0
          ],
          [
            8.738882,
            47.172664,
            818.0
          ],
          [
            8.739008,
            47.172597,
            817.0
          ],
          [
            8.739198,
            47.172548,
            816.0
          ],
          [
            8.739368,
            47.172518,
            814.0
          ],
          [
            8.739511,
            47.172469,
            813.0
          ],
          [
            8.739773,
            47.172365,
            811.0
          ],
          [
            8.73989,
            47.172298,
            810.0
          ],
          [
            8.739979,
            47.172225,
            810.0
          ],
          [
            8.740006,
            47.17217,
            810.0
          ],
          [
            8.740006,
            47.17209,
            810.0
          ],
          [
            8.739987,
            47.172017,
            810.0
          ],
          [
            8.739924,
            47.171919,
            810.0
          ],
          [
            8.739835,
            47.171822,
            810.0
          ],
          [
            8.739691,
            47.171748,
            810.0
          ],
          [
            8.739584,
            47.171675,
            810.0
          ],
          [
            8.739287,
            47.171388,
            811.0
          ],
          [
            8.739179,
            47.171266,
            812.0
          ],
          [
            8.739125,
            47.171187,
            812.0
          ],
          [
            8.739098,
            47.171077,
            813.0
          ],
          [
            8.739081,
            47.170808,
            815.0
          ],
          [
            8.739089,
            47.170722,
            815.0
          ],
          [
            8.738605,
            47.170509,
            809.0
          ],
          [
            8.738586,
            47.170503,
            809.0
          ],
          [
            8.738578,
            47.17049,
            809.0
          ],
          [
            8.738443,
            47.1701,
            804.0
          ],
          [
            8.738255,
            47.169587,
            798.0
          ],
          [
            8.738083,
            47.169397,
            796.0
          ],
          [
            8.737976,
            47.169147,
            792.0
          ],
          [
            8.737886,
            47.169013,
            791.0
          ],
          [
            8.737779,
            47.168939,
            789.0
          ],
          [
            8.737643,
            47.168909,
            788.0
          ],
          [
            8.737643,
            47.168909,
            788.0
          ],
          [
            8.737643,
            47.168909,
            788.0
          ],
          [
            8.737517,
            47.168897,
            787.0
          ],
          [
            8.737185,
            47.169001,
            784.0
          ],
          [
            8.737005,
            47.169049,
            782.0
          ],
          [
            8.736817,
            47.169104,
            780.0
          ],
          [
            8.736475,
            47.169196,
            780.0
          ],
          [
            8.736322,
            47.169239,
            780.0
          ],
          [
            8.736295,
            47.169245,
            780.0
          ],
          [
            8.736171,
            47.169269,
            782.0
          ],
          [
            8.735936,
            47.169446,
            787.0
          ],
          [
            8.735586,
            47.169788,
            794.0
          ],
          [
            8.735074,
            47.17002,
            799.0
          ],
          [
            8.734787,
            47.170179,
            802.0
          ],
          [
            8.734563,
            47.170197,
            804.0
          ],
          [
            8.733907,
            47.17002,
            809.0
          ],
          [
            8.733808,
            47.170045,
            809.0
          ],
          [
            8.733592,
            47.170032,
            810.0
          ],
          [
            8.732892,
            47.169947,
            813.0
          ],
          [
            8.732747,
            47.169916,
            813.0
          ],
          [
            8.732496,
            47.169831,
            814.0
          ],
          [
            8.732334,
            47.169739,
            815.0
          ],
          [
            8.73211,
            47.169367,
            817.0
          ],
          [
            8.732011,
            47.169049,
            818.0
          ],
          [
            8.732137,
            47.168494,
            820.0
          ],
          [
            8.732056,
            47.168207,
            820.0
          ],
          [
            8.731867,
            47.16806,
            820.0
          ],
          [
            8.731194,
            47.167846,
            820.0
          ],
          [
            8.730969,
            47.167834,
            820.0
          ],
          [
            8.730978,
            47.167908,
            820.0
          ],
          [
            8.730951,
            47.167981,
            820.0
          ],
          [
            8.730906,
            47.168036,
            820.0
          ],
          [
            8.730825,
            47.168072,
            820.0
          ],
          [
            8.730636,
            47.168109,
            820.0
          ],
          [
            8.730636,
            47.168109,
            820.0
          ],
          [
            8.730089,
            47.168213,
            820.0
          ],
          [
            8.72998,
            47.168237,
            820.0
          ],
          [
            8.729972,
            47.168207,
            820.0
          ],
          [
            8.729926,
            47.168109,
            820.0
          ],
          [
            8.729837,
            47.16792,
            820.0
          ],
          [
            8.7298,
            47.167877,
            820.0
          ],
          [
            8.729739,
            47.167816,
            820.0
          ],
          [
            8.729676,
            47.167779,
            820.0
          ],
          [
            8.729576,
            47.16773,
            820.0
          ],
          [
            8.72945,
            47.167669,
            820.0
          ],
          [
            8.72928,
            47.167602,
            820.0
          ],
          [
            8.729387,
            47.167456,
            820.0
          ],
          [
            8.729441,
            47.167352,
            820.0
          ],
          [
            8.729477,
            47.167285,
            821.0
          ],
          [
            8.729504,
            47.167187,
            821.0
          ],
          [
            8.729531,
            47.167095,
            822.0
          ],
          [
            8.72955,
            47.16701,
            822.0
          ],
          [
            8.72955,
            47.166918,
            823.0
          ],
          [
            8.72955,
            47.16682,
            823.0
          ],
          [
            8.72954,
            47.166729,
            824.0
          ],
          [
            8.729531,
            47.166655,
            824.0
          ],
          [
            8.729504,
            47.166582,
            825.0
          ],
          [
            8.72945,
            47.166405,
            826.0
          ],
          [
            8.729298,
            47.166197,
            827.0
          ],
          [
            8.729137,
            47.166118,
            827.0
          ],
          [
            8.72902,
            47.166045,
            827.0
          ],
          [
            8.728938,
            47.165984,
            827.0
          ],
          [
            8.728768,
            47.165837,
            827.0
          ],
          [
            8.728714,
            47.165764,
            827.0
          ],
          [
            8.728642,
            47.165642,
            827.0
          ],
          [
            8.728615,
            47.165519,
            827.0
          ],
          [
            8.728607,
            47.165385,
            827.0
          ],
          [
            8.728624,
            47.165293,
            827.0
          ],
          [
            8.728561,
            47.165324,
            827.0
          ],
          [
            8.728517,
            47.165379,
            828.0
          ],
          [
            8.728462,
            47.165611,
            830.0
          ],
          [
            8.728427,
            47.165703,
            830.0
          ],
          [
            8.728399,
            47.165788,
            831.0
          ],
          [
            8.728399,
            47.165868,
            832.0
          ],
          [
            8.728372,
            47.165959,
            832.0
          ],
          [
            8.728309,
            47.166039,
            833.0
          ],
          [
            8.728221,
            47.166106,
            834.0
          ],
          [
            8.728131,
            47.166124,
            835.0
          ],
          [
            8.727869,
            47.166039,
            837.0
          ],
          [
            8.727852,
            47.166039,
            837.0
          ],
          [
            8.727825,
            47.166045,
            837.0
          ],
          [
            8.727816,
            47.166057,
            837.0
          ],
          [
            8.727753,
            47.166161,
            836.0
          ],
          [
            8.72769,
            47.166222,
            836.0
          ],
          [
            8.726091,
            47.166643,
            833.0
          ],
          [
            8.725022,
            47.166839,
            832.0
          ],
          [
            8.725058,
            47.166814,
            832.0
          ],
          [
            8.725129,
            47.166765,
            832.0
          ],
          [
            8.725534,
            47.166417,
            835.0
          ],
          [
            8.726397,
            47.16577,
            840.0
          ],
          [
            8.726441,
            47.165635,
            843.0
          ],
          [
            8.726198,
            47.164933,
            852.0
          ],
          [
            8.726234,
            47.164108,
            858.0
          ],
          [
            8.726154,
            47.163711,
            862.0
          ],
          [
            8.725749,
            47.163375,
            865.0
          ],
          [
            8.725309,
            47.163113,
            869.0
          ],
          [
            8.724753,
            47.162838,
            876.0
          ],
          [
            8.724707,
            47.162691,
            879.0
          ],
          [
            8.724833,
            47.162447,
            882.0
          ],
          [
            8.725246,
            47.161873,
            890.0
          ],
          [
            8.725588,
            47.161402,
            897.0
          ],
          [
            8.725867,
            47.161213,
            901.0
          ],
          [
            8.726028,
            47.16103,
            903.0
          ],
          [
            8.72601,
            47.160932,
            904.0
          ],
          [
            8.725938,
            47.160816,
            906.0
          ],
          [
            8.725848,
            47.160731,
            907.0
          ],
          [
            8.725758,
            47.16067,
            908.0
          ],
          [
            8.725642,
            47.160621,
            909.0
          ],
          [
            8.725516,
            47.160596,
            910.0
          ],
          [
            8.725103,
            47.160572,
            913.0
          ],
          [
            8.724915,
            47.160523,
            914.0
          ],
          [
            8.724663,
            47.160358,
            917.0
          ],
          [
            8.724519,
            47.160303,
            918.0
          ],
          [
            8.724366,
            47.160254,
            919.0
          ],
          [
            8.723989,
            47.160236,
            921.0
          ],
          [
            8.723755,
            47.160254,
            923.0
          ],
          [
            8.723584,
            47.160157,
            919.0
          ],
          [
            8.72336,
            47.160059,
            915.0
          ],
          [
            8.723217,
            47.160004,
            912.0
          ],
          [
            8.723198,
            47.15998,
            911.0
          ],
          [
            8.723315,
            47.159913,
            909.0
          ],
          [
            8.723441,
            47.159833,
            906.0
          ],
          [
            8.72354,
            47.159772,
            904.0
          ],
          [
            8.723558,
            47.159729,
            903.0
          ],
          [
            8.723531,
            47.159711,
            902.0
          ],
          [
            8.723261,
            47.159662,
            897.0
          ],
          [
            8.723127,
            47.159626,
            894.0
          ],
          [
            8.723271,
            47.159516,
            890.0
          ],
          [
            8.723414,
            47.159461,
            888.0
          ],
          [
            8.723953,
            47.159216,
            877.0
          ],
          [
            8.723837,
            47.159106,
            873.0
          ],
          [
            8.72372,
            47.159076,
            870.0
          ],
          [
            8.723728,
            47.159027,
            868.0
          ],
          [
            8.723791,
            47.15899,
            866.0
          ],
          [
            8.723783,
            47.15896,
            865.0
          ],
          [
            8.72371,
            47.158923,
            863.0
          ],
          [
            8.723621,
            47.158905,
            861.0
          ],
          [
            8.723378,
            47.158886,
            857.0
          ],
          [
            8.723234,
            47.158874,
            854.0
          ],
          [
            8.723127,
            47.158825,
            852.0
          ],
          [
            8.723154,
            47.158801,
            851.0
          ],
          [
            8.723261,
            47.158746,
            849.0
          ],
          [
            8.723162,
            47.158715,
            846.0
          ],
          [
            8.723028,
            47.158715,
            844.0
          ],
          [
            8.722947,
            47.158666,
            841.0
          ],
          [
            8.722992,
            47.158642,
            840.0
          ],
          [
            8.722929,
            47.15863,
            840.0
          ],
          [
            8.722911,
            47.158611,
            840.0
          ],
          [
            8.723018,
            47.158587,
            840.0
          ],
          [
            8.723009,
            47.158575,
            840.0
          ],
          [
            8.722938,
            47.158556,
            840.0
          ],
          [
            8.722947,
            47.158532,
            840.0
          ],
          [
            8.723001,
            47.158446,
            840.0
          ],
          [
            8.722992,
            47.158416,
            840.0
          ],
          [
            8.722965,
            47.158404,
            840.0
          ],
          [
            8.722892,
            47.158343,
            840.0
          ],
          [
            8.722588,
            47.158068,
            840.0
          ],
          [
            8.722381,
            47.15789,
            840.0
          ],
          [
            8.722229,
            47.157671,
            840.0
          ],
          [
            8.722129,
            47.157481,
            840.0
          ],
          [
            8.722039,
            47.157353,
            840.0
          ],
          [
            8.721959,
            47.157267,
            840.0
          ],
          [
            8.721617,
            47.157053,
            840.0
          ],
          [
            8.721437,
            47.156925,
            840.0
          ],
          [
            8.72133,
            47.156827,
            840.0
          ],
          [
            8.72125,
            47.156724,
            840.0
          ],
          [
            8.721231,
            47.156626,
            840.0
          ],
          [
            8.721258,
            47.156534,
            840.0
          ],
          [
            8.72133,
            47.156455,
            840.0
          ],
          [
            8.721447,
            47.156381,
            840.0
          ],
          [
            8.72168,
            47.156241,
            840.0
          ],
          [
            8.72185,
            47.156106,
            840.0
          ],
          [
            8.721896,
            47.156058,
            840.0
          ],
          [
            8.72195,
            47.155954,
            840.0
          ],
          [
            8.721995,
            47.155825,
            838.0
          ],
          [
            8.722039,
            47.155655,
            836.0
          ],
          [
            8.722066,
            47.155606,
            835.0
          ],
          [
            8.722112,
            47.155532,
            834.0
          ],
          [
            8.722202,
            47.155636,
            834.0
          ],
          [
            8.723225,
            47.15684,
            831.0
          ],
          [
            8.723225,
            47.156852,
            831.0
          ],
          [
            8.723288,
            47.156925,
            831.0
          ],
          [
            8.723307,
            47.156962,
            831.0
          ],
          [
            8.723334,
            47.156998,
            830.0
          ],
          [
            8.723315,
            47.156998,
            830.0
          ],
          [
            8.723307,
            47.156992,
            830.0
          ],
          [
            8.723234,
            47.15695,
            830.0
          ],
          [
            8.723225,
            47.15695,
            830.0
          ],
          [
            8.723288,
            47.157115,
            830.0
          ],
          [
            8.723261,
            47.157115,
            830.0
          ],
          [
            8.723162,
            47.157041,
            830.0
          ],
          [
            8.723145,
            47.156889,
            830.0
          ],
          [
            8.723145,
            47.156858,
            830.0
          ],
          [
            8.723162,
            47.156809,
            830.0
          ],
          [
            8.723099,
            47.156797,
            829.0
          ],
          [
            8.723037,
            47.156779,
            829.0
          ],
          [
            8.722965,
            47.15676,
            829.0
          ],
          [
            8.722821,
            47.156736,
            829.0
          ],
          [
            8.722741,
            47.156644,
            830.0
          ],
          [
            8.722695,
            47.156644,
            830.0
          ],
          [
            8.722695,
            47.156626,
            830.0
          ],
          [
            8.722695,
            47.156571,
            830.0
          ]
        ]
      }
    }
  ]
}