{
  "type": "FeatureCollection",
  "features": [
    {
      "type": "Feature",
      "properties": {},
      "geometry": {
        "type": "LineString",
        "coordinates": [
          [
            9.707105,
            46.819521,
            1319.0
          ],
          [
            9.707015,
            46.819657,
            1318.0
          ],
          [
            9.707024,
            46.819657,
            1319.0
          ],
          [
            9.707042,
            46.819657,
            1319.0
          ],
          [
            9.707069,
            46.819669,
            1319.0
          ],
          [
            9.707141,
            46.819694,
            1319.0
          ],
          [
            9.707168,
            46.8197,
            1319.0
          ],
          [
            9.707195,
            46.8197,
            1319.0
          ],
          [
            9.707213,
            46.8197,
            1319.0
          ],
          [
            9.707231,
            46.819694,
            1319.0
          ],
          [
            9.70724,
            46.819688,
            1319.0
          ],
          [
            9.70724,
            46.819663,
            1319.0
          ],
          [
            9.707248,
            46.819645,
            1319.0
          ],
          [
            9.707258,
            46.819626,
            1319.0
          ],
          [
            9.70733,
            46.819521,
            1318.0
          ],
          [
            9.707365,
            46.81946,
            1318.0
          ],
          [
            9.707401,
            46.819405,
            1317.0
          ],
          [
            9.707411,
            46.81938,
            1317.0
          ],
          [
            9.70742,
            46.819362,
            1317.0
          ],
          [
            9.70742,
            46.819343,
            1317.0
          ],
          [
            9.70742,
            46.819325,
            1317.0
          ],
          [
            9.70742,
            46.819282,
            1317.0
          ],
          [
            9.707527,
            46.819092,
            1316.0
          ],
          [
            9.707545,
            46.819061,
            1316.0
          ],
          [
            9.707564,
            46.819024,
            1315.0
          ],
          [
            9.707573,
            46.819005,
            1315.0
          ],
          [
            9.707573,
            46.818993,
            1315.0
          ],
          [
            9.707573,
            46.818987,
            1315.0
          ],
          [
            9.707573,
            46.818974,
            1315.0
          ],
          [
            9.707554,
            46.818962,
            1315.0
          ],
          [
            9.707545,
            46.81895,
            1315.0
          ],
          [
            9.707545,
            46.818937,
            1315.0
          ],
          [
            9.707545,
            46.818925,
            1315.0
          ],
          [
            9.707545,
            46.8189,
            1315.0
          ],
          [
            9.707564,
            46.818852,
            1314.0
          ],
          [
            9.707564,
            46.818827,
            1314.0
          ],
          [
            9.707573,
            46.818809,
            1314.0
          ],
          [
            9.707573,
            46.81879,
            1314.0
          ],
          [
            9.707573,
            46.818772,
            1314.0
          ],
          [
            9.707545,
            46.81863,
            1313.0
          ],
          [
            9.707537,
            46.818605,
            1313.0
          ],
          [
            9.707537,
            46.818587,
            1313.0
          ],
          [
            9.707527,
            46.818575,
            1313.0
          ],
          [
            9.707518,
            46.818556,
            1313.0
          ],
          [
            9.707491,
            46.81852,
            1313.0
          ],
          [
            9.707464,
            46.818483,
            1313.0
          ],
          [
            9.70742,
            46.818428,
            1312.0
          ],
          [
            9.707393,
            46.818397,
            1312.0
          ],
          [
            9.707357,
            46.81836,
            1312.0
          ],
          [
            9.70733,
            46.818335,
            1312.0
          ],
          [
            9.707285,
            46.818298,
            1311.0
          ],
          [
            9.70724,
            46.818267,
            1311.0
          ],
          [
            9.707195,
            46.818243,
            1311.0
          ],
          [
            9.707141,
            46.818212,
            1311.0
          ],
          [
            9.707087,
            46.818188,
            1310.0
          ],
          [
            9.707034,
            46.818163,
            1310.0
          ],
          [
            9.706971,
            46.818139,
            1310.0
          ],
          [
            9.706908,
            46.81812,
            1309.0
          ],
          [
            9.706845,
            46.818102,
            1309.0
          ],
          [
            9.706782,
            46.818083,
            1308.0
          ],
          [
            9.706728,
            46.818071,
            1307.0
          ],
          [
            9.706682,
            46.818052,
            1307.0
          ],
          [
            9.706629,
            46.818046,
            1306.0
          ],
          [
            9.706593,
            46.818034,
            1306.0
          ],
          [
            9.706566,
            46.818021,
            1306.0
          ],
          [
            9.706548,
            46.818015,
            1305.0
          ],
          [
            9.706539,
            46.818003,
            1305.0
          ],
          [
            9.706539,
            46.817985,
            1305.0
          ],
          [
            9.706539,
            46.817972,
            1305.0
          ],
          [
            9.706548,
            46.817954,
            1304.0
          ],
          [
            9.706566,
            46.817942,
            1304.0
          ],
          [
            9.706593,
            46.817936,
            1304.0
          ],
          [
            9.706619,
            46.81793,
            1304.0
          ],
          [
            9.706656,
            46.817923,
            1303.0
          ],
          [
            9.706692,
            46.817923,
            1303.0
          ],
          [
            9.706745,
            46.817917,
            1302.0
          ],
          [
            9.706799,
            46.817917,
            1302.0
          ],
          [
            9.706845,
            46.817923,
            1301.0
          ],
          [
            9.706889,
            46.817923,
            1301.0
          ],
          [
            9.706952,
            46.817923,
            1300.0
          ],
          [
            9.707015,
            46.817923,
            1300.0
          ],
          [
            9.707078,
            46.817923,
            1299.0
          ],
          [
            9.707168,
            46.817923,
            1298.0
          ],
          [
            9.708129,
            46.817856,
            1287.0
          ],
          [
            9.708587,
            46.817813,
            1281.0
          ],
          [
            9.708615,
            46.817714,
            1280.0
          ],
          [
            9.70829,
            46.817481,
            1276.0
          ],
          [
            9.708003,
            46.817401,
            1273.0
          ],
          [
            9.707248,
            46.817321,
            1270.0
          ],
          [
            9.707132,
            46.817278,
            1270.0
          ],
          [
            9.707114,
            46.817112,
            1270.0
          ],
          [
            9.707078,
            46.817062,
            1270.0
          ],
          [
            9.706872,
            46.816989,
            1270.0
          ],
          [
            9.706495,
            46.816866,
            1270.0
          ],
          [
            9.706206,
            46.816823,
            1270.0
          ],
          [
            9.70609,
            46.816731,
            1270.0
          ],
          [
            9.706,
            46.816497,
            1270.0
          ],
          [
            9.705893,
            46.816362,
            1270.0
          ],
          [
            9.705803,
            46.816251,
            1270.0
          ],
          [
            9.705919,
            46.815882,
            1270.0
          ],
          [
            9.706009,
            46.81563,
            1270.0
          ],
          [
            9.706,
            46.815415,
            1270.0
          ],
          [
            9.706027,
            46.815151,
            1272.0
          ],
          [
            9.706053,
            46.814954,
            1274.0
          ],
          [
            9.706045,
            46.814948,
            1274.0
          ],
          [
            9.706521,
            46.814567,
            1279.0
          ],
          [
            9.706808,
            46.81418,
            1280.0
          ],
          [
            9.706854,
            46.813773,
            1283.0
          ],
          [
            9.706908,
            46.813411,
            1286.0
          ],
          [
            9.706998,
            46.812851,
            1289.0
          ],
          [
            9.707061,
            46.812366,
            1297.0
          ],
          [
            9.707078,
            46.81188,
            1304.0
          ],
          [
            9.706952,
            46.8114,
            1311.0
          ],
          [
            9.706898,
            46.811087,
            1317.0
          ],
          [
            9.706881,
            46.810878,
            1320.0
          ],
          [
            9.706872,
            46.81073,
            1323.0
          ],
          [
            9.706862,
            46.810534,
            1326.0
          ],
          [
            9.706692,
            46.810036,
            1335.0
          ],
          [
            9.706531,
            46.809735,
            1341.0
          ],
          [
            9.706252,
            46.809556,
            1345.0
          ],
          [
            9.706171,
            46.809464,
            1347.0
          ],
          [
            9.705839,
            46.809169,
            1355.0
          ],
          [
            9.70573,
            46.80864,
            1362.0
          ],
          [
            9.705577,
            46.808007,
            1364.0
          ],
          [
            9.705497,
            46.807349,
            1367.0
          ],
          [
            9.705667,
            46.80714,
            1368.0
          ],
          [
            9.705533,
            46.806765,
            1370.0
          ],
          [
            9.705317,
            46.806371,
            1373.0
          ],
          [
            9.705191,
            46.806107,
            1374.0
          ],
          [
            9.705093,
            46.805904,
            1375.0
          ],
          [
            9.705066,
            46.805744,
            1376.0
          ],
          [
            9.705048,
            46.805467,
            1378.0
          ],
          [
            9.705003,
            46.805295,
            1379.0
          ],
          [
            9.704977,
            46.805147,
            1379.0
          ],
          [
            9.70486,
            46.80468,
            1382.0
          ],
          [
            9.704824,
            46.804496,
            1383.0
          ],
          [
            9.70468,
            46.804324,
            1384.0
          ],
          [
            9.704715,
            46.804102,
            1385.0
          ],
          [
            9.704581,
            46.803838,
            1386.0
          ],
          [
            9.704474,
            46.803678,
            1387.0
          ],
          [
            9.704401,
            46.803205,
            1389.0
          ],
          [
            9.704239,
            46.802688,
            1397.0
          ],
          [
            9.703682,
            46.802282,
            1405.0
          ],
          [
            9.703602,
            46.802233,
            1406.0
          ],
          [
            9.703566,
            46.802202,
            1407.0
          ],
          [
            9.703539,
            46.802159,
            1408.0
          ],
          [
            9.703521,
            46.802123,
            1408.0
          ],
          [
            9.703512,
            46.802086,
            1409.0
          ],
          [
            9.703503,
            46.801968,
            1410.0
          ],
          [
            9.703493,
            46.801956,
            1411.0
          ],
          [
            9.703485,
            46.801907,
            1412.0
          ],
          [
            9.703466,
            46.801858,
            1413.0
          ],
          [
            9.703466,
            46.801846,
            1413.0
          ],
          [
            9.703466,
            46.801834,
            1413.0
          ],
          [
            9.703476,
            46.801821,
            1414.0
          ],
          [
            9.703476,
            46.801809,
            1414.0
          ],
          [
            9.703476,
            46.801797,
            1414.0
          ],
          [
            9.703466,
            46.801772,
            1415.0
          ],
          [
            9.703466,
            46.801747,
            1415.0
          ],
          [
            9.703458,
            46.801729,
            1415.0
          ],
          [
            9.703449,
            46.801716,
            1416.0
          ],
          [
            9.70344,
            46.801704,
            1416.0
          ],
          [
            9.703432,
            46.801692,
            1416.0
          ],
          [
            9.703432,
            46.801686,
            1416.0
          ],
          [
            9.703432,
            46.801673,
            1417.0
          ],
          [
            9.703432,
            46.801661,
            1417.0
          ],
          [
            9.703422,
            46.801655,
            1417.0
          ],
          [
            9.703413,
            46.801649,
            1417.0
          ],
          [
            9.703403,
            46.801642,
            1417.0
          ],
          [
            9.703386,
            46.80163,
            1418.0
          ],
          [
            9.703377,
            46.801624,
            1418.0
          ],
          [
            9.703377,
            46.801612,
            1418.0
          ],
          [
            9.703359,
            46.801557,
            1419.0
          ],
          [
            9.703359,
            46.801545,
            1420.0
          ],
          [
            9.70335,
            46.801538,
            1420.0
          ],
          [
            9.703342,
            46.801532,
            1420.0
          ],
          [
            9.70326,
            46.801483,
            1421.0
          ],
          [
            9.703252,
            46.801477,
            1422.0
          ],
          [
            9.703252,
            46.801471,
            1422.0
          ],
          [
            9.703252,
            46.801464,
            1422.0
          ],
          [
            9.703252,
            46.801452,
            1422.0
          ],
          [
            9.703252,
            46.80144,
            1422.0
          ],
          [
            9.703269,
            46.801397,
            1423.0
          ],
          [
            9.703279,
            46.801366,
            1424.0
          ],
          [
            9.703279,
            46.801335,
            1424.0
          ],
          [
            9.703279,
            46.801311,
            1425.0
          ],
          [
            9.703279,
            46.80128,
            1426.0
          ],
          [
            9.703279,
            46.801249,
            1426.0
          ],
          [
            9.703287,
            46.801219,
            1427.0
          ],
          [
            9.703233,
            46.801219,
            1428.0
          ],
          [
            9.703216,
            46.801219,
            1428.0
          ],
          [
            9.703197,
            46.801212,
            1428.0
          ],
          [
            9.703179,
            46.801206,
            1428.0
          ],
          [
            9.70317,
            46.801206,
            1428.0
          ],
          [
            9.703153,
            46.8012,
            1429.0
          ],
          [
            9.703143,
            46.801194,
            1429.0
          ],
          [
            9.703135,
            46.801182,
            1429.0
          ],
          [
            9.70309,
            46.801114,
            1430.0
          ],
          [
            9.703162,
            46.800967,
            1432.0
          ],
          [
            9.703287,
            46.800671,
            1435.0
          ],
          [
            9.703369,
            46.800437,
            1437.0
          ],
          [
            9.703377,
            46.800352,
            1438.0
          ],
          [
            9.703323,
            46.800148,
            1440.0
          ],
          [
            9.703197,
            46.799914,
            1443.0
          ],
          [
            9.703143,
            46.799773,
            1445.0
          ],
          [
            9.703099,
            46.799564,
            1447.0
          ],
          [
            9.70309,
            46.79941,
            1449.0
          ],
          [
            9.703189,
            46.799054,
            1450.0
          ],
          [
            9.703189,
            46.798986,
            1450.0
          ],
          [
            9.703189,
            46.7989,
            1451.0
          ],
          [
            9.703189,
            46.79882,
            1451.0
          ],
          [
            9.703162,
            46.798562,
            1451.0
          ],
          [
            9.703233,
            46.798568,
            1450.0
          ],
          [
            9.703296,
            46.798211,
            1452.0
          ],
          [
            9.703332,
            46.79807,
            1452.0
          ],
          [
            9.703342,
            46.798045,
            1452.0
          ],
          [
            9.70335,
            46.798008,
            1452.0
          ],
          [
            9.703359,
            46.797965,
            1452.0
          ],
          [
            9.703377,
            46.797891,
            1452.0
          ],
          [
            9.703395,
            46.797848,
            1453.0
          ],
          [
            9.703413,
            46.797787,
            1453.0
          ],
          [
            9.70344,
            46.797713,
            1453.0
          ],
          [
            9.703476,
            46.797633,
            1453.0
          ],
          [
            9.703673,
            46.797424,
            1454.0
          ],
          [
            9.703709,
            46.797375,
            1454.0
          ],
          [
            9.703719,
            46.797319,
            1454.0
          ],
          [
            9.703692,
            46.797246,
            1455.0
          ],
          [
            9.703629,
            46.79716,
            1455.0
          ],
          [
            9.703493,
            46.796914,
            1456.0
          ],
          [
            9.703413,
            46.796668,
            1456.0
          ],
          [
            9.703369,
            46.796588,
            1457.0
          ],
          [
            9.703233,
            46.796428,
            1457.0
          ],
          [
            9.703197,
            46.796342,
            1458.0
          ],
          [
            9.703189,
            46.796225,
            1458.0
          ],
          [
            9.703153,
            46.796133,
            1458.0
          ],
          [
            9.70308,
            46.795825,
            1459.0
          ],
          [
            9.702973,
            46.795659,
            1460.0
          ],
          [
            9.70291,
            46.795585,
            1460.0
          ],
          [
            9.702946,
            46.795536,
            1461.0
          ],
          [
            9.703099,
            46.795475,
            1462.0
          ],
          [
            9.703323,
            46.795376,
            1465.0
          ],
          [
            9.703413,
            46.795314,
            1467.0
          ],
          [
            9.703493,
            46.795217,
            1468.0
          ],
          [
            9.703566,
            46.795093,
            1470.0
          ],
          [
            9.703575,
            46.79497,
            1471.0
          ],
          [
            9.703548,
            46.794872,
            1472.0
          ],
          [
            9.703493,
            46.794841,
            1473.0
          ],
          [
            9.703432,
            46.794866,
            1473.0
          ],
          [
            9.703377,
            46.794958,
            1474.0
          ],
          [
            9.703369,
            46.795038,
            1475.0
          ],
          [
            9.703315,
            46.795056,
            1475.0
          ],
          [
            9.70326,
            46.795044,
            1476.0
          ],
          [
            9.703242,
            46.794922,
            1477.0
          ],
          [
            9.703315,
            46.79478,
            1479.0
          ],
          [
            9.703413,
            46.794706,
            1479.0
          ],
          [
            9.703503,
            46.794639,
            1481.0
          ],
          [
            9.703556,
            46.794589,
            1482.0
          ],
          [
            9.703646,
            46.794484,
            1483.0
          ],
          [
            9.703629,
            46.794423,
            1484.0
          ],
          [
            9.703548,
            46.794356,
            1486.0
          ],
          [
            9.703432,
            46.794313,
            1487.0
          ],
          [
            9.703342,
            46.794257,
            1489.0
          ],
          [
            9.703306,
            46.794164,
            1490.0
          ],
          [
            9.703216,
            46.793734,
            1493.0
          ],
          [
            9.70317,
            46.793556,
            1494.0
          ],
          [
            9.703116,
            46.793402,
            1495.0
          ],
          [
            9.703063,
            46.793242,
            1496.0
          ],
          [
            9.703053,
            46.793193,
            1496.0
          ],
          [
            9.703063,
            46.793138,
            1497.0
          ],
          [
            9.703009,
            46.793051,
            1497.0
          ],
          [
            9.70291,
            46.792978,
            1498.0
          ],
          [
            9.70282,
            46.792929,
            1498.0
          ],
          [
            9.70274,
            46.792898,
            1499.0
          ],
          [
            9.702631,
            46.792873,
            1499.0
          ],
          [
            9.702479,
            46.79283,
            1500.0
          ],
          [
            9.702424,
            46.792775,
            1500.0
          ],
          [
            9.702424,
            46.792683,
            1500.0
          ],
          [
            9.702461,
            46.792523,
            1500.0
          ],
          [
            9.702424,
            46.792455,
            1500.0
          ],
          [
            9.702353,
            46.792436,
            1500.0
          ],
          [
            9.70229,
            46.792436,
            1500.0
          ],
          [
            9.702281,
            46.7924,
            1500.0
          ],
          [
            9.702183,
            46.792129,
            1500.0
          ],
          [
            9.701608,
            46.791643,
            1500.0
          ],
          [
            9.701239,
            46.791225,
            1500.0
          ],
          [
            9.701078,
            46.790825,
            1500.0
          ],
          [
            9.701059,
            46.79069,
            1501.0
          ],
          [
            9.701149,
            46.790358,
            1504.0
          ],
          [
            9.701176,
            46.790235,
            1505.0
          ],
          [
            9.701122,
            46.790081,
            1507.0
          ],
          [
            9.701023,
            46.789915,
            1509.0
          ],
          [
            9.700808,
            46.789749,
            1513.0
          ],
          [
            9.7007,
            46.789619,
            1516.0
          ],
          [
            9.700287,
            46.789294,
            1524.0
          ],
          [
            9.700116,
            46.78906,
            1528.0
          ],
          [
            9.6999,
            46.788993,
            1530.0
          ],
          [
            9.699505,
            46.788949,
            1534.0
          ],
          [
            9.698895,
            46.788999,
            1538.0
          ],
          [
            9.698688,
            46.788986,
            1540.0
          ],
          [
            9.698571,
            46.788956,
            1541.0
          ],
          [
            9.698463,
            46.788882,
            1541.0
          ],
          [
            9.698212,
            46.788574,
            1544.0
          ],
          [
            9.698077,
            46.788469,
            1546.0
          ],
          [
            9.69752,
            46.788248,
            1549.0
          ],
          [
            9.696963,
            46.78802,
            1553.0
          ],
          [
            9.696721,
            46.787897,
            1555.0
          ],
          [
            9.696424,
            46.787688,
            1558.0
          ],
          [
            9.696289,
            46.787553,
            1560.0
          ],
          [
            9.696227,
            46.787455,
            1560.0
          ],
          [
            9.696245,
            46.787184,
            1562.0
          ],
          [
            9.696164,
            46.786987,
            1563.0
          ],
          [
            9.696047,
            46.786809,
            1563.0
          ],
          [
            9.695786,
            46.786409,
            1565.0
          ],
          [
            9.695715,
            46.786114,
            1567.0
          ],
          [
            9.695805,
            46.785634,
            1569.0
          ],
          [
            9.695751,
            46.785376,
            1570.0
          ],
          [
            9.695715,
            46.785222,
            1572.0
          ],
          [
            9.695688,
            46.785044,
            1573.0
          ],
          [
            9.695516,
            46.784656,
            1577.0
          ],
          [
            9.69522,
            46.78417,
            1581.0
          ],
          [
            9.695023,
            46.783881,
            1586.0
          ],
          [
            9.694916,
            46.783844,
            1587.0
          ],
          [
            9.694879,
            46.783782,
            1587.0
          ],
          [
            9.694763,
            46.783592,
            1590.0
          ],
          [
            9.694646,
            46.783358,
            1593.0
          ],
          [
            9.694591,
            46.783272,
            1594.0
          ],
          [
            9.694529,
            46.783137,
            1595.0
          ],
          [
            9.694466,
            46.783026,
            1597.0
          ],
          [
            9.694376,
            46.782909,
            1598.0
          ],
          [
            9.69434,
            46.782675,
            1600.0
          ],
          [
            9.694394,
            46.782276,
            1601.0
          ],
          [
            9.694421,
            46.782189,
            1601.0
          ],
          [
            9.694439,
            46.781814,
            1602.0
          ],
          [
            9.694439,
            46.781789,
            1602.0
          ],
          [
            9.694448,
            46.781679,
            1602.0
          ],
          [
            9.694384,
            46.781568,
            1602.0
          ],
          [
            9.694025,
            46.781254,
            1603.0
          ],
          [
            9.693784,
            46.781125,
            1603.0
          ],
          [
            9.693388,
            46.780989,
            1603.0
          ],
          [
            9.692696,
            46.780645,
            1604.0
          ],
          [
            9.692184,
            46.78046,
            1605.0
          ],
          [
            9.691824,
            46.780233,
            1606.0
          ],
          [
            9.691574,
            46.780135,
            1606.0
          ],
          [
            9.691285,
            46.780049,
            1606.0
          ],
          [
            9.690755,
            46.779698,
            1607.0
          ],
          [
            9.690558,
            46.779526,
            1608.0
          ],
          [
            9.690396,
            46.779341,
            1608.0
          ],
          [
            9.690298,
            46.779194,
            1608.0
          ],
          [
            9.690199,
            46.77904,
            1608.0
          ],
          [
            9.690063,
            46.778911,
            1609.0
          ],
          [
            9.689857,
            46.778769,
            1609.0
          ],
          [
            9.689444,
            46.778572,
            1610.0
          ],
          [
            9.68957,
            46.778547,
            1610.0
          ],
          [
            9.68975,
            46.778486,
            1610.0
          ],
          [
            9.689579,
            46.778289,
            1610.0
          ],
          [
            9.689471,
            46.778092,
            1610.0
          ],
          [
            9.689004,
            46.777557,
            1610.0
          ],
          [
            9.688851,
            46.777409,
            1610.0
          ],
          [
            9.688339,
            46.776973,
            1610.0
          ],
          [
            9.687953,
            46.776628,
            1610.0
          ],
          [
            9.687729,
            46.776345,
            1610.0
          ],
          [
            9.687809,
            46.775803,
            1612.0
          ],
          [
            9.687872,
            46.775496,
            1614.0
          ],
          [
            9.688132,
            46.775115,
            1616.0
          ],
          [
            9.688178,
            46.775022,
            1616.0
          ],
          [
            9.688187,
            46.774924,
            1617.0
          ],
          [
            9.688195,
            46.774745,
            1618.0
          ],
          [
            9.688518,
            46.774438,
            1620.0
          ],
          [
            9.688421,
            46.774148,
            1620.0
          ],
          [
            9.688411,
            46.77413,
            1620.0
          ],
          [
            9.687998,
            46.774001,
            1620.0
          ],
          [
            9.687801,
            46.773964,
            1620.0
          ],
          [
            9.687738,
            46.77389,
            1620.0
          ],
          [
            9.687692,
            46.773718,
            1620.0
          ],
          [
            9.687683,
            46.773632,
            1620.0
          ],
          [
            9.687801,
            46.773386,
            1620.0
          ],
          [
            9.687863,
            46.772992,
            1621.0
          ],
          [
            9.687855,
            46.772838,
            1621.0
          ],
          [
            9.687836,
            46.772716,
            1622.0
          ],
          [
            9.687755,
            46.772524,
            1623.0
          ],
          [
            9.687738,
            46.772223,
            1624.0
          ],
          [
            9.687692,
            46.771977,
            1625.0
          ],
          [
            9.687593,
            46.771743,
            1625.0
          ],
          [
            9.687566,
            46.771596,
            1626.0
          ],
          [
            9.687476,
            46.771306,
            1627.0
          ],
          [
            9.687503,
            46.771085,
            1628.0
          ],
          [
            9.687379,
            46.770845,
            1629.0
          ],
          [
            9.687442,
            46.770587,
            1630.0
          ],
          [
            9.687189,
            46.769965,
            1633.0
          ],
          [
            9.687199,
            46.769362,
            1635.0
          ],
          [
            9.687037,
            46.769091,
            1636.0
          ],
          [
            9.687037,
            46.768975,
            1637.0
          ],
          [
            9.686956,
            46.768845,
            1638.0
          ],
          [
            9.686992,
            46.76882,
            1638.0
          ],
          [
            9.686821,
            46.768494,
            1639.0
          ],
          [
            9.686839,
            46.768409,
            1640.0
          ],
          [
            9.686876,
            46.768248,
            1640.0
          ],
          [
            9.686956,
            46.768144,
            1641.0
          ],
          [
            9.686983,
            46.768033,
            1641.0
          ],
          [
            9.686947,
            46.767805,
            1642.0
          ],
          [
            9.68675,
            46.76727,
            1644.0
          ],
          [
            9.686497,
            46.766766,
            1646.0
          ],
          [
            9.68648,
            46.766605,
            1647.0
          ],
          [
            9.686713,
            46.766359,
            1648.0
          ],
          [
            9.686821,
            46.766015,
            1649.0
          ],
          [
            9.686839,
            46.765571,
            1652.0
          ],
          [
            9.686803,
            46.765455,
            1654.0
          ],
          [
            9.686731,
            46.765331,
            1655.0
          ],
          [
            9.686731,
            46.765313,
            1655.0
          ],
          [
            9.686794,
            46.765209,
            1656.0
          ],
          [
            9.686902,
            46.76519,
            1657.0
          ],
          [
            9.687019,
            46.765061,
            1659.0
          ],
          [
            9.6871,
            46.764901,
            1660.0
          ],
          [
            9.687117,
            46.764784,
            1660.0
          ],
          [
            9.687145,
            46.764519,
            1660.0
          ],
          [
            9.687243,
            46.764409,
            1660.0
          ],
          [
            9.687207,
            46.764322,
            1660.0
          ],
          [
            9.687073,
            46.764316,
            1660.0
          ],
          [
            9.68692,
            46.7642,
            1660.0
          ],
          [
            9.686803,
            46.764046,
            1660.0
          ],
          [
            9.686677,
            46.763886,
            1660.0
          ],
          [
            9.686624,
            46.763719,
            1660.0
          ],
          [
            9.686489,
            46.763683,
            1661.0
          ],
          [
            9.68639,
            46.763498,
            1664.0
          ],
          [
            9.6863,
            46.763461,
            1665.0
          ],
          [
            9.68622,
            46.763344,
            1666.0
          ],
          [
            9.686103,
            46.76327,
            1668.0
          ],
          [
            9.685914,
            46.763129,
            1670.0
          ],
          [
            9.685716,
            46.763006,
            1672.0
          ],
          [
            9.685618,
            46.762834,
            1675.0
          ],
          [
            9.685528,
            46.762784,
            1676.0
          ],
          [
            9.685392,
            46.762618,
            1678.0
          ],
          [
            9.685339,
            46.762452,
            1680.0
          ],
          [
            9.685222,
            46.762353,
            1684.0
          ],
          [
            9.685168,
            46.762243,
            1687.0
          ],
          [
            9.685105,
            46.762119,
            1690.0
          ],
          [
            9.685042,
            46.762083,
            1692.0
          ],
          [
            9.684836,
            46.761978,
            1696.0
          ],
          [
            9.684836,
            46.761892,
            1697.0
          ],
          [
            9.684755,
            46.761836,
            1699.0
          ],
          [
            9.684647,
            46.761757,
            1702.0
          ],
          [
            9.684576,
            46.761707,
            1704.0
          ],
          [
            9.684683,
            46.761664,
            1706.0
          ],
          [
            9.684666,
            46.761639,
            1707.0
          ],
          [
            9.684602,
            46.761627,
            1708.0
          ],
          [
            9.684647,
            46.761572,
            1710.0
          ],
          [
            9.684729,
            46.761547,
            1712.0
          ],
          [
            9.684792,
            46.76148,
            1714.0
          ],
          [
            9.684863,
            46.761467,
            1716.0
          ],
          [
            9.684916,
            46.761344,
            1720.0
          ],
          [
            9.684979,
            46.761338,
            1722.0
          ],
          [
            9.685061,
            46.761271,
            1724.0
          ],
          [
            9.685033,
            46.761215,
            1726.0
          ],
          [
            9.685159,
            46.761153,
            1729.0
          ],
          [
            9.685474,
            46.761092,
            1733.0
          ],
          [
            9.685671,
            46.761061,
            1735.0
          ],
          [
            9.685824,
            46.760988,
            1736.0
          ],
          [
            9.685977,
            46.760938,
            1738.0
          ],
          [
            9.686157,
            46.760932,
            1740.0
          ],
          [
            9.686327,
            46.760895,
            1744.0
          ],
          [
            9.686273,
            46.760833,
            1747.0
          ],
          [
            9.686147,
            46.760729,
            1751.0
          ],
          [
            9.685985,
            46.76063,
            1755.0
          ],
          [
            9.685797,
            46.760581,
            1758.0
          ],
          [
            9.685635,
            46.76055,
            1761.0
          ],
          [
            9.685581,
            46.760532,
            1762.0
          ],
          [
            9.685455,
            46.760446,
            1765.0
          ],
          [
            9.685268,
            46.760329,
            1769.0
          ],
          [
            9.685339,
            46.760304,
            1770.0
          ],
          [
            9.685419,
            46.760279,
            1771.0
          ],
          [
            9.685698,
            46.760237,
            1775.0
          ],
          [
            9.685923,
            46.760187,
            1779.0
          ],
          [
            9.686094,
            46.760157,
            1782.0
          ],
          [
            9.686228,
            46.760169,
            1786.0
          ],
          [
            9.686273,
            46.760107,
            1788.0
          ],
          [
            9.686157,
            46.760009,
            1792.0
          ],
          [
            9.686013,
            46.759911,
            1795.0
          ],
          [
            9.685895,
            46.75983,
            1797.0
          ],
          [
            9.685815,
            46.759775,
            1799.0
          ],
          [
            9.685797,
            46.759695,
            1801.0
          ],
          [
            9.685868,
            46.759634,
            1803.0
          ],
          [
            9.686201,
            46.759671,
            1809.0
          ],
          [
            9.686327,
            46.759677,
            1812.0
          ],
          [
            9.686587,
            46.759701,
            1818.0
          ],
          [
            9.686723,
            46.759707,
            1821.0
          ],
          [
            9.686965,
            46.759714,
            1825.0
          ],
          [
            9.687289,
            46.759627,
            1831.0
          ],
          [
            9.687316,
            46.759559,
            1835.0
          ],
          [
            9.687405,
            46.759473,
            1841.0
          ],
          [
            9.687513,
            46.759381,
            1846.0
          ],
          [
            9.687692,
            46.75927,
            1854.0
          ],
          [
            9.687836,
            46.759313,
            1860.0
          ],
          [
            9.687926,
            46.759369,
            1863.0
          ],
          [
            9.687979,
            46.759449,
            1867.0
          ],
          [
            9.688025,
            46.759461,
            1868.0
          ],
          [
            9.688124,
            46.759363,
            1872.0
          ],
          [
            9.688321,
            46.759522,
            1877.0
          ],
          [
            9.688447,
            46.759584,
            1880.0
          ],
          [
            9.688582,
            46.759615,
            1883.0
          ],
          [
            9.688807,
            46.759695,
            1888.0
          ],
          [
            9.689147,
            46.759701,
            1897.0
          ],
          [
            9.689327,
            46.759744,
            1902.0
          ],
          [
            9.689463,
            46.759799,
            1906.0
          ],
          [
            9.689642,
            46.759861,
            1911.0
          ],
          [
            9.68974,
            46.759861,
            1914.0
          ],
          [
            9.690029,
            46.759849,
            1922.0
          ],
          [
            9.690379,
            46.759867,
            1932.0
          ],
          [
            9.690595,
            46.759966,
            1941.0
          ],
          [
            9.690666,
            46.760045,
            1945.0
          ],
          [
            9.690899,
            46.760113,
            1951.0
          ],
          [
            9.691088,
            46.760089,
            1953.0
          ],
          [
            9.691268,
            46.760021,
            1956.0
          ],
          [
            9.691411,
            46.759978,
            1957.0
          ],
          [
            9.691484,
            46.759923,
            1959.0
          ],
          [
            9.691618,
            46.759836,
            1962.0
          ],
          [
            9.691645,
            46.75975,
            1964.0
          ],
          [
            9.691627,
            46.759664,
            1967.0
          ],
          [
            9.691618,
            46.759566,
            1970.0
          ],
          [
            9.691618,
            46.759449,
            1972.0
          ],
          [
            9.69169,
            46.759357,
            1975.0
          ],
          [
            9.691717,
            46.759227,
            1978.0
          ],
          [
            9.69178,
            46.759172,
            1979.0
          ],
          [
            9.691906,
            46.759092,
            1981.0
          ],
          [
            9.692004,
            46.759042,
            1983.0
          ],
          [
            9.692184,
            46.758914,
            1985.0
          ],
          [
            9.692337,
            46.758803,
            1988.0
          ],
          [
            9.692426,
            46.758704,
            1990.0
          ],
          [
            9.692526,
            46.758631,
            1992.0
          ],
          [
            9.692669,
            46.758513,
            1996.0
          ],
          [
            9.692777,
            46.758433,
            1999.0
          ],
          [
            9.69275,
            46.758384,
            2000.0
          ],
          [
            9.692849,
            46.758317,
            2002.0
          ],
          [
            9.692831,
            46.758236,
            2003.0
          ],
          [
            9.692849,
            46.75807,
            2005.0
          ],
          [
            9.692876,
            46.757886,
            2008.0
          ],
          [
            9.692893,
            46.757744,
            2010.0
          ],
          [
            9.692983,
            46.757591,
            2010.0
          ],
          [
            9.693118,
            46.757473,
            2010.0
          ],
          [
            9.693208,
            46.757338,
            2010.0
          ],
          [
            9.693289,
            46.757314,
            2010.0
          ],
          [
            9.693325,
            46.757301,
            2010.0
          ],
          [
            9.693397,
            46.757276,
            2010.0
          ],
          [
            9.693369,
            46.757178,
            2012.0
          ],
          [
            9.693459,
            46.757129,
            2013.0
          ],
          [
            9.693478,
            46.757067,
            2014.0
          ],
          [
            9.693442,
            46.756981,
            2016.0
          ],
          [
            9.693415,
            46.756858,
            2018.0
          ],
          [
            9.693397,
            46.756784,
            2020.0
          ],
          [
            9.693325,
            46.756741,
            2021.0
          ],
          [
            9.693289,
            46.756648,
            2023.0
          ],
          [
            9.693208,
            46.756538,
            2027.0
          ],
          [
            9.69319,
            46.756464,
            2029.0
          ],
          [
            9.693145,
            46.756396,
            2031.0
          ],
          [
            9.693073,
            46.756261,
            2036.0
          ],
          [
            9.693271,
            46.756255,
            2040.0
          ],
          [
            9.693388,
            46.756335,
            2044.0
          ],
          [
            9.693451,
            46.756371,
            2045.0
          ],
          [
            9.693694,
            46.756408,
            2050.0
          ],
          [
            9.693828,
            46.756408,
            2052.0
          ],
          [
            9.693874,
            46.756365,
            2054.0
          ],
          [
            9.69408,
            46.75631,
            2058.0
          ],
          [
            9.694025,
            46.756249,
            2060.0
          ],
          [
            9.69408,
            46.756224,
            2062.0
          ],
          [
            9.694034,
            46.756156,
            2064.0
          ],
          [
            9.693918,
            46.756125,
            2067.0
          ],
          [
            9.693738,
            46.755879,
            2077.0
          ],
          [
            9.693639,
            46.755824,
            2080.0
          ],
          [
            9.693459,
            46.7558,
            2084.0
          ],
          [
            9.693379,
            46.755756,
            2086.0
          ],
          [
            9.693298,
            46.755744,
            2088.0
          ],
          [
            9.693342,
            46.75567,
            2090.0
          ],
          [
            9.693784,
            46.755492,
            2101.0
          ],
          [
            9.693765,
            46.755442,
            2103.0
          ],
          [
            9.693684,
            46.755455,
            2104.0
          ],
          [
            9.693558,
            46.755442,
            2107.0
          ],
          [
            9.693532,
            46.755387,
            2109.0
          ],
          [
            9.693459,
            46.755295,
            2112.0
          ],
          [
            9.693424,
            46.755221,
            2114.0
          ],
          [
            9.693405,
            46.755097,
            2118.0
          ],
          [
            9.693388,
            46.754975,
            2122.0
          ],
          [
            9.693487,
            46.754956,
            2124.0
          ],
          [
            9.693675,
            46.754907,
            2128.0
          ],
          [
            9.693828,
            46.754901,
            2132.0
          ],
          [
            9.693935,
            46.754962,
            2135.0
          ],
          [
            9.693998,
            46.754969,
            2136.0
          ],
          [
            9.694151,
            46.754827,
            2143.0
          ],
          [
            9.694277,
            46.754747,
            2149.0
          ],
          [
            9.694421,
            46.75471,
            2154.0
          ],
          [
            9.694726,
            46.75471,
            2162.0
          ],
          [
            9.694977,
            46.754735,
            2166.0
          ],
          [
            9.695212,
            46.754655,
            2171.0
          ],
          [
            9.695239,
            46.754574,
            2173.0
          ],
          [
            9.695292,
            46.75455,
            2174.0
          ],
          [
            9.695346,
            46.754458,
            2176.0
          ],
          [
            9.6954,
            46.754297,
            2180.0
          ],
          [
            9.6954,
            46.754218,
            2182.0
          ],
          [
            9.695445,
            46.754212,
            2183.0
          ],
          [
            9.695508,
            46.754279,
            2186.0
          ],
          [
            9.695571,
            46.754365,
            2189.0
          ],
          [
            9.695616,
            46.754316,
            2190.0
          ],
          [
            9.695723,
            46.754255,
            2192.0
          ],
          [
            9.695795,
            46.754199,
            2193.0
          ],
          [
            9.695849,
            46.75423,
            2193.0
          ],
          [
            9.695939,
            46.754212,
            2194.0
          ],
          [
            9.696109,
            46.754156,
            2196.0
          ],
          [
            9.696281,
            46.754113,
            2198.0
          ],
          [
            9.696424,
            46.754113,
            2200.0
          ],
          [
            9.696558,
            46.754138,
            2202.0
          ],
          [
            9.696703,
            46.754181,
            2204.0
          ],
          [
            9.696784,
            46.754175,
            2205.0
          ],
          [
            9.696918,
            46.754088,
            2207.0
          ],
          [
            9.697061,
            46.754119,
            2209.0
          ],
          [
            9.69725,
            46.754088,
            2212.0
          ],
          [
            9.69752,
            46.754101,
            2214.0
          ],
          [
            9.69769,
            46.754076,
            2216.0
          ],
          [
            9.697816,
            46.754033,
            2218.0
          ],
          [
            9.697942,
            46.753922,
            2220.0
          ],
          [
            9.69805,
            46.753848,
            2221.0
          ],
          [
            9.698185,
            46.75378,
            2222.0
          ],
          [
            9.698329,
            46.753732,
            2223.0
          ],
          [
            9.698428,
            46.753719,
            2224.0
          ],
          [
            9.698625,
            46.753664,
            2226.0
          ],
          [
            9.698858,
            46.75359,
            2228.0
          ],
          [
            9.698958,
            46.753559,
            2228.0
          ],
          [
            9.6992,
            46.75351,
            2230.0
          ],
          [
            9.699281,
            46.753436,
            2232.0
          ],
          [
            9.699443,
            46.753412,
            2234.0
          ],
          [
            9.699621,
            46.75335,
            2237.0
          ],
          [
            9.699757,
            46.753331,
            2239.0
          ],
          [
            9.700063,
            46.753325,
            2244.0
          ],
          [
            9.700269,
            46.753263,
            2247.0
          ],
          [
            9.700493,
            46.753196,
            2251.0
          ],
          [
            9.700619,
            46.753128,
            2254.0
          ],
          [
            9.700727,
            46.753048,
            2256.0
          ],
          [
            9.700925,
            46.753023,
            2260.0
          ],
          [
            9.701122,
            46.752968,
            2262.0
          ],
          [
            9.701258,
            46.752925,
            2264.0
          ],
          [
            9.701329,
            46.752876,
            2265.0
          ],
          [
            9.701428,
            46.752777,
            2267.0
          ],
          [
            9.701527,
            46.752642,
            2270.0
          ],
          [
            9.701625,
            46.752537,
            2270.0
          ],
          [
            9.701581,
            46.75239,
            2270.0
          ],
          [
            9.701581,
            46.752316,
            2270.0
          ],
          [
            9.701562,
            46.752223,
            2270.0
          ],
          [
            9.701365,
            46.752156,
            2270.0
          ],
          [
            9.701365,
            46.752156,
            2270.0
          ],
          [
            9.701562,
            46.752223,
            2270.0
          ],
          [
            9.701581,
            46.752316,
            2270.0
          ],
          [
            9.701581,
            46.75239,
            2270.0
          ],
          [
            9.701625,
            46.752537,
            2270.0
          ],
          [
            9.701527,
            46.752642,
            2270.0
          ],
          [
            9.701428,
            46.752777,
            2267.0
          ],
          [
            9.701329,
            46.752876,
            2265.0
          ],
          [
            9.701258,
            46.752925,
            2264.0
          ],
          [
            9.701122,
            46.752968,
            2262.0
          ],
          [
            9.700925,
            46.753023,
            2260.0
          ],
          [
            9.700727,
            46.753048,
            2256.0
          ],
          [
            9.700619,
            46.753128,
            2254.0
          ],
          [
            9.700493,
            46.753196,
            2251.0
          ],
          [
            9.700269,
            46.753263,
            2247.0
          ],
          [
            9.700063,
            46.753325,
            2244.0
          ],
          [
            9.699757,
            46.753331,
            2239.0
          ],
          [
            9.699621,
            46.75335,
            2237.0
          ],
          [
            9.699443,
            46.753412,
            2234.0
          ],
          [
            9.699281,
            46.753436,
            2232.0
          ],
          [
            9.6992,
            46.75351,
            2230.0
          ],
          [
            9.698958,
            46.753559,
            2228.0
          ],
          [
            9.698858,
            46.75359,
            2228.0
          ],
          [
            9.698625,
            46.753664,
            2226.0
          ],
          [
            9.698428,
            46.753719,
            2224.0
          ],
          [
            9.698329,
            46.753732,
            2223.0
          ],
          [
            9.698185,
            46.75378,
            2222.0
          ],
          [
            9.69805,
            46.753848,
            2221.0
          ],
          [
            9.697942,
            46.753922,
            2220.0
          ],
          [
            9.697816,
            46.754033,
            2218.0
          ],
          [
            9.69769,
            46.754076,
            2216.0
          ],
          [
            9.69752,
            46.754101,
            2214.0
          ],
          [
            9.69725,
            46.754088,
            2212.0
          ],
          [
            9.697061,
            46.754119,
            2209.0
          ],
          [
            9.696918,
            46.754088,
            2207.0
          ],
          [
            9.696784,
            46.754175,
            2205.0
          ],
          [
            9.696703,
            46.754181,
            2204.0
          ],
          [
            9.696558,
            46.754138,
            2202.0
          ],
          [
            9.696424,
            46.754113,
            2200.0
          ],
          [
            9.696281,
            46.754113,
            2198.0
          ],
          [
            9.696109,
            46.754156,
            2196.0
          ],
          [
            9.695939,
            46.754212,
            2194.0
          ],
          [
            9.695849,
            46.75423,
            2193.0
          ],
          [
            9.695795,
            46.754199,
            2193.0
          ],
          [
            9.695723,
            46.754255,
            2192.0
          ],
          [
            9.695616,
            46.754316,
            2190.0
          ],
          [
            9.695571,
            46.754365,
            2189.0
          ],
          [
            9.695508,
            46.754279,
            2186.0
          ],
          [
            9.695445,
            46.754212,
            2183.0
          ],
          [
            9.6954,
            46.754218,
            2182.0
          ],
          [
            9.6954,
            46.754297,
            2180.0
          ],
          [
            9.695346,
            46.754458,
            2176.0
          ],
          [
            9.695292,
            46.75455,
            2174.0
          ],
          [
            9.695239,
            46.754574,
            2173.0
          ],
          [
            9.695212,
            46.754655,
            2171.0
          ],
          [
            9.694977,
            46.754735,
            2166.0
          ],
          [
            9.694726,
            46.75471,
            2162.0
          ],
          [
            9.694421,
            46.75471,
            2154.0
          ],
          [
            9.694277,
            46.754747,
            2149.0
          ],
          [
            9.694151,
            46.754827,
            2143.0
          ],
          [
            9.693998,
            46.754969,
            2136.0
          ],
          [
            9.693935,
            46.754962,
            2135.0
          ],
          [
            9.693828,
            46.754901,
            2132.0
          ],
          [
            9.693675,
            46.754907,
            2128.0
          ],
          [
            9.693487,
            46.754956,
            2124.0
          ],
          [
            9.693388,
            46.754975,
            2122.0
          ],
          [
            9.693405,
            46.755097,
            2118.0
          ],
          [
            9.693424,
            46.755221,
            2114.0
          ],
          [
            9.693459,
            46.755295,
            2112.0
          ],
          [
            9.693532,
            46.755387,
            2109.0
          ],
          [
            9.693558,
            46.755442,
            2107.0
          ],
          [
            9.693684,
            46.755455,
            2104.0
          ],
          [
            9.693765,
            46.755442,
            2103.0
          ],
          [
            9.693784,
            46.755492,
            2101.0
          ],
          [
            9.693342,
            46.75567,
            2090.0
          ],
          [
            9.693298,
            46.755744,
            2088.0
          ],
          [
            9.693379,
            46.755756,
            2086.0
          ],
          [
            9.693459,
            46.7558,
            2084.0
          ],
          [
            9.693639,
            46.755824,
            2080.0
          ],
          [
            9.693738,
            46.755879,
            2077.0
          ],
          [
            9.693918,
            46.756125,
            2067.0
          ],
          [
            9.694034,
            46.756156,
            2064.0
          ],
          [
            9.69408,
            46.756224,
            2062.0
          ],
          [
            9.694025,
            46.756249,
            2060.0
          ],
          [
            9.69408,
            46.75631,
            2058.0
          ],
          [
            9.693874,
            46.756365,
            2054.0
          ],
          [
            9.693828,
            46.756408,
            2052.0
          ],
          [
            9.693694,
            46.756408,
            2050.0
          ],
          [
            9.693451,
            46.756371,
            2045.0
          ],
          [
            9.693388,
            46.756335,
            2044.0
          ],
          [
            9.693271,
            46.756255,
            2040.0
          ],
          [
            9.693073,
            46.756261,
            2036.0
          ],
          [
            9.693145,
            46.756396,
            2031.0
          ],
          [
            9.69319,
            46.756464,
            2029.0
          ],
          [
            9.693208,
            46.756538,
            2027.0
          ],
          [
            9.693289,
            46.756648,
            2023.0
          ],
          [
            9.693325,
            46.756741,
            2021.0
          ],
          [
            9.693397,
            46.756784,
            2020.0
          ],
          [
            9.693415,
            46.756858,
            2018.0
          ],
          [
            9.693442,
            46.756981,
            2016.0
          ],
          [
            9.693478,
            46.757067,
            2014.0
          ],
          [
            9.693459,
            46.757129,
            2013.0
          ],
          [
            9.693369,
            46.757178,
            2012.0
          ],
          [
            9.693397,
            46.757276,
            2010.0
          ],
          [
            9.693325,
            46.757301,
            2010.0
          ],
          [
            9.693289,
            46.757314,
            2010.0
          ],
          [
            9.693208,
            46.757338,
            2010.0
          ],
          [
            9.693118,
            46.757473,
            2010.0
          ],
          [
            9.692983,
            46.757591,
            2010.0
          ],
          [
            9.692893,
            46.757744,
            2010.0
          ],
          [
            9.692876,
            46.757886,
            2008.0
          ],
          [
            9.692849,
            46.75807,
            2005.0
          ],
          [
            9.692831,
            46.758236,
            2003.0
          ],
          [
            9.692849,
            46.758317,
            2002.0
          ],
          [
            9.69275,
            46.758384,
            2000.0
          ],
          [
            9.692777,
            46.758433,
            1999.0
          ],
          [
            9.692669,
            46.758513,
            1996.0
          ],
          [
            9.692526,
            46.758631,
            1992.0
          ],
          [
            9.692426,
            46.758704,
            1990.0
          ],
          [
            9.692337,
            46.758803,
            1988.0
          ],
          [
            9.692184,
            46.758914,
            1985.0
          ],
          [
            9.692004,
            46.759042,
            1983.0
          ],
          [
            9.691906,
            46.759092,
            1981.0
          ],
          [
            9.69178,
            46.759172,
            1979.0
          ],
          [
            9.691717,
            46.759227,
            1978.0
          ],
          [
            9.69169,
            46.759357,
            1975.0
          ],
          [
            9.691618,
            46.759449,
            1972.0
          ],
          [
            9.691618,
            46.759566,
            1970.0
          ],
          [
            9.691627,
            46.759664,
            1967.0
          ],
          [
            9.691645,
            46.75975,
            1964.0
          ],
          [
            9.691618,
            46.759836,
            1962.0
          ],
          [
            9.691484,
            46.759923,
            1959.0
          ],
          [
            9.691411,
            46.759978,
            1957.0
          ],
          [
            9.691268,
            46.760021,
            1956.0
          ],
          [
            9.691088,
            46.760089,
            1953.0
          ],
          [
            9.690899,
            46.760113,
            1951.0
          ],
          [
            9.690666,
            46.760045,
            1945.0
          ],
          [
            9.690595,
            46.759966,
            1941.0
          ],
          [
            9.690379,
            46.759867,
            1932.0
          ],
          [
            9.690029,
            46.759849,
            1922.0
          ],
          [
            9.68974,
            46.759861,
            1914.0
          ],
          [
            9.689642,
            46.759861,
            1911.0
          ],
          [
            9.689463,
            46.759799,
            1906.0
          ],
          [
            9.689327,
            46.759744,
            1902.0
          ],
          [
            9.689147,
            46.759701,
            1897.0
          ],
          [
            9.688807,
            46.759695,
            1888.0
          ],
          [
            9.688582,
            46.759615,
            1883.0
          ],
          [
            9.688447,
            46.759584,
            1880.0
          ],
          [
            9.688321,
            46.759522,
            1877.0
          ],
          [
            9.688124,
            46.759363,
            1872.0
          ],
          [
            9.688025,
            46.759461,
            1868.0
          ],
          [
            9.687979,
            46.759449,
            1867.0
          ],
          [
            9.687926,
            46.759369,
            1863.0
          ],
          [
            9.687836,
            46.759313,
            1860.0
          ],
          [
            9.687692,
            46.75927,
            1854.0
          ],
          [
            9.687513,
            46.759381,
            1846.0
          ],
          [
            9.687405,
            46.759473,
            1841.0
          ],
          [
            9.687316,
            46.759559,
            1835.0
          ],
          [
            9.687289,
            46.759627,
            1831.0
          ],
          [
            9.686965,
            46.759714,
            1825.0
          ],
          [
            9.686723,
            46.759707,
            1821.0
          ],
          [
            9.686587,
            46.759701,
            1818.0
          ],
          [
            9.686327,
            46.759677,
            1812.0
          ],
          [
            9.686201,
            46.759671,
            1809.0
          ],
          [
            9.685868,
            46.759634,
            1803.0
          ],
          [
            9.685797,
            46.759695,
            1801.0
          ],
          [
            9.685815,
            46.759775,
            1799.0
          ],
          [
            9.685895,
            46.75983,
            1797.0
          ],
          [
            9.686013,
            46.759911,
            1795.0
          ],
          [
            9.686157,
            46.760009,
            1792.0
          ],
          [
            9.686273,
            46.760107,
            1788.0
          ],
          [
            9.686228,
            46.760169,
            1786.0
          ],
          [
            9.686094,
            46.760157,
            1782.0
          ],
          [
            9.685923,
            46.760187,
            1779.0
          ],
          [
            9.685698,
            46.760237,
            1775.0
          ],
          [
            9.685419,
            46.760279,
            1771.0
          ],
          [
            9.685339,
            46.760304,
            1770.0
          ],
          [
            9.685268,
            46.760329,
            1769.0
          ],
          [
            9.685455,
            46.760446,
            1765.0
          ],
          [
            9.685581,
            46.760532,
            1762.0
          ],
          [
            9.685635,
            46.76055,
            1761.0
          ],
          [
            9.685797,
            46.760581,
            1758.0
          ],
          [
            9.685985,
            46.76063,
            1755.0
          ],
          [
            9.686147,
            46.760729,
            1751.0
          ],
          [
            9.686273,
            46.760833,
            1747.0
          ],
          [
            9.686327,
            46.760895,
            1744.0
          ],
          [
            9.686157,
            46.760932,
            1740.0
          ],
          [
            9.685977,
            46.760938,
            1738.0
          ],
          [
            9.685824,
            46.760988,
            1736.0
          ],
          [
            9.685671,
            46.761061,
            1735.0
          ],
          [
            9.685474,
            46.761092,
            1733.0
          ],
          [
            9.685159,
            46.761153,
            1729.0
          ],
          [
            9.685033,
            46.761215,
            1726.0
          ],
          [
            9.685061,
            46.761271,
            1724.0
          ],
          [
            9.684979,
            46.761338,
            1722.0
          ],
          [
            9.684916,
            46.761344,
            1720.0
          ],
          [
            9.684863,
            46.761467,
            1716.0
          ],
          [
            9.684792,
            46.76148,
            1714.0
          ],
          [
            9.684729,
            46.761547,
            1712.0
          ],
          [
            9.684647,
            46.761572,
            1710.0
          ],
          [
            9.684602,
            46.761627,
            1708.0
          ],
          [
            9.684666,
            46.761639,
            1707.0
          ],
          [
            9.684683,
            46.761664,
            1706.0
          ],
          [
            9.684576,
            46.761707,
            1704.0
          ],
          [
            9.684647,
            46.761757,
            1702.0
          ],
          [
            9.684755,
            46.761836,
            1699.0
          ],
          [
            9.684836,
            46.761892,
            1697.0
          ],
          [
            9.684836,
            46.761978,
            1696.0
          ],
          [
            9.685042,
            46.762083,
            1692.0
          ],
          [
            9.685105,
            46.762119,
            1690.0
          ],
          [
            9.685168,
            46.762243,
            1687.0
          ],
          [
            9.685222,
            46.762353,
            1684.0
          ],
          [
            9.685339,
            46.762452,
            1680.0
          ],
          [
            9.685392,
            46.762618,
            1678.0
          ],
          [
            9.685528,
            46.762784,
            1676.0
          ],
          [
            9.685618,
            46.762834,
            1675.0
          ],
          [
            9.685716,
            46.763006,
            1672.0
          ],
          [
            9.685914,
            46.763129,
            1670.0
          ],
          [
            9.686103,
            46.76327,
            1668.0
          ],
          [
            9.68622,
            46.763344,
            1666.0
          ],
          [
            9.6863,
            46.763461,
            1665.0
          ],
          [
            9.68639,
            46.763498,
            1664.0
          ],
          [
            9.686489,
            46.763683,
            1661.0
          ],
          [
            9.686624,
            46.763719,
            1660.0
          ],
          [
            9.686677,
            46.763886,
            1660.0
          ],
          [
            9.686803,
            46.764046,
            1660.0
          ],
          [
            9.68692,
            46.7642,
            1660.0
          ],
          [
            9.687073,
            46.764316,
            1660.0
          ],
          [
            9.687207,
            46.764322,
            1660.0
          ],
          [
            9.687243,
            46.764409,
            1660.0
          ],
          [
            9.687145,
            46.764519,
            1660.0
          ],
          [
            9.687117,
            46.764784,
            1660.0
          ],
          [
            9.6871,
            46.764901,
            1660.0
          ],
          [
            9.687019,
            46.765061,
            1659.0
          ],
          [
            9.686902,
            46.76519,
            1657.0
          ],
          [
            9.686794,
            46.765209,
            1656.0
          ],
          [
            9.686731,
            46.765313,
            1655.0
          ],
          [
            9.686731,
            46.765331,
            1655.0
          ],
          [
            9.686713,
            46.765344,
            1655.0
          ],
          [
            9.68657,
            46.765492,
            1657.0
          ],
          [
            9.686534,
            46.765608,
            1658.0
          ],
          [
            9.686408,
            46.765707,
            1659.0
          ],
          [
            9.686327,
            46.765757,
            1660.0
          ],
          [
            9.686327,
            46.765775,
            1660.0
          ],
          [
            9.68631,
            46.76583,
            1659.0
          ],
          [
            9.6863,
            46.765867,
            1659.0
          ],
          [
            9.6863,
            46.765959,
            1658.0
          ],
          [
            9.686291,
            46.766021,
            1657.0
          ],
          [
            9.686237,
            46.76615,
            1656.0
          ],
          [
            9.68621,
            46.766249,
            1655.0
          ],
          [
            9.686067,
            46.766489,
            1653.0
          ],
          [
            9.686013,
            46.766716,
            1651.0
          ],
          [
            9.686021,
            46.766833,
            1650.0
          ],
          [
            9.686067,
            46.766987,
            1650.0
          ],
          [
            9.686193,
            46.76719,
            1650.0
          ],
          [
            9.686247,
            46.767264,
            1650.0
          ],
          [
            9.68631,
            46.767326,
            1650.0
          ],
          [
            9.68631,
            46.767411,
            1650.0
          ],
          [
            9.686345,
            46.767645,
            1650.0
          ],
          [
            9.686111,
            46.767707,
            1650.0
          ],
          [
            9.685725,
            46.767774,
            1650.0
          ],
          [
            9.685689,
            46.767812,
            1650.0
          ],
          [
            9.685725,
            46.767965,
            1648.0
          ],
          [
            9.685788,
            46.768175,
            1644.0
          ],
          [
            9.685887,
            46.768334,
            1642.0
          ],
          [
            9.685842,
            46.768421,
            1640.0
          ],
          [
            9.685771,
            46.768525,
            1640.0
          ],
          [
            9.685618,
            46.768648,
            1639.0
          ],
          [
            9.685482,
            46.768661,
            1638.0
          ],
          [
            9.685411,
            46.768722,
            1638.0
          ],
          [
            9.685366,
            46.76887,
            1638.0
          ],
          [
            9.685195,
            46.769023,
            1637.0
          ],
          [
            9.685205,
            46.769343,
            1635.0
          ],
          [
            9.685142,
            46.769516,
            1635.0
          ],
          [
            9.685178,
            46.769651,
            1634.0
          ],
          [
            9.685186,
            46.769854,
            1633.0
          ],
          [
            9.685178,
            46.770088,
            1632.0
          ],
          [
            9.685052,
            46.77055,
            1630.0
          ],
          [
            9.684989,
            46.770808,
            1629.0
          ],
          [
            9.684889,
            46.771011,
            1629.0
          ],
          [
            9.6848,
            46.771177,
            1628.0
          ],
          [
            9.684746,
            46.771374,
            1628.0
          ],
          [
            9.684666,
            46.771682,
            1627.0
          ],
          [
            9.684539,
            46.772026,
            1625.0
          ],
          [
            9.684585,
            46.772284,
            1625.0
          ],
          [
            9.684566,
            46.77258,
            1624.0
          ],
          [
            9.684377,
            46.772838,
            1623.0
          ],
          [
            9.68409,
            46.7733,
            1621.0
          ],
          [
            9.683929,
            46.773503,
            1620.0
          ],
          [
            9.68383,
            46.773823,
            1620.0
          ],
          [
            9.683839,
            46.774081,
            1620.0
          ],
          [
            9.683784,
            46.77426,
            1620.0
          ],
          [
            9.68374,
            46.774364,
            1620.0
          ],
          [
            9.683318,
            46.775237,
            1620.0
          ],
          [
            9.683237,
            46.775287,
            1620.0
          ],
          [
            9.682931,
            46.775311,
            1620.0
          ],
          [
            9.682905,
            46.775386,
            1620.0
          ],
          [
            9.682868,
            46.775453,
            1620.0
          ],
          [
            9.682815,
            46.775539,
            1620.0
          ],
          [
            9.682779,
            46.77557,
            1620.0
          ],
          [
            9.682716,
            46.775601,
            1620.0
          ],
          [
            9.682176,
            46.775761,
            1622.0
          ],
          [
            9.68206,
            46.775761,
            1623.0
          ],
          [
            9.681926,
            46.775754,
            1624.0
          ],
          [
            9.681989,
            46.775797,
            1625.0
          ],
          [
            9.68206,
            46.77581,
            1626.0
          ],
          [
            9.682105,
            46.775884,
            1627.0
          ],
          [
            9.682186,
            46.775915,
            1629.0
          ],
          [
            9.682258,
            46.776019,
            1632.0
          ],
          [
            9.682285,
            46.776198,
            1639.0
          ],
          [
            9.682266,
            46.776332,
            1646.0
          ],
          [
            9.682302,
            46.776363,
            1646.0
          ],
          [
            9.682392,
            46.776456,
            1648.0
          ],
          [
            9.682465,
            46.776481,
            1649.0
          ],
          [
            9.682563,
            46.776493,
            1650.0
          ],
          [
            9.682635,
            46.776487,
            1650.0
          ],
          [
            9.682716,
            46.776499,
            1651.0
          ],
          [
            9.682805,
            46.776554,
            1652.0
          ],
          [
            9.682895,
            46.776603,
            1653.0
          ],
          [
            9.682994,
            46.776634,
            1654.0
          ],
          [
            9.683138,
            46.77669,
            1656.0
          ],
          [
            9.683174,
            46.776714,
            1656.0
          ],
          [
            9.683174,
            46.776757,
            1657.0
          ],
          [
            9.683165,
            46.776776,
            1657.0
          ],
          [
            9.683121,
            46.776801,
            1657.0
          ],
          [
            9.683066,
            46.776807,
            1658.0
          ],
          [
            9.682994,
            46.776807,
            1659.0
          ],
          [
            9.6825,
            46.776782,
            1663.0
          ],
          [
            9.682276,
            46.776739,
            1665.0
          ],
          [
            9.682042,
            46.77669,
            1667.0
          ],
          [
            9.681989,
            46.776683,
            1667.0
          ],
          [
            9.681934,
            46.776683,
            1668.0
          ],
          [
            9.681899,
            46.776702,
            1668.0
          ],
          [
            9.681872,
            46.776733,
            1669.0
          ],
          [
            9.68188,
            46.776764,
            1669.0
          ],
          [
            9.681899,
            46.776801,
            1670.0
          ],
          [
            9.681962,
            46.776831,
            1670.0
          ],
          [
            9.682203,
            46.776929,
            1673.0
          ],
          [
            9.682339,
            46.776991,
            1674.0
          ],
          [
            9.682473,
            46.777096,
            1676.0
          ],
          [
            9.682769,
            46.777336,
            1680.0
          ],
          [
            9.682922,
            46.777409,
            1681.0
          ],
          [
            9.683147,
            46.777508,
            1683.0
          ],
          [
            9.683371,
            46.777613,
            1684.0
          ],
          [
            9.683425,
            46.777662,
            1685.0
          ],
          [
            9.683461,
            46.777711,
            1685.0
          ],
          [
            9.683461,
            46.777741,
            1685.0
          ],
          [
            9.68348,
            46.777791,
            1686.0
          ],
          [
            9.683542,
            46.777834,
            1686.0
          ],
          [
            9.683767,
            46.777902,
            1688.0
          ],
          [
            9.683901,
            46.777957,
            1689.0
          ],
          [
            9.683973,
            46.777987,
            1689.0
          ],
          [
            9.684,
            46.778037,
            1690.0
          ],
          [
            9.683956,
            46.778209,
            1691.0
          ],
          [
            9.683901,
            46.778394,
            1692.0
          ],
          [
            9.683874,
            46.778455,
            1692.0
          ],
          [
            9.683839,
            46.778584,
            1693.0
          ],
          [
            9.683803,
            46.778769,
            1694.0
          ],
          [
            9.683794,
            46.778886,
            1694.0
          ],
          [
            9.683542,
            46.779058,
            1696.0
          ],
          [
            9.683264,
            46.779218,
            1697.0
          ],
          [
            9.682842,
            46.77963,
            1700.0
          ],
          [
            9.682716,
            46.779723,
            1701.0
          ],
          [
            9.682492,
            46.779852,
            1703.0
          ],
          [
            9.681997,
            46.780116,
            1707.0
          ],
          [
            9.681863,
            46.780202,
            1709.0
          ],
          [
            9.681719,
            46.78035,
            1710.0
          ],
          [
            9.681539,
            46.780516,
            1712.0
          ],
          [
            9.681071,
            46.780855,
            1717.0
          ],
          [
            9.680884,
            46.780959,
            1718.0
          ],
          [
            9.680784,
            46.780996,
            1719.0
          ],
          [
            9.680721,
            46.781014,
            1720.0
          ],
          [
            9.680677,
            46.781026,
            1720.0
          ],
          [
            9.680614,
            46.781026,
            1720.0
          ],
          [
            9.68056,
            46.781008,
            1721.0
          ],
          [
            9.680461,
            46.780959,
            1722.0
          ],
          [
            9.680407,
            46.780941,
            1723.0
          ],
          [
            9.680362,
            46.780934,
            1723.0
          ],
          [
            9.680326,
            46.780947,
            1723.0
          ],
          [
            9.680299,
            46.780959,
            1724.0
          ],
          [
            9.680281,
            46.780983,
            1724.0
          ],
          [
            9.680272,
            46.781008,
            1724.0
          ],
          [
            9.680272,
            46.781051,
            1725.0
          ],
          [
            9.680281,
            46.781125,
            1726.0
          ],
          [
            9.680281,
            46.781223,
            1727.0
          ],
          [
            9.680264,
            46.781285,
            1728.0
          ],
          [
            9.680228,
            46.781359,
            1729.0
          ],
          [
            9.680138,
            46.781506,
            1730.0
          ],
          [
            9.680002,
            46.78171,
            1732.0
          ],
          [
            9.679939,
            46.781789,
            1733.0
          ],
          [
            9.679922,
            46.781832,
            1734.0
          ],
          [
            9.679922,
            46.781906,
            1734.0
          ],
          [
            9.679939,
            46.781974,
            1735.0
          ],
          [
            9.679958,
            46.782029,
            1735.0
          ],
          [
            9.680021,
            46.782202,
            1737.0
          ],
          [
            9.680075,
            46.7823,
            1738.0
          ],
          [
            9.680102,
            46.782373,
            1738.0
          ],
          [
            9.680111,
            46.782454,
            1739.0
          ],
          [
            9.680039,
            46.782571,
            1739.0
          ],
          [
            9.679958,
            46.78265,
            1739.0
          ],
          [
            9.679913,
            46.782693,
            1739.0
          ],
          [
            9.679886,
            46.782731,
            1739.0
          ],
          [
            9.679815,
            46.782811,
            1739.0
          ],
          [
            9.679652,
            46.782995,
            1739.0
          ],
          [
            9.679581,
            46.783088,
            1739.0
          ],
          [
            9.679553,
            46.783155,
            1739.0
          ],
          [
            9.679536,
            46.783204,
            1739.0
          ],
          [
            9.679563,
            46.783555,
            1738.0
          ],
          [
            9.679446,
            46.783561,
            1739.0
          ],
          [
            9.679302,
            46.783573,
            1739.0
          ]
        ]
      }
    }
  ]
}