{
  "type": "FeatureCollection",
  "features": [
    {
      "type": "Feature",
      "properties": {},
      "geometry": {
        "type": "LineString",
        "coordinates": [
          [
            8.544937,
            47.386831,
            472.0
          ],
          [
            8.544901,
            47.386874,
            472.0
          ],
          [
            8.544847,
            47.386856,
            471.0
          ],
          [
            8.544865,
            47.386819,
            471.0
          ],
          [
            8.544865,
            47.386795,
            471.0
          ],
          [
            8.544855,
            47.386777,
            471.0
          ],
          [
            8.544829,
            47.386764,
            470.0
          ],
          [
            8.544066,
            47.386473,
            470.0
          ],
          [
            8.544029,
            47.386473,
            470.0
          ],
          [
            8.54402,
            47.38643,
            471.0
          ],
          [
            8.544012,
            47.3864,
            471.0
          ],
          [
            8.54402,
            47.386388,
            471.0
          ],
          [
            8.544192,
            47.385907,
            460.0
          ],
          [
            8.544182,
            47.385901,
            461.0
          ],
          [
            8.544192,
            47.385889,
            460.0
          ],
          [
            8.5442,
            47.385834,
            460.0
          ],
          [
            8.544137,
            47.385828,
            460.0
          ],
          [
            8.543769,
            47.385761,
            460.0
          ],
          [
            8.543733,
            47.385755,
            460.0
          ],
          [
            8.543697,
            47.385767,
            460.0
          ],
          [
            8.54367,
            47.385773,
            460.0
          ],
          [
            8.54366,
            47.385785,
            460.0
          ],
          [
            8.543599,
            47.385773,
            460.0
          ],
          [
            8.543536,
            47.385761,
            459.0
          ],
          [
            8.543526,
            47.385749,
            459.0
          ],
          [
            8.543517,
            47.385731,
            459.0
          ],
          [
            8.5435,
            47.385724,
            459.0
          ],
          [
            8.543473,
            47.385712,
            459.0
          ],
          [
            8.543454,
            47.385718,
            459.0
          ],
          [
            8.542915,
            47.385633,
            459.0
          ],
          [
            8.542484,
            47.385561,
            450.0
          ],
          [
            8.542421,
            47.385548,
            449.0
          ],
          [
            8.542385,
            47.385555,
            449.0
          ],
          [
            8.542368,
            47.385561,
            449.0
          ],
          [
            8.542349,
            47.385567,
            449.0
          ],
          [
            8.542341,
            47.385579,
            449.0
          ],
          [
            8.542295,
            47.385567,
            449.0
          ],
          [
            8.542232,
            47.385548,
            441.0
          ],
          [
            8.542232,
            47.385536,
            441.0
          ],
          [
            8.542232,
            47.385524,
            441.0
          ],
          [
            8.542232,
            47.385506,
            441.0
          ],
          [
            8.542215,
            47.3855,
            441.0
          ],
          [
            8.542205,
            47.385494,
            441.0
          ],
          [
            8.542107,
            47.385457,
            441.0
          ],
          [
            8.541811,
            47.385372,
            441.0
          ],
          [
            8.541766,
            47.38536,
            441.0
          ],
          [
            8.541729,
            47.38536,
            441.0
          ],
          [
            8.541685,
            47.385366,
            441.0
          ],
          [
            8.541666,
            47.385372,
            441.0
          ],
          [
            8.541649,
            47.38539,
            441.0
          ],
          [
            8.541586,
            47.38536,
            440.0
          ],
          [
            8.541542,
            47.385341,
            440.0
          ],
          [
            8.541605,
            47.385274,
            440.0
          ],
          [
            8.54137,
            47.385183,
            430.0
          ],
          [
            8.541605,
            47.384904,
            430.0
          ],
          [
            8.541666,
            47.384794,
            430.0
          ],
          [
            8.541873,
            47.384508,
            430.0
          ],
          [
            8.541819,
            47.384496,
            433.0
          ],
          [
            8.541775,
            47.384478,
            430.0
          ],
          [
            8.541855,
            47.384332,
            430.0
          ],
          [
            8.542008,
            47.384064,
            431.0
          ],
          [
            8.542053,
            47.383967,
            431.0
          ],
          [
            8.542062,
            47.383943,
            431.0
          ],
          [
            8.542053,
            47.383925,
            431.0
          ],
          [
            8.542044,
            47.383912,
            431.0
          ],
          [
            8.542026,
            47.3839,
            431.0
          ],
          [
            8.542008,
            47.383894,
            431.0
          ],
          [
            8.541559,
            47.383778,
            431.0
          ],
          [
            8.541496,
            47.38376,
            431.0
          ],
          [
            8.541442,
            47.383742,
            431.0
          ],
          [
            8.541389,
            47.383717,
            431.0
          ],
          [
            8.541343,
            47.383687,
            431.0
          ],
          [
            8.54128,
            47.383644,
            431.0
          ],
          [
            8.54119,
            47.38359,
            431.0
          ],
          [
            8.54102,
            47.383523,
            431.0
          ],
          [
            8.540984,
            47.383523,
            431.0
          ],
          [
            8.540984,
            47.383487,
            427.0
          ],
          [
            8.540984,
            47.383438,
            425.0
          ],
          [
            8.54101,
            47.383402,
            424.0
          ],
          [
            8.541002,
            47.383395,
            424.0
          ],
          [
            8.54093,
            47.383365,
            426.0
          ],
          [
            8.540876,
            47.383341,
            422.0
          ],
          [
            8.54085,
            47.383334,
            420.0
          ],
          [
            8.540876,
            47.38331,
            420.0
          ],
          [
            8.540867,
            47.38331,
            420.0
          ],
          [
            8.540823,
            47.383286,
            420.0
          ],
          [
            8.540796,
            47.383298,
            420.0
          ],
          [
            8.540796,
            47.38328,
            420.0
          ],
          [
            8.54066,
            47.383218,
            424.0
          ],
          [
            8.54049,
            47.383158,
            431.0
          ],
          [
            8.540454,
            47.383146,
            432.0
          ],
          [
            8.540481,
            47.383091,
            432.0
          ],
          [
            8.540454,
            47.383079,
            433.0
          ],
          [
            8.54041,
            47.383048,
            434.0
          ],
          [
            8.540383,
            47.38303,
            433.0
          ],
          [
            8.540373,
            47.383018,
            433.0
          ],
          [
            8.540355,
            47.383,
            433.0
          ],
          [
            8.540337,
            47.382976,
            431.0
          ],
          [
            8.540328,
            47.382951,
            430.0
          ],
          [
            8.540284,
            47.382951,
            430.0
          ],
          [
            8.540194,
            47.382866,
            431.0
          ],
          [
            8.540167,
            47.382836,
            431.0
          ],
          [
            8.540158,
            47.382793,
            423.0
          ],
          [
            8.54014,
            47.38272,
            409.0
          ],
          [
            8.540121,
            47.38272,
            409.0
          ],
          [
            8.539942,
            47.382726,
            408.0
          ],
          [
            8.539907,
            47.382726,
            408.0
          ],
          [
            8.539871,
            47.382689,
            408.0
          ],
          [
            8.539861,
            47.382683,
            408.0
          ],
          [
            8.539161,
            47.382215,
            409.0
          ],
          [
            8.539115,
            47.382191,
            409.0
          ],
          [
            8.539016,
            47.38213,
            409.0
          ],
          [
            8.538955,
            47.382093,
            409.0
          ],
          [
            8.538926,
            47.382087,
            409.0
          ],
          [
            8.538926,
            47.382087,
            409.0
          ],
          [
            8.538882,
            47.382075,
            409.0
          ],
          [
            8.538756,
            47.382057,
            409.0
          ],
          [
            8.538073,
            47.381923,
            409.0
          ],
          [
            8.538047,
            47.381917,
            409.0
          ],
          [
            8.538056,
            47.381905,
            409.0
          ],
          [
            8.538073,
            47.381887,
            409.0
          ],
          [
            8.538127,
            47.381741,
            409.0
          ],
          [
            8.538181,
            47.381534,
            409.0
          ],
          [
            8.538217,
            47.381388,
            409.0
          ],
          [
            8.538236,
            47.381267,
            409.0
          ],
          [
            8.538244,
            47.381218,
            409.0
          ],
          [
            8.538244,
            47.381199,
            409.0
          ],
          [
            8.538253,
            47.381108,
            409.0
          ],
          [
            8.538244,
            47.38092,
            409.0
          ],
          [
            8.538209,
            47.380731,
            409.0
          ],
          [
            8.538154,
            47.380548,
            409.0
          ],
          [
            8.5381,
            47.380451,
            409.0
          ],
          [
            8.538083,
            47.380457,
            409.0
          ],
          [
            8.538056,
            47.380463,
            410.0
          ],
          [
            8.538037,
            47.380427,
            410.0
          ],
          [
            8.53802,
            47.380396,
            410.0
          ],
          [
            8.537984,
            47.380409,
            410.0
          ],
          [
            8.537921,
            47.38039,
            410.0
          ],
          [
            8.537884,
            47.380324,
            410.0
          ],
          [
            8.537786,
            47.380104,
            410.0
          ],
          [
            8.53775,
            47.380049,
            410.0
          ],
          [
            8.53775,
            47.380049,
            410.0
          ],
          [
            8.53767,
            47.37991,
            410.0
          ],
          [
            8.537588,
            47.37977,
            410.0
          ],
          [
            8.537553,
            47.379697,
            410.0
          ],
          [
            8.537678,
            47.379661,
            409.0
          ],
          [
            8.537705,
            47.379618,
            409.0
          ],
          [
            8.537741,
            47.379575,
            409.0
          ],
          [
            8.537795,
            47.379545,
            409.0
          ],
          [
            8.537849,
            47.37952,
            409.0
          ],
          [
            8.53846,
            47.379283,
            410.0
          ],
          [
            8.538603,
            47.379229,
            410.0
          ],
          [
            8.538676,
            47.379198,
            410.0
          ],
          [
            8.53872,
            47.37918,
            410.0
          ],
          [
            8.538702,
            47.379162,
            410.0
          ],
          [
            8.538685,
            47.379138,
            412.0
          ],
          [
            8.538666,
            47.379119,
            411.0
          ],
          [
            8.538649,
            47.379101,
            411.0
          ],
          [
            8.538639,
            47.379089,
            410.0
          ],
          [
            8.53863,
            47.379076,
            410.0
          ],
          [
            8.538613,
            47.379058,
            410.0
          ],
          [
            8.538603,
            47.379034,
            410.0
          ],
          [
            8.539735,
            47.378724,
            410.0
          ],
          [
            8.539978,
            47.378663,
            410.0
          ],
          [
            8.539987,
            47.378627,
            410.0
          ],
          [
            8.539897,
            47.378651,
            410.0
          ],
          [
            8.539718,
            47.3787,
            410.0
          ],
          [
            8.539582,
            47.378736,
            410.0
          ],
          [
            8.538909,
            47.377574,
            410.0
          ],
          [
            8.53881,
            47.377599,
            410.0
          ],
          [
            8.53855,
            47.377671,
            410.0
          ],
          [
            8.538513,
            47.377671,
            410.0
          ],
          [
            8.538415,
            47.377702,
            410.0
          ],
          [
            8.53836,
            47.377696,
            410.0
          ],
          [
            8.53811,
            47.377763,
            410.0
          ],
          [
            8.537913,
            47.377817,
            410.0
          ],
          [
            8.537687,
            47.377848,
            410.0
          ],
          [
            8.537634,
            47.377799,
            410.0
          ],
          [
            8.537571,
            47.377811,
            410.0
          ],
          [
            8.536672,
            47.378036,
            410.0
          ],
          [
            8.536609,
            47.378042,
            410.0
          ],
          [
            8.536519,
            47.378024,
            410.0
          ],
          [
            8.536456,
            47.377994,
            410.0
          ],
          [
            8.536339,
            47.377908,
            410.0
          ],
          [
            8.53625,
            47.377823,
            410.0
          ],
          [
            8.53625,
            47.377823,
            410.0
          ],
          [
            8.536205,
            47.377787,
            410.0
          ],
          [
            8.536089,
            47.377671,
            410.0
          ],
          [
            8.536043,
            47.377629,
            410.0
          ],
          [
            8.536016,
            47.377611,
            410.0
          ],
          [
            8.535999,
            47.377593,
            410.0
          ],
          [
            8.535945,
            47.377623,
            410.0
          ],
          [
            8.53589,
            47.377641,
            410.0
          ],
          [
            8.534857,
            47.376692,
            410.0
          ],
          [
            8.534768,
            47.37671,
            410.0
          ],
          [
            8.534678,
            47.376649,
            410.0
          ],
          [
            8.534588,
            47.376595,
            410.0
          ],
          [
            8.534517,
            47.37651,
            410.0
          ],
          [
            8.534292,
            47.376363,
            410.0
          ],
          [
            8.534255,
            47.376345,
            410.0
          ],
          [
            8.533798,
            47.376047,
            410.0
          ],
          [
            8.533762,
            47.376023,
            410.0
          ],
          [
            8.533735,
            47.376011,
            410.0
          ],
          [
            8.533708,
            47.375999,
            410.0
          ],
          [
            8.533681,
            47.375999,
            410.0
          ],
          [
            8.533663,
            47.376005,
            410.0
          ],
          [
            8.533609,
            47.375968,
            410.0
          ],
          [
            8.533555,
            47.375938,
            410.0
          ],
          [
            8.533565,
            47.375926,
            410.0
          ],
          [
            8.533573,
            47.375907,
            410.0
          ],
          [
            8.533582,
            47.375889,
            410.0
          ],
          [
            8.533582,
            47.375871,
            410.0
          ],
          [
            8.533573,
            47.375852,
            410.0
          ],
          [
            8.533555,
            47.375834,
            410.0
          ],
          [
            8.533142,
            47.375427,
            410.0
          ],
          [
            8.532611,
            47.37491,
            410.0
          ],
          [
            8.532729,
            47.374855,
            410.0
          ],
          [
            8.532729,
            47.374855,
            410.0
          ],
          [
            8.532729,
            47.374855,
            410.0
          ],
          [
            8.532729,
            47.374855,
            410.0
          ],
          [
            8.532611,
            47.37491,
            410.0
          ],
          [
            8.532387,
            47.374678,
            410.0
          ],
          [
            8.532351,
            47.374611,
            410.0
          ],
          [
            8.532315,
            47.374563,
            410.0
          ],
          [
            8.532288,
            47.37452,
            410.0
          ],
          [
            8.53227,
            47.374472,
            410.0
          ],
          [
            8.532207,
            47.374387,
            410.0
          ],
          [
            8.531857,
            47.373882,
            410.0
          ],
          [
            8.531839,
            47.373851,
            410.0
          ],
          [
            8.531812,
            47.373815,
            410.0
          ],
          [
            8.531632,
            47.373553,
            410.0
          ],
          [
            8.531578,
            47.37348,
            410.0
          ],
          [
            8.531552,
            47.373462,
            410.0
          ],
          [
            8.531534,
            47.373456,
            410.0
          ],
          [
            8.531489,
            47.373456,
            410.0
          ],
          [
            8.531418,
            47.373468,
            410.0
          ],
          [
            8.531408,
            47.373449,
            410.0
          ],
          [
            8.531399,
            47.373437,
            410.0
          ],
          [
            8.531391,
            47.373413,
            410.0
          ],
          [
            8.531391,
            47.373407,
            410.0
          ],
          [
            8.531372,
            47.37337,
            410.0
          ],
          [
            8.531355,
            47.373346,
            410.0
          ],
          [
            8.531309,
            47.373358,
            410.0
          ],
          [
            8.531139,
            47.37309,
            410.0
          ],
          [
            8.531112,
            47.373072,
            410.0
          ],
          [
            8.531049,
            47.373054,
            410.0
          ],
          [
            8.530896,
            47.373017,
            410.0
          ],
          [
            8.530223,
            47.372878,
            410.0
          ],
          [
            8.530007,
            47.372835,
            410.0
          ],
          [
            8.529944,
            47.372823,
            410.0
          ],
          [
            8.529468,
            47.37275,
            410.0
          ],
          [
            8.529477,
            47.37272,
            410.0
          ],
          [
            8.529504,
            47.372653,
            410.0
          ],
          [
            8.529513,
            47.372647,
            410.0
          ],
          [
            8.529513,
            47.372634,
            410.0
          ],
          [
            8.52954,
            47.372561,
            410.0
          ],
          [
            8.52954,
            47.372555,
            410.0
          ],
          [
            8.529531,
            47.372549,
            410.0
          ],
          [
            8.529521,
            47.372543,
            410.0
          ],
          [
            8.529521,
            47.372531,
            410.0
          ],
          [
            8.529521,
            47.372525,
            410.0
          ],
          [
            8.52963,
            47.372203,
            410.0
          ],
          [
            8.529665,
            47.372117,
            410.0
          ],
          [
            8.52963,
            47.372105,
            410.0
          ],
          [
            8.529567,
            47.372093,
            410.0
          ],
          [
            8.529548,
            47.372087,
            410.0
          ],
          [
            8.529504,
            47.372081,
            410.0
          ],
          [
            8.529414,
            47.372063,
            410.0
          ],
          [
            8.529405,
            47.372056,
            410.0
          ],
          [
            8.529368,
            47.37205,
            410.0
          ],
          [
            8.529315,
            47.372008,
            410.0
          ],
          [
            8.529252,
            47.371947,
            410.0
          ],
          [
            8.529009,
            47.37174,
            410.0
          ],
          [
            8.528704,
            47.371472,
            410.0
          ],
          [
            8.528542,
            47.371332,
            410.0
          ],
          [
            8.528515,
            47.371314,
            410.0
          ],
          [
            8.528443,
            47.371302,
            410.0
          ],
          [
            8.528139,
            47.371047,
            410.0
          ],
          [
            8.528102,
            47.37101,
            410.0
          ],
          [
            8.528093,
            47.371004,
            410.0
          ],
          [
            8.528066,
            47.37098,
            410.0
          ],
          [
            8.528039,
            47.370955,
            410.0
          ],
          [
            8.528022,
            47.370943,
            410.0
          ],
          [
            8.52803,
            47.370925,
            410.0
          ],
          [
            8.528022,
            47.370906,
            410.0
          ],
          [
            8.528012,
            47.370894,
            410.0
          ],
          [
            8.527429,
            47.370389,
            410.0
          ],
          [
            8.52742,
            47.370383,
            410.0
          ],
          [
            8.52741,
            47.370383,
            410.0
          ],
          [
            8.527393,
            47.370377,
            410.0
          ],
          [
            8.527374,
            47.370383,
            410.0
          ],
          [
            8.527347,
            47.370353,
            410.0
          ],
          [
            8.52733,
            47.370334,
            410.0
          ],
          [
            8.527311,
            47.370316,
            410.0
          ],
          [
            8.527284,
            47.370298,
            410.0
          ],
          [
            8.527284,
            47.37028,
            410.0
          ],
          [
            8.52733,
            47.370255,
            410.0
          ],
          [
            8.527357,
            47.370243,
            410.0
          ],
          [
            8.527123,
            47.370031,
            410.0
          ],
          [
            8.526925,
            47.369921,
            410.0
          ],
          [
            8.526504,
            47.369689,
            410.0
          ],
          [
            8.526504,
            47.369689,
            410.0
          ],
          [
            8.526359,
            47.369611,
            410.0
          ],
          [
            8.526288,
            47.369556,
            410.0
          ],
          [
            8.526144,
            47.36958,
            410.0
          ],
          [
            8.526036,
            47.369592,
            410.0
          ],
          [
            8.526036,
            47.369574,
            410.0
          ],
          [
            8.526045,
            47.369513,
            410.0
          ],
          [
            8.526054,
            47.369459,
            410.0
          ],
          [
            8.526063,
            47.369428,
            410.0
          ],
          [
            8.526072,
            47.369386,
            410.0
          ],
          [
            8.526081,
            47.369343,
            412.0
          ],
          [
            8.526081,
            47.369331,
            413.0
          ],
          [
            8.525973,
            47.369313,
            413.0
          ],
          [
            8.525848,
            47.369276,
            413.0
          ],
          [
            8.525506,
            47.369087,
            414.0
          ],
          [
            8.525416,
            47.369039,
            414.0
          ],
          [
            8.525039,
            47.368832,
            414.0
          ],
          [
            8.524986,
            47.368796,
            414.0
          ],
          [
            8.524931,
            47.368759,
            414.0
          ],
          [
            8.524904,
            47.368735,
            414.0
          ],
          [
            8.524877,
            47.36871,
            414.0
          ],
          [
            8.524877,
            47.368692,
            414.0
          ],
          [
            8.524869,
            47.368643,
            414.0
          ],
          [
            8.52486,
            47.368625,
            414.0
          ],
          [
            8.52485,
            47.368613,
            414.0
          ],
          [
            8.52476,
            47.368582,
            414.0
          ],
          [
            8.524724,
            47.368564,
            414.0
          ],
          [
            8.524347,
            47.368187,
            414.0
          ],
          [
            8.524005,
            47.367846,
            414.0
          ],
          [
            8.523898,
            47.367731,
            414.0
          ],
          [
            8.523799,
            47.367609,
            414.0
          ],
          [
            8.523691,
            47.367444,
            414.0
          ],
          [
            8.523691,
            47.36742,
            414.0
          ],
          [
            8.523682,
            47.367384,
            413.0
          ],
          [
            8.523619,
            47.367287,
            415.0
          ],
          [
            8.524536,
            47.366763,
            414.0
          ],
          [
            8.524446,
            47.36669,
            415.0
          ],
          [
            8.524446,
            47.36669,
            415.0
          ],
          [
            8.52441,
            47.36666,
            416.0
          ],
          [
            8.524446,
            47.366642,
            416.0
          ],
          [
            8.524904,
            47.366368,
            416.0
          ],
          [
            8.524923,
            47.366355,
            416.0
          ],
          [
            8.52485,
            47.366301,
            416.0
          ],
          [
            8.524697,
            47.366173,
            416.0
          ],
          [
            8.524617,
            47.366112,
            416.0
          ],
          [
            8.524518,
            47.366033,
            416.0
          ],
          [
            8.524393,
            47.365905,
            417.0
          ],
          [
            8.524141,
            47.36565,
            417.0
          ],
          [
            8.523944,
            47.365407,
            417.0
          ],
          [
            8.523772,
            47.365163,
            417.0
          ],
          [
            8.523565,
            47.36481,
            417.0
          ],
          [
            8.523449,
            47.364579,
            417.0
          ],
          [
            8.523378,
            47.36439,
            418.0
          ],
          [
            8.523378,
            47.364348,
            418.0
          ],
          [
            8.523359,
            47.364324,
            418.0
          ],
          [
            8.523332,
            47.364287,
            418.0
          ],
          [
            8.523305,
            47.364257,
            418.0
          ],
          [
            8.523242,
            47.364122,
            418.0
          ],
          [
            8.523179,
            47.363891,
            418.0
          ],
          [
            8.523135,
            47.363709,
            418.0
          ],
          [
            8.523143,
            47.363502,
            418.0
          ],
          [
            8.523171,
            47.363459,
            418.0
          ],
          [
            8.523152,
            47.363265,
            418.0
          ],
          [
            8.523143,
            47.36293,
            418.0
          ],
          [
            8.523152,
            47.362711,
            419.0
          ],
          [
            8.523179,
            47.362382,
            419.0
          ],
          [
            8.523225,
            47.362017,
            419.0
          ],
          [
            8.523341,
            47.361464,
            419.0
          ],
          [
            8.523512,
            47.360673,
            420.0
          ],
          [
            8.523548,
            47.360569,
            420.0
          ],
          [
            8.523628,
            47.360356,
            420.0
          ],
          [
            8.523674,
            47.360259,
            420.0
          ],
          [
            8.523728,
            47.360174,
            420.0
          ],
          [
            8.523745,
            47.360131,
            420.0
          ],
          [
            8.523772,
            47.360033,
            420.0
          ],
          [
            8.523772,
            47.360033,
            420.0
          ],
          [
            8.523808,
            47.359863,
            420.0
          ],
          [
            8.523844,
            47.359693,
            420.0
          ],
          [
            8.523917,
            47.359455,
            420.0
          ],
          [
            8.523889,
            47.359394,
            420.0
          ],
          [
            8.523898,
            47.359334,
            420.0
          ],
          [
            8.523907,
            47.35917,
            420.0
          ],
          [
            8.523944,
            47.35906,
            420.0
          ],
          [
            8.524051,
            47.358731,
            420.0
          ],
          [
            8.524185,
            47.358324,
            420.0
          ],
          [
            8.524357,
            47.357861,
            420.0
          ],
          [
            8.524483,
            47.357453,
            420.0
          ],
          [
            8.524544,
            47.357265,
            420.0
          ],
          [
            8.524563,
            47.357204,
            420.0
          ],
          [
            8.524617,
            47.356936,
            420.0
          ],
          [
            8.524644,
            47.356729,
            420.0
          ],
          [
            8.524653,
            47.356608,
            420.0
          ],
          [
            8.524689,
            47.356176,
            420.0
          ],
          [
            8.524707,
            47.355957,
            420.0
          ],
          [
            8.524697,
            47.355853,
            420.0
          ],
          [
            8.524716,
            47.35567,
            420.0
          ],
          [
            8.524724,
            47.355573,
            420.0
          ],
          [
            8.524733,
            47.355476,
            420.0
          ],
          [
            8.524751,
            47.355397,
            420.0
          ],
          [
            8.524904,
            47.354556,
            420.0
          ],
          [
            8.524923,
            47.354471,
            420.0
          ],
          [
            8.524959,
            47.354362,
            420.0
          ],
          [
            8.52502,
            47.354301,
            420.0
          ],
          [
            8.525066,
            47.354076,
            420.0
          ],
          [
            8.525066,
            47.354076,
            420.0
          ],
          [
            8.525066,
            47.354076,
            420.0
          ],
          [
            8.525075,
            47.354039,
            420.0
          ],
          [
            8.525084,
            47.35396,
            420.0
          ],
          [
            8.52502,
            47.353948,
            420.0
          ],
          [
            8.52503,
            47.353826,
            420.0
          ],
          [
            8.525039,
            47.353729,
            420.0
          ],
          [
            8.525039,
            47.353626,
            420.0
          ],
          [
            8.524994,
            47.353504,
            420.0
          ],
          [
            8.524949,
            47.353351,
            420.0
          ],
          [
            8.524923,
            47.353279,
            420.0
          ],
          [
            8.524886,
            47.353212,
            420.0
          ],
          [
            8.524707,
            47.353054,
            420.0
          ],
          [
            8.524707,
            47.353011,
            420.0
          ],
          [
            8.524527,
            47.352822,
            420.0
          ],
          [
            8.524491,
            47.352779,
            420.0
          ],
          [
            8.524455,
            47.352749,
            420.0
          ],
          [
            8.524464,
            47.352725,
            420.0
          ],
          [
            8.524491,
            47.352688,
            420.0
          ],
          [
            8.524544,
            47.35267,
            420.0
          ],
          [
            8.524661,
            47.352676,
            420.0
          ],
          [
            8.524644,
            47.352664,
            420.0
          ],
          [
            8.524536,
            47.352609,
            420.0
          ],
          [
            8.524311,
            47.352482,
            420.0
          ],
          [
            8.524087,
            47.35236,
            420.0
          ],
          [
            8.524068,
            47.352336,
            420.0
          ],
          [
            8.524041,
            47.352311,
            420.0
          ],
          [
            8.523988,
            47.352281,
            420.0
          ],
          [
            8.523799,
            47.352207,
            421.0
          ],
          [
            8.523745,
            47.352189,
            421.0
          ],
          [
            8.522703,
            47.35183,
            421.0
          ],
          [
            8.521634,
            47.351465,
            422.0
          ],
          [
            8.520458,
            47.35107,
            422.0
          ],
          [
            8.518841,
            47.350522,
            423.0
          ],
          [
            8.518841,
            47.350522,
            423.0
          ],
          [
            8.518787,
            47.350504,
            423.0
          ],
          [
            8.518644,
            47.350443,
            423.0
          ],
          [
            8.518104,
            47.350071,
            423.0
          ],
          [
            8.517753,
            47.349846,
            423.0
          ],
          [
            8.517619,
            47.349669,
            423.0
          ],
          [
            8.517547,
            47.349578,
            424.0
          ],
          [
            8.517457,
            47.349305,
            424.0
          ],
          [
            8.517439,
            47.349189,
            424.0
          ],
          [
            8.517422,
            47.349085,
            424.0
          ],
          [
            8.517403,
            47.348982,
            424.0
          ],
          [
            8.517286,
            47.348988,
            424.0
          ],
          [
            8.517107,
            47.348988,
            424.0
          ],
          [
            8.517062,
            47.348994,
            424.0
          ],
          [
            8.516919,
            47.349,
            424.0
          ],
          [
            8.516891,
            47.348805,
            424.0
          ],
          [
            8.516883,
            47.348714,
            424.0
          ],
          [
            8.516883,
            47.348452,
            425.0
          ],
          [
            8.516856,
            47.348227,
            425.0
          ],
          [
            8.516891,
            47.347984,
            425.0
          ],
          [
            8.516963,
            47.347764,
            425.0
          ],
          [
            8.516981,
            47.347667,
            426.0
          ],
          [
            8.517009,
            47.347594,
            426.0
          ],
          [
            8.51708,
            47.34732,
            426.0
          ],
          [
            8.517196,
            47.347065,
            426.0
          ],
          [
            8.517269,
            47.346809,
            427.0
          ],
          [
            8.517412,
            47.346498,
            427.0
          ],
          [
            8.517772,
            47.34589,
            428.0
          ],
          [
            8.517808,
            47.345847,
            428.0
          ],
          [
            8.517808,
            47.345847,
            428.0
          ],
          [
            8.517961,
            47.345659,
            428.0
          ],
          [
            8.518202,
            47.345305,
            429.0
          ],
          [
            8.518391,
            47.344965,
            429.0
          ],
          [
            8.518491,
            47.344697,
            430.0
          ],
          [
            8.518562,
            47.344447,
            430.0
          ],
          [
            8.518617,
            47.344271,
            430.0
          ],
          [
            8.518787,
            47.343924,
            430.0
          ],
          [
            8.518814,
            47.343863,
            430.0
          ],
          [
            8.518804,
            47.343802,
            430.0
          ],
          [
            8.518841,
            47.343571,
            430.0
          ],
          [
            8.518867,
            47.343419,
            430.0
          ],
          [
            8.518877,
            47.343224,
            430.0
          ],
          [
            8.518858,
            47.343151,
            430.0
          ],
          [
            8.51885,
            47.342938,
            430.0
          ],
          [
            8.518823,
            47.342792,
            430.0
          ],
          [
            8.518715,
            47.34253,
            430.0
          ],
          [
            8.518697,
            47.342463,
            430.0
          ],
          [
            8.518644,
            47.342299,
            430.0
          ],
          [
            8.518535,
            47.342122,
            429.0
          ],
          [
            8.518499,
            47.342012,
            429.0
          ],
          [
            8.518382,
            47.34183,
            429.0
          ],
          [
            8.518338,
            47.341745,
            429.0
          ],
          [
            8.518319,
            47.341702,
            429.0
          ],
          [
            8.518319,
            47.341684,
            429.0
          ],
          [
            8.518338,
            47.341672,
            429.0
          ],
          [
            8.518401,
            47.34166,
            429.0
          ],
          [
            8.518365,
            47.341611,
            429.0
          ],
          [
            8.518292,
            47.341513,
            429.0
          ],
          [
            8.517952,
            47.340996,
            429.0
          ],
          [
            8.517871,
            47.340874,
            429.0
          ],
          [
            8.517825,
            47.340819,
            429.0
          ],
          [
            8.517753,
            47.34071,
            429.0
          ],
          [
            8.517573,
            47.340436,
            429.0
          ],
          [
            8.517485,
            47.340314,
            429.0
          ],
          [
            8.517349,
            47.34007,
            430.0
          ],
          [
            8.517215,
            47.339858,
            430.0
          ],
          [
            8.517187,
            47.339797,
            430.0
          ],
          [
            8.517179,
            47.33973,
            430.0
          ],
          [
            8.51717,
            47.339669,
            430.0
          ],
          [
            8.51716,
            47.339627,
            430.0
          ],
          [
            8.517133,
            47.339511,
            430.0
          ],
          [
            8.517116,
            47.339456,
            430.0
          ],
          [
            8.517116,
            47.339456,
            430.0
          ],
          [
            8.517107,
            47.339437,
            430.0
          ],
          [
            8.517097,
            47.339413,
            430.0
          ],
          [
            8.517053,
            47.339267,
            430.0
          ],
          [
            8.517036,
            47.339036,
            430.0
          ],
          [
            8.517053,
            47.338926,
            430.0
          ],
          [
            8.517107,
            47.33878,
            430.0
          ],
          [
            8.51716,
            47.338628,
            430.0
          ],
          [
            8.517206,
            47.338537,
            430.0
          ],
          [
            8.517269,
            47.338452,
            430.0
          ],
          [
            8.517332,
            47.338373,
            430.0
          ],
          [
            8.517403,
            47.3383,
            430.0
          ],
          [
            8.517573,
            47.338147,
            430.0
          ],
          [
            8.517843,
            47.337964,
            430.0
          ],
          [
            8.517843,
            47.337964,
            430.0
          ],
          [
            8.518005,
            47.337855,
            430.0
          ],
          [
            8.518365,
            47.337624,
            430.0
          ],
          [
            8.518391,
            47.337575,
            430.0
          ],
          [
            8.518418,
            47.337532,
            430.0
          ],
          [
            8.518491,
            47.337447,
            430.0
          ],
          [
            8.51867,
            47.33727,
            430.0
          ],
          [
            8.518733,
            47.337203,
            430.0
          ],
          [
            8.518795,
            47.337155,
            430.0
          ],
          [
            8.518867,
            47.337106,
            430.0
          ],
          [
            8.519047,
            47.337003,
            430.0
          ],
          [
            8.519093,
            47.336985,
            430.0
          ],
          [
            8.519137,
            47.336966,
            430.0
          ],
          [
            8.519218,
            47.336954,
            430.0
          ],
          [
            8.519299,
            47.336924,
            430.0
          ],
          [
            8.519443,
            47.336832,
            430.0
          ],
          [
            8.519443,
            47.336832,
            430.0
          ],
          [
            8.519569,
            47.336759,
            430.0
          ],
          [
            8.51972,
            47.336668,
            430.0
          ],
          [
            8.519783,
            47.336643,
            430.0
          ],
          [
            8.520062,
            47.336558,
            432.0
          ],
          [
            8.520286,
            47.336412,
            434.0
          ],
          [
            8.520286,
            47.336412,
            434.0
          ],
          [
            8.520466,
            47.336291,
            436.0
          ],
          [
            8.520548,
            47.336248,
            436.0
          ],
          [
            8.520619,
            47.336211,
            437.0
          ],
          [
            8.520826,
            47.335761,
            437.0
          ],
          [
            8.520978,
            47.335468,
            438.0
          ],
          [
            8.521185,
            47.335073,
            438.0
          ],
          [
            8.521221,
            47.334713,
            438.0
          ],
          [
            8.521275,
            47.334506,
            438.0
          ],
          [
            8.52132,
            47.334373,
            438.0
          ],
          [
            8.521239,
            47.334062,
            438.0
          ],
          [
            8.521158,
            47.333891,
            438.0
          ],
          [
            8.520961,
            47.333575,
            438.0
          ],
          [
            8.520835,
            47.333356,
            439.0
          ],
          [
            8.520736,
            47.333234,
            439.0
          ],
          [
            8.520475,
            47.33293,
            439.0
          ],
          [
            8.520242,
            47.332655,
            439.0
          ],
          [
            8.520197,
            47.332595,
            439.0
          ],
          [
            8.519919,
            47.332278,
            439.0
          ],
          [
            8.51973,
            47.332041,
            439.0
          ],
          [
            8.519613,
            47.331809,
            439.0
          ],
          [
            8.519541,
            47.33159,
            439.0
          ],
          [
            8.51947,
            47.331481,
            440.0
          ],
          [
            8.519344,
            47.331389,
            440.0
          ],
          [
            8.519281,
            47.33131,
            440.0
          ],
          [
            8.519137,
            47.331109,
            440.0
          ],
          [
            8.518984,
            47.33086,
            440.0
          ],
          [
            8.518921,
            47.330622,
            440.0
          ],
          [
            8.518877,
            47.330366,
            440.0
          ],
          [
            8.518741,
            47.330001,
            440.0
          ],
          [
            8.518705,
            47.32983,
            440.0
          ],
          [
            8.518705,
            47.329648,
            440.0
          ],
          [
            8.518741,
            47.32938,
            440.0
          ],
          [
            8.518768,
            47.329283,
            440.0
          ],
          [
            8.518814,
            47.329155,
            440.0
          ],
          [
            8.519227,
            47.328345,
            440.0
          ],
          [
            8.519506,
            47.327919,
            440.0
          ],
          [
            8.519631,
            47.327675,
            440.0
          ],
          [
            8.519686,
            47.327541,
            440.0
          ],
          [
            8.51973,
            47.32742,
            440.0
          ],
          [
            8.519775,
            47.327219,
            440.0
          ],
          [
            8.519775,
            47.327103,
            440.0
          ],
          [
            8.519747,
            47.32692,
            440.0
          ],
          [
            8.519676,
            47.32661,
            440.0
          ],
          [
            8.519659,
            47.326507,
            440.0
          ],
          [
            8.519649,
            47.326488,
            440.0
          ],
          [
            8.519649,
            47.326488,
            440.0
          ],
          [
            8.519604,
            47.326397,
            440.0
          ],
          [
            8.519541,
            47.326232,
            440.0
          ],
          [
            8.51938,
            47.325623,
            440.0
          ],
          [
            8.51937,
            47.32555,
            440.0
          ],
          [
            8.519326,
            47.325428,
            440.0
          ],
          [
            8.519317,
            47.325295,
            440.0
          ],
          [
            8.519353,
            47.325149,
            440.0
          ],
          [
            8.519416,
            47.325002,
            440.0
          ],
          [
            8.519506,
            47.324874,
            440.0
          ],
          [
            8.519604,
            47.324765,
            440.0
          ],
          [
            8.51982,
            47.3246,
            440.0
          ],
          [
            8.51991,
            47.324546,
            440.0
          ],
          [
            8.52026,
            47.324406,
            440.0
          ],
          [
            8.520439,
            47.324363,
            440.0
          ],
          [
            8.520529,
            47.324351,
            440.0
          ],
          [
            8.520701,
            47.324345,
            440.0
          ],
          [
            8.520817,
            47.324363,
            440.0
          ],
          [
            8.520852,
            47.324363,
            440.0
          ],
          [
            8.520852,
            47.324406,
            440.0
          ],
          [
            8.520898,
            47.324406,
            440.0
          ],
          [
            8.521005,
            47.3244,
            440.0
          ],
          [
            8.521177,
            47.324388,
            440.0
          ],
          [
            8.521418,
            47.324363,
            440.0
          ],
          [
            8.521814,
            47.324357,
            440.0
          ],
          [
            8.5222,
            47.324357,
            440.0
          ],
          [
            8.522613,
            47.324357,
            440.0
          ],
          [
            8.522875,
            47.324339,
            440.0
          ],
          [
            8.523143,
            47.324314,
            440.0
          ],
          [
            8.523296,
            47.324278,
            440.0
          ],
          [
            8.523449,
            47.324235,
            440.0
          ],
          [
            8.523728,
            47.324143,
            440.0
          ],
          [
            8.523862,
            47.324101,
            440.0
          ],
          [
            8.524015,
            47.324016,
            440.0
          ],
          [
            8.524284,
            47.323827,
            440.0
          ],
          [
            8.524527,
            47.323578,
            440.0
          ],
          [
            8.524554,
            47.323535,
            440.0
          ],
          [
            8.524644,
            47.323352,
            440.0
          ],
          [
            8.524697,
            47.323194,
            441.0
          ],
          [
            8.524724,
            47.322993,
            441.0
          ],
          [
            8.524716,
            47.322676,
            441.0
          ],
          [
            8.524707,
            47.322524,
            441.0
          ],
          [
            8.524707,
            47.322135,
            441.0
          ],
          [
            8.524751,
            47.321994,
            441.0
          ],
          [
            8.524751,
            47.321921,
            441.0
          ],
          [
            8.52476,
            47.321799,
            442.0
          ],
          [
            8.524841,
            47.321404,
            442.0
          ],
          [
            8.525003,
            47.320734,
            442.0
          ],
          [
            8.525075,
            47.320466,
            442.0
          ],
          [
            8.525173,
            47.320204,
            443.0
          ],
          [
            8.525236,
            47.3201,
            443.0
          ],
          [
            8.525326,
            47.319954,
            443.0
          ],
          [
            8.525443,
            47.319771,
            443.0
          ],
          [
            8.52556,
            47.319631,
            443.0
          ],
          [
            8.525668,
            47.319503,
            443.0
          ],
          [
            8.525802,
            47.319363,
            443.0
          ],
          [
            8.525875,
            47.319297,
            443.0
          ],
          [
            8.526072,
            47.31912,
            443.0
          ],
          [
            8.526207,
            47.31901,
            444.0
          ],
          [
            8.526341,
            47.318913,
            444.0
          ],
          [
            8.526691,
            47.3187,
            444.0
          ],
          [
            8.527311,
            47.318341,
            444.0
          ],
          [
            8.527573,
            47.318182,
            444.0
          ],
          [
            8.528326,
            47.317738,
            445.0
          ],
          [
            8.528552,
            47.31761,
            445.0
          ],
          [
            8.528731,
            47.317512,
            445.0
          ],
          [
            8.528857,
            47.317433,
            445.0
          ],
          [
            8.528974,
            47.317372,
            445.0
          ],
          [
            8.529018,
            47.317341,
            445.0
          ],
          [
            8.529297,
            47.317134,
            445.0
          ],
          [
            8.52954,
            47.316952,
            446.0
          ],
          [
            8.529684,
            47.316818,
            446.0
          ],
          [
            8.529747,
            47.31669,
            446.0
          ],
          [
            8.529791,
            47.316604,
            446.0
          ],
          [
            8.5298,
            47.316543,
            446.0
          ],
          [
            8.5298,
            47.316501,
            446.0
          ],
          [
            8.529818,
            47.316458,
            446.0
          ],
          [
            8.529818,
            47.316404,
            446.0
          ],
          [
            8.529818,
            47.316337,
            446.0
          ],
          [
            8.529783,
            47.316197,
            446.0
          ],
          [
            8.529737,
            47.316063,
            446.0
          ],
          [
            8.529684,
            47.315959,
            446.0
          ],
          [
            8.529567,
            47.315825,
            446.0
          ],
          [
            8.529485,
            47.315764,
            446.0
          ],
          [
            8.529423,
            47.315703,
            446.0
          ],
          [
            8.529351,
            47.315648,
            446.0
          ],
          [
            8.528857,
            47.315302,
            447.0
          ],
          [
            8.528641,
            47.315167,
            447.0
          ],
          [
            8.528561,
            47.315119,
            447.0
          ],
          [
            8.528139,
            47.314832,
            447.0
          ],
          [
            8.52785,
            47.314638,
            447.0
          ],
          [
            8.527429,
            47.314315,
            448.0
          ],
          [
            8.52732,
            47.314217,
            448.0
          ],
          [
            8.527213,
            47.314114,
            448.0
          ],
          [
            8.527097,
            47.313955,
            448.0
          ],
          [
            8.526647,
            47.313079,
            448.0
          ],
          [
            8.526567,
            47.312872,
            448.0
          ],
          [
            8.526485,
            47.312694,
            449.0
          ],
          [
            8.526468,
            47.312658,
            449.0
          ],
          [
            8.526441,
            47.312615,
            449.0
          ],
          [
            8.526422,
            47.312548,
            449.0
          ],
          [
            8.526414,
            47.312487,
            449.0
          ],
          [
            8.526405,
            47.312329,
            449.0
          ],
          [
            8.526422,
            47.312287,
            449.0
          ],
          [
            8.526422,
            47.31225,
            449.0
          ],
          [
            8.526485,
            47.312238,
            450.0
          ],
          [
            8.526494,
            47.312268,
            450.0
          ],
          [
            8.526504,
            47.312348,
            450.0
          ],
          [
            8.526504,
            47.312366,
            450.0
          ],
          [
            8.526494,
            47.312366,
            450.0
          ],
          [
            8.525839,
            47.31239,
            450.0
          ],
          [
            8.525793,
            47.312384,
            450.0
          ],
          [
            8.525731,
            47.312354,
            450.0
          ],
          [
            8.525686,
            47.312311,
            450.0
          ],
          [
            8.525659,
            47.312275,
            450.0
          ],
          [
            8.525641,
            47.312275,
            450.0
          ],
          [
            8.525605,
            47.312275,
            450.0
          ],
          [
            8.525552,
            47.312275,
            450.0
          ],
          [
            8.525515,
            47.312281,
            450.0
          ],
          [
            8.525479,
            47.312281,
            450.0
          ],
          [
            8.52547,
            47.312354,
            451.0
          ],
          [
            8.525452,
            47.312408,
            451.0
          ],
          [
            8.525452,
            47.312451,
            451.0
          ],
          [
            8.524599,
            47.312457,
            455.0
          ],
          [
            8.524455,
            47.312457,
            455.0
          ],
          [
            8.524437,
            47.312457,
            455.0
          ],
          [
            8.524383,
            47.312457,
            455.0
          ],
          [
            8.524347,
            47.312445,
            456.0
          ],
          [
            8.524347,
            47.312396,
            456.0
          ],
          [
            8.524347,
            47.312366,
            456.0
          ],
          [
            8.52424,
            47.312323,
            454.0
          ],
          [
            8.524068,
            47.312323,
            453.0
          ],
          [
            8.524068,
            47.312281,
            452.0
          ],
          [
            8.524068,
            47.312281,
            452.0
          ]
        ]
      }
    }
  ]
}