{
  "type": "FeatureCollection",
  "features": [
    {
      "type": "Feature",
      "properties": {},
      "geometry": {
        "type": "LineString",
        "coordinates": [
          [
            7.341131,
            47.240625,
            668.0
          ],
          [
            7.341114,
            47.240631,
            668.0
          ],
          [
            7.341087,
            47.240649,
            668.0
          ],
          [
            7.341077,
            47.240655,
            668.0
          ],
          [
            7.341024,
            47.240686,
            668.0
          ],
          [
            7.340861,
            47.240588,
            668.0
          ],
          [
            7.340764,
            47.24054,
            668.0
          ],
          [
            7.340637,
            47.240491,
            668.0
          ],
          [
            7.340475,
            47.240436,
            668.0
          ],
          [
            7.340251,
            47.240381,
            668.0
          ],
          [
            7.339963,
            47.240308,
            668.0
          ],
          [
            7.339703,
            47.240247,
            668.0
          ],
          [
            7.33964,
            47.240229,
            668.0
          ],
          [
            7.338957,
            47.240058,
            668.0
          ],
          [
            7.338714,
            47.240009,
            668.0
          ],
          [
            7.33841,
            47.239966,
            669.0
          ],
          [
            7.338265,
            47.239942,
            669.0
          ],
          [
            7.337871,
            47.239881,
            669.0
          ],
          [
            7.337699,
            47.239844,
            669.0
          ],
          [
            7.337592,
            47.23982,
            669.0
          ],
          [
            7.337439,
            47.239777,
            669.0
          ],
          [
            7.337368,
            47.239752,
            669.0
          ],
          [
            7.337278,
            47.239722,
            669.0
          ],
          [
            7.337071,
            47.239643,
            669.0
          ],
          [
            7.336955,
            47.239606,
            669.0
          ],
          [
            7.336829,
            47.239569,
            669.0
          ],
          [
            7.336739,
            47.239557,
            669.0
          ],
          [
            7.336595,
            47.239545,
            669.0
          ],
          [
            7.336514,
            47.239539,
            669.0
          ],
          [
            7.336433,
            47.239545,
            669.0
          ],
          [
            7.336334,
            47.239551,
            669.0
          ],
          [
            7.336209,
            47.239576,
            669.0
          ],
          [
            7.336037,
            47.239612,
            669.0
          ],
          [
            7.335813,
            47.239643,
            669.0
          ],
          [
            7.335607,
            47.239655,
            669.0
          ],
          [
            7.335463,
            47.239655,
            669.0
          ],
          [
            7.335328,
            47.239643,
            669.0
          ],
          [
            7.334628,
            47.239594,
            669.0
          ],
          [
            7.334619,
            47.239624,
            670.0
          ],
          [
            7.334609,
            47.239637,
            670.0
          ],
          [
            7.334475,
            47.239624,
            670.0
          ],
          [
            7.334475,
            47.239582,
            669.0
          ],
          [
            7.334483,
            47.239539,
            669.0
          ],
          [
            7.333424,
            47.239502,
            669.0
          ],
          [
            7.332588,
            47.23946,
            669.0
          ],
          [
            7.332588,
            47.239448,
            669.0
          ],
          [
            7.332552,
            47.239399,
            670.0
          ],
          [
            7.332435,
            47.239332,
            670.0
          ],
          [
            7.332355,
            47.239295,
            670.0
          ],
          [
            7.332265,
            47.239283,
            670.0
          ],
          [
            7.331869,
            47.239326,
            670.0
          ],
          [
            7.331762,
            47.239307,
            670.0
          ],
          [
            7.331708,
            47.239234,
            670.0
          ],
          [
            7.331699,
            47.239143,
            670.0
          ],
          [
            7.33169,
            47.239088,
            670.0
          ],
          [
            7.330271,
            47.239192,
            670.0
          ],
          [
            7.330019,
            47.239204,
            670.0
          ],
          [
            7.329812,
            47.23921,
            670.0
          ],
          [
            7.329669,
            47.239198,
            670.0
          ],
          [
            7.329481,
            47.239173,
            670.0
          ],
          [
            7.328762,
            47.239027,
            670.0
          ],
          [
            7.328466,
            47.238917,
            670.0
          ],
          [
            7.327271,
            47.238344,
            670.0
          ],
          [
            7.327055,
            47.238246,
            670.0
          ],
          [
            7.326695,
            47.238106,
            670.0
          ],
          [
            7.326237,
            47.237953,
            670.0
          ],
          [
            7.325636,
            47.237782,
            671.0
          ],
          [
            7.324449,
            47.237551,
            671.0
          ],
          [
            7.324009,
            47.237484,
            672.0
          ],
          [
            7.323569,
            47.237441,
            672.0
          ],
          [
            7.322913,
            47.237405,
            672.0
          ],
          [
            7.322474,
            47.237386,
            672.0
          ],
          [
            7.322384,
            47.237386,
            672.0
          ],
          [
            7.320856,
            47.237435,
            673.0
          ],
          [
            7.320164,
            47.23749,
            673.0
          ],
          [
            7.317047,
            47.237673,
            675.0
          ],
          [
            7.315116,
            47.237782,
            675.0
          ],
          [
            7.313176,
            47.237898,
            676.0
          ],
          [
            7.313176,
            47.237898,
            676.0
          ],
          [
            7.312089,
            47.237965,
            677.0
          ],
          [
            7.311352,
            47.238002,
            677.0
          ],
          [
            7.311352,
            47.238039,
            678.0
          ],
          [
            7.311371,
            47.238136,
            680.0
          ],
          [
            7.311325,
            47.238179,
            680.0
          ],
          [
            7.311218,
            47.238185,
            680.0
          ],
          [
            7.310966,
            47.238191,
            680.0
          ],
          [
            7.310661,
            47.23821,
            680.0
          ],
          [
            7.310122,
            47.238234,
            680.0
          ],
          [
            7.309726,
            47.238258,
            680.0
          ],
          [
            7.309556,
            47.238283,
            680.0
          ],
          [
            7.309268,
            47.238332,
            680.0
          ],
          [
            7.308747,
            47.238442,
            680.0
          ],
          [
            7.308415,
            47.238515,
            680.0
          ],
          [
            7.307768,
            47.238673,
            680.0
          ],
          [
            7.307176,
            47.238832,
            680.0
          ],
          [
            7.306816,
            47.238923,
            680.0
          ],
          [
            7.306699,
            47.23896,
            680.0
          ],
          [
            7.30661,
            47.239003,
            680.0
          ],
          [
            7.306484,
            47.239088,
            680.0
          ],
          [
            7.306304,
            47.239246,
            681.0
          ],
          [
            7.305755,
            47.239289,
            680.0
          ],
          [
            7.305648,
            47.239295,
            680.0
          ],
          [
            7.305621,
            47.239265,
            680.0
          ],
          [
            7.305539,
            47.239192,
            680.0
          ],
          [
            7.305522,
            47.239155,
            680.0
          ],
          [
            7.305486,
            47.239149,
            680.0
          ],
          [
            7.305459,
            47.239125,
            680.0
          ],
          [
            7.305415,
            47.239094,
            680.0
          ],
          [
            7.305315,
            47.239003,
            680.0
          ],
          [
            7.305289,
            47.238954,
            680.0
          ],
          [
            7.305289,
            47.238911,
            680.0
          ],
          [
            7.305289,
            47.238856,
            681.0
          ],
          [
            7.305289,
            47.238801,
            681.0
          ],
          [
            7.305271,
            47.238753,
            681.0
          ],
          [
            7.305252,
            47.23871,
            681.0
          ],
          [
            7.305189,
            47.238637,
            682.0
          ],
          [
            7.304992,
            47.238454,
            683.0
          ],
          [
            7.304947,
            47.238405,
            683.0
          ],
          [
            7.304929,
            47.238381,
            683.0
          ],
          [
            7.304076,
            47.238368,
            685.0
          ],
          [
            7.303968,
            47.238356,
            686.0
          ],
          [
            7.303887,
            47.23832,
            686.0
          ],
          [
            7.303834,
            47.238277,
            686.0
          ],
          [
            7.303788,
            47.23821,
            686.0
          ],
          [
            7.303681,
            47.237898,
            688.0
          ],
          [
            7.303663,
            47.237789,
            688.0
          ],
          [
            7.303465,
            47.237776,
            689.0
          ],
          [
            7.303249,
            47.23777,
            689.0
          ],
          [
            7.303061,
            47.237776,
            690.0
          ],
          [
            7.302656,
            47.237709,
            690.0
          ],
          [
            7.302558,
            47.237722,
            690.0
          ],
          [
            7.302449,
            47.237752,
            690.0
          ],
          [
            7.302289,
            47.237789,
            690.0
          ],
          [
            7.302019,
            47.237868,
            690.0
          ],
          [
            7.301696,
            47.237935,
            690.0
          ],
          [
            7.301147,
            47.23802,
            690.0
          ],
          [
            7.300797,
            47.2381,
            690.0
          ],
          [
            7.300357,
            47.238246,
            690.0
          ],
          [
            7.300042,
            47.238295,
            690.0
          ],
          [
            7.299799,
            47.238326,
            690.0
          ],
          [
            7.299503,
            47.238356,
            690.0
          ],
          [
            7.299019,
            47.238405,
            690.0
          ],
          [
            7.298713,
            47.238448,
            690.0
          ],
          [
            7.298713,
            47.238448,
            690.0
          ],
          [
            7.298183,
            47.238527,
            690.0
          ],
          [
            7.297446,
            47.238667,
            690.0
          ],
          [
            7.297042,
            47.238747,
            690.0
          ],
          [
            7.296692,
            47.238765,
            690.0
          ],
          [
            7.296584,
            47.238777,
            690.0
          ],
          [
            7.296539,
            47.238783,
            690.0
          ],
          [
            7.296287,
            47.238789,
            690.0
          ],
          [
            7.29601,
            47.238789,
            690.0
          ],
          [
            7.29583,
            47.238783,
            690.0
          ],
          [
            7.295344,
            47.238728,
            690.0
          ],
          [
            7.294841,
            47.238655,
            690.0
          ],
          [
            7.294436,
            47.238552,
            690.0
          ],
          [
            7.29371,
            47.238332,
            690.0
          ],
          [
            7.292721,
            47.237971,
            690.0
          ],
          [
            7.292407,
            47.237862,
            690.0
          ],
          [
            7.291517,
            47.237478,
            690.0
          ],
          [
            7.291419,
            47.237435,
            690.0
          ],
          [
            7.291149,
            47.237325,
            690.0
          ],
          [
            7.291014,
            47.237264,
            690.0
          ],
          [
            7.290628,
            47.237149,
            690.0
          ],
          [
            7.290134,
            47.237191,
            690.0
          ],
          [
            7.289802,
            47.237191,
            690.0
          ],
          [
            7.289515,
            47.237149,
            690.0
          ],
          [
            7.289046,
            47.237075,
            690.0
          ],
          [
            7.288823,
            47.237033,
            690.0
          ],
          [
            7.288427,
            47.237008,
            690.0
          ],
          [
            7.288418,
            47.237045,
            690.0
          ],
          [
            7.287178,
            47.237008,
            690.0
          ],
          [
            7.286989,
            47.23699,
            690.0
          ],
          [
            7.286882,
            47.23699,
            690.0
          ],
          [
            7.286838,
            47.237002,
            690.0
          ],
          [
            7.28681,
            47.237027,
            690.0
          ],
          [
            7.286775,
            47.237021,
            690.0
          ],
          [
            7.286712,
            47.237008,
            690.0
          ],
          [
            7.286702,
            47.237008,
            690.0
          ],
          [
            7.286586,
            47.236984,
            690.0
          ],
          [
            7.286568,
            47.237002,
            690.0
          ],
          [
            7.286523,
            47.237021,
            690.0
          ],
          [
            7.286325,
            47.23713,
            690.0
          ],
          [
            7.28628,
            47.237142,
            690.0
          ],
          [
            7.286209,
            47.237155,
            690.0
          ],
          [
            7.285957,
            47.237167,
            690.0
          ],
          [
            7.285714,
            47.237161,
            690.0
          ],
          [
            7.28523,
            47.237142,
            690.0
          ],
          [
            7.285031,
            47.237124,
            690.0
          ],
          [
            7.284897,
            47.237118,
            690.0
          ],
          [
            7.284645,
            47.237081,
            690.0
          ],
          [
            7.284448,
            47.237033,
            691.0
          ],
          [
            7.284339,
            47.237002,
            691.0
          ],
          [
            7.284196,
            47.236947,
            691.0
          ],
          [
            7.284115,
            47.236911,
            691.0
          ],
          [
            7.284079,
            47.236947,
            691.0
          ],
          [
            7.284035,
            47.23699,
            691.0
          ],
          [
            7.283683,
            47.236832,
            691.0
          ],
          [
            7.283442,
            47.236728,
            693.0
          ],
          [
            7.283406,
            47.236716,
            693.0
          ],
          [
            7.28327,
            47.236667,
            693.0
          ],
          [
            7.283181,
            47.236648,
            693.0
          ],
          [
            7.283091,
            47.236636,
            693.0
          ],
          [
            7.282966,
            47.23663,
            693.0
          ],
          [
            7.282867,
            47.236636,
            693.0
          ],
          [
            7.282731,
            47.236655,
            694.0
          ],
          [
            7.282444,
            47.23671,
            694.0
          ],
          [
            7.282041,
            47.236795,
            694.0
          ],
          [
            7.281151,
            47.23699,
            694.0
          ],
          [
            7.280378,
            47.237161,
            694.0
          ],
          [
            7.28002,
            47.237252,
            694.0
          ],
          [
            7.27948,
            47.237386,
            694.0
          ],
          [
            7.278599,
            47.237606,
            694.0
          ],
          [
            7.278259,
            47.237691,
            695.0
          ],
          [
            7.277809,
            47.237801,
            695.0
          ],
          [
            7.27772,
            47.237825,
            695.0
          ],
          [
            7.277513,
            47.237874,
            695.0
          ],
          [
            7.277387,
            47.237904,
            695.0
          ],
          [
            7.27719,
            47.237941,
            695.0
          ],
          [
            7.276974,
            47.237978,
            695.0
          ],
          [
            7.276749,
            47.238008,
            695.0
          ],
          [
            7.276058,
            47.238081,
            695.0
          ],
          [
            7.275869,
            47.2381,
            695.0
          ],
          [
            7.274953,
            47.238191,
            695.0
          ],
          [
            7.274647,
            47.238222,
            695.0
          ],
          [
            7.274504,
            47.23824,
            697.0
          ],
          [
            7.274504,
            47.238191,
            697.0
          ],
          [
            7.273946,
            47.23824,
            697.0
          ],
          [
            7.273596,
            47.238277,
            697.0
          ],
          [
            7.272635,
            47.238368,
            698.0
          ],
          [
            7.27224,
            47.238393,
            698.0
          ],
          [
            7.2718,
            47.238411,
            698.0
          ],
          [
            7.271422,
            47.238429,
            699.0
          ],
          [
            7.271351,
            47.238429,
            699.0
          ],
          [
            7.271305,
            47.238429,
            699.0
          ],
          [
            7.271305,
            47.23846,
            699.0
          ],
          [
            7.271296,
            47.238484,
            699.0
          ],
          [
            7.271269,
            47.238503,
            699.0
          ],
          [
            7.271242,
            47.238521,
            699.0
          ],
          [
            7.271207,
            47.238533,
            699.0
          ],
          [
            7.271171,
            47.238533,
            699.0
          ],
          [
            7.271125,
            47.238527,
            699.0
          ],
          [
            7.271098,
            47.238515,
            699.0
          ],
          [
            7.271062,
            47.238539,
            699.0
          ],
          [
            7.271035,
            47.238588,
            699.0
          ],
          [
            7.271089,
            47.238612,
            700.0
          ],
          [
            7.271081,
            47.238625,
            700.0
          ],
          [
            7.271072,
            47.238655,
            700.0
          ],
          [
            7.271062,
            47.23868,
            700.0
          ],
          [
            7.271072,
            47.238777,
            700.0
          ],
          [
            7.271089,
            47.238887,
            700.0
          ],
          [
            7.271117,
            47.238936,
            700.0
          ],
          [
            7.271152,
            47.238972,
            700.0
          ],
          [
            7.271278,
            47.23907,
            701.0
          ],
          [
            7.271431,
            47.239173,
            701.0
          ],
          [
            7.271538,
            47.239271,
            702.0
          ],
          [
            7.271557,
            47.239332,
            703.0
          ],
          [
            7.271647,
            47.239624,
            704.0
          ],
          [
            7.271718,
            47.239832,
            706.0
          ],
          [
            7.2718,
            47.240033,
            707.0
          ],
          [
            7.272069,
            47.240454,
            710.0
          ],
          [
            7.272006,
            47.240473,
            710.0
          ],
          [
            7.271907,
            47.240491,
            710.0
          ],
          [
            7.271827,
            47.240491,
            710.0
          ],
          [
            7.271764,
            47.240491,
            710.0
          ],
          [
            7.271683,
            47.240485,
            710.0
          ],
          [
            7.271611,
            47.240473,
            710.0
          ],
          [
            7.271359,
            47.24043,
            710.0
          ],
          [
            7.271179,
            47.240406,
            710.0
          ],
          [
            7.271179,
            47.240406,
            710.0
          ],
          [
            7.271162,
            47.240406,
            710.0
          ],
          [
            7.271035,
            47.240393,
            710.0
          ],
          [
            7.270955,
            47.240393,
            710.0
          ],
          [
            7.270883,
            47.240399,
            710.0
          ],
          [
            7.270785,
            47.240424,
            710.0
          ],
          [
            7.270559,
            47.240473,
            710.0
          ],
          [
            7.270523,
            47.240485,
            710.0
          ],
          [
            7.270496,
            47.240503,
            710.0
          ],
          [
            7.27047,
            47.240521,
            710.0
          ],
          [
            7.270146,
            47.240515,
            710.0
          ],
          [
            7.269769,
            47.240509,
            710.0
          ],
          [
            7.26932,
            47.240497,
            710.0
          ],
          [
            7.26915,
            47.240503,
            710.0
          ],
          [
            7.268951,
            47.240509,
            710.0
          ],
          [
            7.268682,
            47.240503,
            710.0
          ],
          [
            7.268412,
            47.240485,
            710.0
          ],
          [
            7.26817,
            47.240473,
            710.0
          ],
          [
            7.268026,
            47.240467,
            711.0
          ],
          [
            7.267963,
            47.24046,
            711.0
          ],
          [
            7.26738,
            47.240406,
            715.0
          ],
          [
            7.26676,
            47.240332,
            718.0
          ],
          [
            7.26641,
            47.240284,
            720.0
          ],
          [
            7.266085,
            47.240168,
            721.0
          ],
          [
            7.265646,
            47.240039,
            722.0
          ],
          [
            7.265322,
            47.240046,
            722.0
          ],
          [
            7.265062,
            47.240088,
            723.0
          ],
          [
            7.264927,
            47.240131,
            723.0
          ],
          [
            7.264892,
            47.240247,
            725.0
          ],
          [
            7.264927,
            47.240387,
            726.0
          ],
          [
            7.26499,
            47.240698,
            730.0
          ],
          [
            7.26499,
            47.240698,
            730.0
          ],
          [
            7.264927,
            47.240387,
            726.0
          ],
          [
            7.264892,
            47.240247,
            725.0
          ],
          [
            7.264927,
            47.240131,
            723.0
          ],
          [
            7.265062,
            47.240088,
            723.0
          ],
          [
            7.265322,
            47.240046,
            722.0
          ],
          [
            7.265646,
            47.240039,
            722.0
          ],
          [
            7.266085,
            47.240168,
            721.0
          ],
          [
            7.26641,
            47.240284,
            720.0
          ],
          [
            7.26676,
            47.240332,
            718.0
          ],
          [
            7.26738,
            47.240406,
            715.0
          ],
          [
            7.267963,
            47.24046,
            711.0
          ],
          [
            7.268026,
            47.240467,
            711.0
          ],
          [
            7.26817,
            47.240473,
            710.0
          ],
          [
            7.268412,
            47.240485,
            710.0
          ],
          [
            7.268682,
            47.240503,
            710.0
          ],
          [
            7.268951,
            47.240509,
            710.0
          ],
          [
            7.26915,
            47.240503,
            710.0
          ],
          [
            7.26932,
            47.240497,
            710.0
          ],
          [
            7.269769,
            47.240509,
            710.0
          ],
          [
            7.270146,
            47.240515,
            710.0
          ],
          [
            7.27047,
            47.240521,
            710.0
          ],
          [
            7.270452,
            47.240552,
            710.0
          ],
          [
            7.270443,
            47.240576,
            711.0
          ],
          [
            7.270433,
            47.240601,
            711.0
          ],
          [
            7.27038,
            47.24068,
            712.0
          ],
          [
            7.270317,
            47.240741,
            713.0
          ],
          [
            7.270236,
            47.240802,
            714.0
          ],
          [
            7.270129,
            47.240844,
            715.0
          ],
          [
            7.269967,
            47.240905,
            717.0
          ],
          [
            7.269832,
            47.240979,
            718.0
          ],
          [
            7.269706,
            47.241046,
            720.0
          ],
          [
            7.26959,
            47.241131,
            721.0
          ],
          [
            7.26941,
            47.241283,
            722.0
          ],
          [
            7.269293,
            47.241417,
            723.0
          ],
          [
            7.269087,
            47.241576,
            725.0
          ],
          [
            7.268888,
            47.241662,
            726.0
          ],
          [
            7.26879,
            47.241674,
            726.0
          ],
          [
            7.268691,
            47.241668,
            727.0
          ],
          [
            7.268529,
            47.241619,
            728.0
          ],
          [
            7.268341,
            47.241527,
            729.0
          ],
          [
            7.268198,
            47.24146,
            730.0
          ],
          [
            7.267892,
            47.241674,
            735.0
          ],
          [
            7.267766,
            47.241741,
            736.0
          ],
          [
            7.26737,
            47.241839,
            742.0
          ],
          [
            7.267164,
            47.241888,
            746.0
          ],
          [
            7.267047,
            47.241943,
            748.0
          ],
          [
            7.266894,
            47.241961,
            749.0
          ],
          [
            7.266777,
            47.241949,
            749.0
          ],
          [
            7.266688,
            47.241863,
            749.0
          ],
          [
            7.266625,
            47.241869,
            749.0
          ],
          [
            7.266544,
            47.24193,
            750.0
          ],
          [
            7.266481,
            47.241991,
            750.0
          ],
          [
            7.26632,
            47.242162,
            751.0
          ],
          [
            7.266167,
            47.242266,
            752.0
          ],
          [
            7.266051,
            47.242339,
            752.0
          ],
          [
            7.265798,
            47.242479,
            754.0
          ],
          [
            7.265754,
            47.242497,
            754.0
          ],
          [
            7.265718,
            47.242515,
            754.0
          ],
          [
            7.265628,
            47.24254,
            754.0
          ],
          [
            7.265592,
            47.24254,
            754.0
          ],
          [
            7.265529,
            47.242546,
            755.0
          ],
          [
            7.265395,
            47.242546,
            755.0
          ],
          [
            7.265116,
            47.242522,
            756.0
          ],
          [
            7.264982,
            47.242509,
            757.0
          ],
          [
            7.264882,
            47.242497,
            757.0
          ],
          [
            7.264793,
            47.242467,
            757.0
          ],
          [
            7.26473,
            47.242436,
            758.0
          ],
          [
            7.264083,
            47.242022,
            760.0
          ],
          [
            7.263993,
            47.241979,
            760.0
          ],
          [
            7.26393,
            47.241961,
            760.0
          ],
          [
            7.26385,
            47.241936,
            760.0
          ],
          [
            7.263751,
            47.241918,
            760.0
          ],
          [
            7.263751,
            47.241918,
            760.0
          ],
          [
            7.263301,
            47.241845,
            760.0
          ],
          [
            7.263032,
            47.241814,
            760.0
          ],
          [
            7.262772,
            47.241814,
            759.0
          ],
          [
            7.262304,
            47.241894,
            757.0
          ],
          [
            7.261441,
            47.242089,
            752.0
          ],
          [
            7.261074,
            47.242144,
            750.0
          ],
          [
            7.260112,
            47.242424,
            750.0
          ],
          [
            7.259286,
            47.242686,
            751.0
          ],
          [
            7.259026,
            47.242753,
            751.0
          ],
          [
            7.258917,
            47.24268,
            750.0
          ],
          [
            7.258801,
            47.242583,
            750.0
          ],
          [
            7.258675,
            47.242497,
            749.0
          ],
          [
            7.258522,
            47.242369,
            749.0
          ],
          [
            7.25846,
            47.242333,
            749.0
          ],
          [
            7.258388,
            47.242302,
            749.0
          ],
          [
            7.258343,
            47.242296,
            748.0
          ],
          [
            7.258288,
            47.242296,
            748.0
          ],
          [
            7.258127,
            47.242339,
            748.0
          ],
          [
            7.258064,
            47.242369,
            748.0
          ],
          [
            7.257777,
            47.242558,
            747.0
          ],
          [
            7.257588,
            47.242717,
            747.0
          ],
          [
            7.257508,
            47.242771,
            746.0
          ],
          [
            7.257426,
            47.242814,
            746.0
          ],
          [
            7.2573,
            47.242845,
            746.0
          ],
          [
            7.257013,
            47.242906,
            745.0
          ],
          [
            7.256923,
            47.242912,
            745.0
          ],
          [
            7.256843,
            47.242912,
            745.0
          ],
          [
            7.256735,
            47.242899,
            745.0
          ],
          [
            7.256627,
            47.242875,
            745.0
          ],
          [
            7.256267,
            47.242784,
            744.0
          ],
          [
            7.256133,
            47.242741,
            743.0
          ],
          [
            7.25607,
            47.242704,
            743.0
          ],
          [
            7.256043,
            47.24265,
            743.0
          ],
          [
            7.256024,
            47.24257,
            743.0
          ],
          [
            7.256007,
            47.242528,
            743.0
          ],
          [
            7.255971,
            47.242485,
            743.0
          ],
          [
            7.255908,
            47.242448,
            743.0
          ],
          [
            7.255837,
            47.242418,
            742.0
          ],
          [
            7.255674,
            47.242375,
            742.0
          ],
          [
            7.25554,
            47.242327,
            742.0
          ],
          [
            7.255432,
            47.242241,
            741.0
          ],
          [
            7.255324,
            47.242174,
            741.0
          ],
          [
            7.255216,
            47.24204,
            741.0
          ],
          [
            7.255216,
            47.241979,
            741.0
          ],
          [
            7.255235,
            47.241863,
            740.0
          ],
          [
            7.255235,
            47.241833,
            740.0
          ],
          [
            7.255208,
            47.241802,
            740.0
          ],
          [
            7.254822,
            47.241552,
            740.0
          ],
          [
            7.254785,
            47.241515,
            740.0
          ],
          [
            7.254885,
            47.241387,
            739.0
          ],
          [
            7.255045,
            47.241265,
            738.0
          ],
          [
            7.255091,
            47.241174,
            737.0
          ],
          [
            7.255109,
            47.241064,
            737.0
          ],
          [
            7.255072,
            47.240905,
            736.0
          ],
          [
            7.255028,
            47.240747,
            735.0
          ],
          [
            7.254974,
            47.240521,
            733.0
          ],
          [
            7.254858,
            47.240082,
            730.0
          ],
          [
            7.254803,
            47.239954,
            730.0
          ],
          [
            7.254732,
            47.239789,
            729.0
          ],
          [
            7.254615,
            47.23963,
            728.0
          ],
          [
            7.254579,
            47.2396,
            728.0
          ],
          [
            7.254516,
            47.239582,
            728.0
          ],
          [
            7.254506,
            47.239417,
            726.0
          ],
          [
            7.254525,
            47.239313,
            725.0
          ],
          [
            7.254561,
            47.239198,
            723.0
          ],
          [
            7.254489,
            47.239112,
            722.0
          ],
          [
            7.254408,
            47.239057,
            722.0
          ],
          [
            7.254292,
            47.239039,
            720.0
          ],
          [
            7.254093,
            47.239051,
            719.0
          ],
          [
            7.254003,
            47.23907,
            719.0
          ],
          [
            7.253896,
            47.239088,
            719.0
          ],
          [
            7.253734,
            47.239125,
            718.0
          ],
          [
            7.253671,
            47.239125,
            720.0
          ],
          [
            7.25369,
            47.239106,
            720.0
          ],
          [
            7.25377,
            47.239003,
            720.0
          ],
          [
            7.253788,
            47.238966,
            720.0
          ],
          [
            7.253851,
            47.238826,
            720.0
          ],
          [
            7.25386,
            47.238747,
            720.0
          ],
          [
            7.253843,
            47.238692,
            720.0
          ],
          [
            7.253843,
            47.238692,
            720.0
          ],
          [
            7.25386,
            47.238747,
            720.0
          ],
          [
            7.253851,
            47.238826,
            720.0
          ],
          [
            7.253788,
            47.238966,
            720.0
          ],
          [
            7.25377,
            47.239003,
            720.0
          ],
          [
            7.25369,
            47.239106,
            720.0
          ],
          [
            7.253464,
            47.239137,
            720.0
          ],
          [
            7.25333,
            47.239179,
            720.0
          ],
          [
            7.253231,
            47.23921,
            720.0
          ],
          [
            7.253078,
            47.239234,
            720.0
          ],
          [
            7.25298,
            47.239259,
            720.0
          ],
          [
            7.252898,
            47.239289,
            720.0
          ],
          [
            7.252737,
            47.239326,
            720.0
          ],
          [
            7.252135,
            47.239338,
            720.0
          ],
          [
            7.251911,
            47.239216,
            720.0
          ],
          [
            7.25138,
            47.239149,
            720.0
          ],
          [
            7.25086,
            47.239021,
            720.0
          ],
          [
            7.249908,
            47.238704,
            720.0
          ],
          [
            7.249908,
            47.238704,
            720.0
          ],
          [
            7.249135,
            47.238448,
            720.0
          ],
          [
            7.248398,
            47.238216,
            720.0
          ],
          [
            7.248371,
            47.238216,
            720.0
          ],
          [
            7.248164,
            47.238204,
            720.0
          ],
          [
            7.248156,
            47.238204,
            720.0
          ],
          [
            7.247841,
            47.238106,
            720.0
          ],
          [
            7.247321,
            47.238002,
            720.0
          ],
          [
            7.246908,
            47.237965,
            720.0
          ],
          [
            7.246728,
            47.238008,
            720.0
          ],
          [
            7.246413,
            47.238136,
            720.0
          ],
          [
            7.24609,
            47.238265,
            720.0
          ],
          [
            7.245811,
            47.238338,
            721.0
          ],
          [
            7.245514,
            47.238375,
            723.0
          ],
          [
            7.245218,
            47.238381,
            724.0
          ],
          [
            7.244967,
            47.238393,
            725.0
          ],
          [
            7.244625,
            47.238381,
            727.0
          ],
          [
            7.244356,
            47.238326,
            730.0
          ],
          [
            7.244122,
            47.238271,
            730.0
          ],
          [
            7.243161,
            47.237971,
            730.0
          ],
          [
            7.242757,
            47.237856,
            729.0
          ],
          [
            7.24265,
            47.237837,
            729.0
          ],
          [
            7.242595,
            47.237813,
            729.0
          ],
          [
            7.242577,
            47.237801,
            729.0
          ],
          [
            7.242308,
            47.23774,
            728.0
          ],
          [
            7.242029,
            47.237679,
            728.0
          ],
          [
            7.241786,
            47.237636,
            727.0
          ],
          [
            7.241742,
            47.237624,
            727.0
          ],
          [
            7.241392,
            47.237581,
            727.0
          ],
          [
            7.241122,
            47.237581,
            726.0
          ],
          [
            7.240979,
            47.237581,
            726.0
          ],
          [
            7.240897,
            47.237575,
            726.0
          ],
          [
            7.240826,
            47.237563,
            726.0
          ],
          [
            7.240744,
            47.237624,
            726.0
          ],
          [
            7.24052,
            47.237746,
            726.0
          ],
          [
            7.239792,
            47.238088,
            727.0
          ],
          [
            7.239524,
            47.238234,
            728.0
          ],
          [
            7.239271,
            47.23835,
            728.0
          ],
          [
            7.239101,
            47.238442,
            728.0
          ],
          [
            7.238579,
            47.238277,
            728.0
          ],
          [
            7.238103,
            47.238124,
            728.0
          ],
          [
            7.237807,
            47.238033,
            728.0
          ],
          [
            7.237384,
            47.237904,
            729.0
          ],
          [
            7.237313,
            47.237874,
            729.0
          ],
          [
            7.237277,
            47.237856,
            729.0
          ],
          [
            7.237214,
            47.237819,
            729.0
          ],
          [
            7.237151,
            47.237764,
            729.0
          ],
          [
            7.237115,
            47.237697,
            729.0
          ],
          [
            7.237097,
            47.237618,
            729.0
          ],
          [
            7.23708,
            47.237411,
            729.0
          ],
          [
            7.237025,
            47.237356,
            729.0
          ],
          [
            7.236971,
            47.237228,
            729.0
          ],
          [
            7.236918,
            47.237094,
            729.0
          ],
          [
            7.236874,
            47.237051,
            729.0
          ],
          [
            7.236801,
            47.237008,
            729.0
          ],
          [
            7.236721,
            47.236972,
            729.0
          ],
          [
            7.236639,
            47.236953,
            729.0
          ],
          [
            7.236505,
            47.236923,
            729.0
          ],
          [
            7.236388,
            47.236905,
            729.0
          ],
          [
            7.236218,
            47.236886,
            729.0
          ],
          [
            7.235893,
            47.236874,
            729.0
          ],
          [
            7.235616,
            47.23688,
            729.0
          ],
          [
            7.235382,
            47.236905,
            729.0
          ],
          [
            7.235113,
            47.236929,
            729.0
          ],
          [
            7.234807,
            47.236953,
            729.0
          ],
          [
            7.23443,
            47.23696,
            729.0
          ],
          [
            7.234187,
            47.236941,
            729.0
          ],
          [
            7.233962,
            47.236917,
            729.0
          ],
          [
            7.233055,
            47.236771,
            729.0
          ],
          [
            7.231905,
            47.236612,
            729.0
          ],
          [
            7.231358,
            47.236532,
            729.0
          ],
          [
            7.22992,
            47.236319,
            729.0
          ],
          [
            7.228348,
            47.236001,
            729.0
          ],
          [
            7.227602,
            47.235855,
            729.0
          ],
          [
            7.226362,
            47.23563,
            730.0
          ],
          [
            7.226201,
            47.235581,
            730.0
          ],
          [
            7.226057,
            47.235526,
            730.0
          ],
          [
            7.225878,
            47.235441,
            730.0
          ],
          [
            7.225769,
            47.235392,
            730.0
          ],
          [
            7.225769,
            47.235325,
            729.0
          ],
          [
            7.225599,
            47.2353,
            730.0
          ],
          [
            7.224108,
            47.235099,
            731.0
          ],
          [
            7.224054,
            47.235093,
            731.0
          ],
          [
            7.224,
            47.235118,
            731.0
          ],
          [
            7.223381,
            47.235032,
            731.0
          ],
          [
            7.223039,
            47.23499,
            731.0
          ],
          [
            7.22285,
            47.234959,
            731.0
          ],
          [
            7.222706,
            47.234929,
            731.0
          ],
          [
            7.222526,
            47.23488,
            732.0
          ],
          [
            7.222392,
            47.234837,
            732.0
          ],
          [
            7.222023,
            47.234745,
            732.0
          ],
          [
            7.221934,
            47.234721,
            732.0
          ],
          [
            7.221897,
            47.234721,
            732.0
          ],
          [
            7.221871,
            47.234727,
            732.0
          ],
          [
            7.221853,
            47.234745,
            732.0
          ],
          [
            7.221736,
            47.23491,
            732.0
          ],
          [
            7.22161,
            47.235118,
            732.0
          ],
          [
            7.22161,
            47.235136,
            732.0
          ],
          [
            7.221566,
            47.235124,
            732.0
          ],
          [
            7.221503,
            47.235111,
            732.0
          ],
          [
            7.221458,
            47.235185,
            732.0
          ],
          [
            7.22144,
            47.235209,
            732.0
          ],
          [
            7.221394,
            47.235227,
            732.0
          ],
          [
            7.221331,
            47.235246,
            732.0
          ],
          [
            7.221287,
            47.235252,
            733.0
          ],
          [
            7.221234,
            47.235246,
            733.0
          ],
          [
            7.22118,
            47.235233,
            733.0
          ],
          [
            7.220955,
            47.235178,
            733.0
          ],
          [
            7.220631,
            47.235093,
            733.0
          ],
          [
            7.220559,
            47.235075,
            733.0
          ],
          [
            7.220415,
            47.235044,
            733.0
          ],
          [
            7.220255,
            47.23502,
            733.0
          ],
          [
            7.220155,
            47.235008,
            733.0
          ],
          [
            7.220056,
            47.235002,
            733.0
          ],
          [
            7.220012,
            47.234996,
            733.0
          ],
          [
            7.219949,
            47.234977,
            733.0
          ],
          [
            7.219823,
            47.234929,
            733.0
          ],
          [
            7.219553,
            47.234831,
            734.0
          ],
          [
            7.219517,
            47.234837,
            734.0
          ],
          [
            7.21949,
            47.234825,
            734.0
          ],
          [
            7.219104,
            47.234739,
            734.0
          ],
          [
            7.218295,
            47.234483,
            734.0
          ],
          [
            7.217442,
            47.23419,
            735.0
          ],
          [
            7.217218,
            47.234111,
            735.0
          ],
          [
            7.216742,
            47.233952,
            735.0
          ],
          [
            7.215628,
            47.233586,
            736.0
          ],
          [
            7.215628,
            47.233586,
            736.0
          ],
          [
            7.215547,
            47.233562,
            736.0
          ],
          [
            7.214981,
            47.233373,
            736.0
          ],
          [
            7.214299,
            47.233147,
            736.0
          ],
          [
            7.214217,
            47.233123,
            737.0
          ],
          [
            7.213823,
            47.232971,
            737.0
          ],
          [
            7.213714,
            47.232873,
            737.0
          ],
          [
            7.213706,
            47.232812,
            737.0
          ],
          [
            7.213436,
            47.231701,
            738.0
          ],
          [
            7.213418,
            47.231647,
            738.0
          ],
          [
            7.213418,
            47.231634,
            738.0
          ],
          [
            7.213418,
            47.231634,
            738.0
          ],
          [
            7.213247,
            47.231,
            738.0
          ],
          [
            7.21331,
            47.230897,
            739.0
          ],
          [
            7.213391,
            47.230848,
            740.0
          ],
          [
            7.212708,
            47.230286,
            740.0
          ],
          [
            7.212672,
            47.230256,
            740.0
          ],
          [
            7.212322,
            47.229993,
            740.0
          ],
          [
            7.212241,
            47.230042,
            739.0
          ],
          [
            7.212125,
            47.230115,
            739.0
          ],
          [
            7.212016,
            47.230201,
            739.0
          ],
          [
            7.212035,
            47.230146,
            739.0
          ],
          [
            7.212178,
            47.230048,
            739.0
          ],
          [
            7.212205,
            47.230006,
            740.0
          ],
          [
            7.212188,
            47.229963,
            740.0
          ],
          [
            7.21198,
            47.229841,
            740.0
          ],
          [
            7.211693,
            47.229695,
            740.0
          ],
          [
            7.211387,
            47.229554,
            740.0
          ],
          [
            7.210471,
            47.229158,
            741.0
          ],
          [
            7.209941,
            47.228932,
            742.0
          ],
          [
            7.209303,
            47.228658,
            743.0
          ],
          [
            7.207902,
            47.228053,
            745.0
          ],
          [
            7.207426,
            47.227852,
            746.0
          ],
          [
            7.207004,
            47.227681,
            747.0
          ],
          [
            7.20668,
            47.22756,
            747.0
          ],
          [
            7.206528,
            47.227492,
            747.0
          ],
          [
            7.206492,
            47.227535,
            747.0
          ],
          [
            7.206465,
            47.227566,
            748.0
          ],
          [
            7.206438,
            47.22759,
            750.0
          ],
          [
            7.206366,
            47.22756,
            749.0
          ],
          [
            7.206312,
            47.227523,
            749.0
          ],
          [
            7.206286,
            47.227474,
            749.0
          ],
          [
            7.206267,
            47.227438,
            749.0
          ],
          [
            7.206259,
            47.227395,
            749.0
          ],
          [
            7.206232,
            47.227364,
            749.0
          ],
          [
            7.206133,
            47.22731,
            748.0
          ],
          [
            7.20572,
            47.227078,
            747.0
          ],
          [
            7.205567,
            47.226974,
            746.0
          ],
          [
            7.205387,
            47.226852,
            746.0
          ],
          [
            7.205207,
            47.226742,
            745.0
          ],
          [
            7.205217,
            47.226736,
            745.0
          ],
          [
            7.205252,
            47.226718,
            745.0
          ],
          [
            7.205045,
            47.22659,
            745.0
          ],
          [
            7.20483,
            47.226455,
            746.0
          ],
          [
            7.204615,
            47.226321,
            746.0
          ],
          [
            7.204471,
            47.226235,
            746.0
          ],
          [
            7.204444,
            47.226217,
            746.0
          ],
          [
            7.204776,
            47.225991,
            746.0
          ],
          [
            7.204991,
            47.22593,
            745.0
          ],
          [
            7.204776,
            47.22543,
            748.0
          ],
          [
            7.204731,
            47.225308,
            749.0
          ],
          [
            7.204722,
            47.225168,
            750.0
          ],
          [
            7.204731,
            47.225046,
            751.0
          ],
          [
            7.204731,
            47.225046,
            751.0
          ],
          [
            7.204731,
            47.22493,
            751.0
          ],
          [
            7.204857,
            47.223942,
            757.0
          ],
          [
            7.204955,
            47.223795,
            758.0
          ],
          [
            7.2051,
            47.223722,
            759.0
          ],
          [
            7.205225,
            47.223698,
            759.0
          ],
          [
            7.205351,
            47.223685,
            760.0
          ],
          [
            7.205297,
            47.223021,
            760.0
          ],
          [
            7.205288,
            47.222466,
            761.0
          ],
          [
            7.205207,
            47.222148,
            762.0
          ],
          [
            7.204902,
            47.221636,
            763.0
          ],
          [
            7.204902,
            47.221428,
            763.0
          ],
          [
            7.205037,
            47.221172,
            764.0
          ],
          [
            7.204884,
            47.221105,
            762.0
          ],
          [
            7.204273,
            47.220739,
            755.0
          ],
          [
            7.203959,
            47.220599,
            752.0
          ],
          [
            7.203896,
            47.220757,
            750.0
          ],
          [
            7.20386,
            47.220861,
            750.0
          ],
          [
            7.203788,
            47.22094,
            750.0
          ],
          [
            7.203725,
            47.220995,
            750.0
          ],
          [
            7.203626,
            47.22108,
            750.0
          ],
          [
            7.203546,
            47.221129,
            750.0
          ],
          [
            7.203186,
            47.221282,
            750.0
          ],
          [
            7.203051,
            47.22133,
            750.0
          ],
          [
            7.202944,
            47.221263,
            750.0
          ],
          [
            7.202854,
            47.221215,
            750.0
          ],
          [
            7.202701,
            47.221141,
            750.0
          ],
          [
            7.202477,
            47.221056,
            751.0
          ],
          [
            7.202162,
            47.220995,
            751.0
          ],
          [
            7.201749,
            47.220757,
            752.0
          ],
          [
            7.201668,
            47.22069,
            752.0
          ],
          [
            7.20156,
            47.220592,
            752.0
          ],
          [
            7.201129,
            47.220794,
            752.0
          ],
          [
            7.201083,
            47.220763,
            753.0
          ],
          [
            7.20103,
            47.220763,
            753.0
          ],
          [
            7.200967,
            47.220745,
            753.0
          ],
          [
            7.200563,
            47.220361,
            753.0
          ],
          [
            7.200303,
            47.220184,
            753.0
          ],
          [
            7.200141,
            47.220098,
            753.0
          ],
          [
            7.199952,
            47.220038,
            753.0
          ],
          [
            7.199718,
            47.219989,
            753.0
          ],
          [
            7.199638,
            47.21997,
            753.0
          ],
          [
            7.199611,
            47.219952,
            753.0
          ],
          [
            7.19962,
            47.219928,
            753.0
          ],
          [
            7.199538,
            47.219909,
            754.0
          ],
          [
            7.199494,
            47.219964,
            754.0
          ],
          [
            7.199485,
            47.220013,
            754.0
          ],
          [
            7.199351,
            47.220001,
            754.0
          ],
          [
            7.199242,
            47.220007,
            754.0
          ],
          [
            7.199135,
            47.220013,
            754.0
          ],
          [
            7.199009,
            47.220025,
            754.0
          ],
          [
            7.198758,
            47.220062,
            755.0
          ],
          [
            7.198659,
            47.220074,
            755.0
          ],
          [
            7.198542,
            47.22008,
            755.0
          ],
          [
            7.198416,
            47.220068,
            755.0
          ],
          [
            7.198309,
            47.220056,
            755.0
          ],
          [
            7.198236,
            47.220044,
            755.0
          ],
          [
            7.198146,
            47.220025,
            755.0
          ],
          [
            7.198066,
            47.220001,
            755.0
          ],
          [
            7.197957,
            47.219952,
            755.0
          ],
          [
            7.19785,
            47.219903,
            755.0
          ],
          [
            7.197796,
            47.219867,
            755.0
          ],
          [
            7.197697,
            47.219781,
            755.0
          ],
          [
            7.197653,
            47.21972,
            755.0
          ],
          [
            7.197598,
            47.219732,
            756.0
          ],
          [
            7.19741,
            47.219781,
            757.0
          ],
          [
            7.197095,
            47.21961,
            760.0
          ],
          [
            7.196799,
            47.219421,
            762.0
          ],
          [
            7.196018,
            47.218957,
            768.0
          ],
          [
            7.195829,
            47.21892,
            770.0
          ],
          [
            7.195686,
            47.218914,
            771.0
          ],
          [
            7.195514,
            47.218939,
            772.0
          ],
          [
            7.195362,
            47.218987,
            773.0
          ],
          [
            7.194921,
            47.219189,
            778.0
          ],
          [
            7.194338,
            47.21947,
            782.0
          ],
          [
            7.194104,
            47.219568,
            784.0
          ],
          [
            7.193546,
            47.219763,
            788.0
          ],
          [
            7.193296,
            47.219867,
            789.0
          ],
          [
            7.193125,
            47.219989,
            790.0
          ],
          [
            7.193053,
            47.220068,
            790.0
          ],
          [
            7.193017,
            47.220135,
            790.0
          ],
          [
            7.192883,
            47.220214,
            792.0
          ],
          [
            7.192766,
            47.220257,
            793.0
          ],
          [
            7.19264,
            47.220257,
            794.0
          ],
          [
            7.19246,
            47.220214,
            796.0
          ],
          [
            7.192208,
            47.22019,
            798.0
          ],
          [
            7.192028,
            47.220178,
            800.0
          ],
          [
            7.191508,
            47.220117,
            803.0
          ],
          [
            7.190718,
            47.219964,
            809.0
          ],
          [
            7.190277,
            47.219848,
            812.0
          ],
          [
            7.190089,
            47.219818,
            813.0
          ],
          [
            7.189648,
            47.219818,
            816.0
          ],
          [
            7.188912,
            47.219818,
            820.0
          ],
          [
            7.188571,
            47.219861,
            822.0
          ],
          [
            7.188246,
            47.219897,
            824.0
          ],
          [
            7.188032,
            47.219861,
            826.0
          ],
          [
            7.187915,
            47.219855,
            827.0
          ],
          [
            7.187762,
            47.219855,
            828.0
          ],
          [
            7.187502,
            47.219739,
            830.0
          ],
          [
            7.187233,
            47.219598,
            833.0
          ],
          [
            7.187017,
            47.219519,
            835.0
          ],
          [
            7.186837,
            47.219488,
            837.0
          ],
          [
            7.186612,
            47.219439,
            840.0
          ],
          [
            7.18637,
            47.219427,
            842.0
          ],
          [
            7.186172,
            47.219427,
            845.0
          ],
          [
            7.185596,
            47.219384,
            851.0
          ],
          [
            7.185156,
            47.219317,
            855.0
          ],
          [
            7.184852,
            47.219287,
            858.0
          ],
          [
            7.184591,
            47.21925,
            860.0
          ],
          [
            7.184304,
            47.219171,
            864.0
          ],
          [
            7.184088,
            47.219073,
            866.0
          ],
          [
            7.183845,
            47.219006,
            869.0
          ],
          [
            7.183575,
            47.218987,
            872.0
          ],
          [
            7.183271,
            47.218939,
            876.0
          ],
          [
            7.18292,
            47.218933,
            880.0
          ],
          [
            7.182696,
            47.218957,
            882.0
          ],
          [
            7.18247,
            47.218987,
            884.0
          ],
          [
            7.182256,
            47.219061,
            885.0
          ],
          [
            7.182084,
            47.219097,
            887.0
          ],
          [
            7.181941,
            47.219104,
            888.0
          ],
          [
            7.181717,
            47.219073,
            890.0
          ],
          [
            7.181518,
            47.219036,
            891.0
          ],
          [
            7.181114,
            47.219,
            894.0
          ],
          [
            7.180459,
            47.218975,
            898.0
          ],
          [
            7.179641,
            47.218957,
            905.0
          ],
          [
            7.179048,
            47.219006,
            910.0
          ],
          [
            7.17744,
            47.219116,
            922.0
          ],
          [
            7.175778,
            47.219366,
            935.0
          ],
          [
            7.174476,
            47.219525,
            942.0
          ],
          [
            7.172814,
            47.219684,
            949.0
          ],
          [
            7.171574,
            47.219836,
            954.0
          ],
          [
            7.170415,
            47.220013,
            959.0
          ],
          [
            7.170281,
            47.219983,
            957.0
          ],
          [
            7.170092,
            47.219928,
            954.0
          ],
          [
            7.169832,
            47.219879,
            951.0
          ],
          [
            7.169472,
            47.219824,
            947.0
          ],
          [
            7.169185,
            47.219806,
            944.0
          ],
          [
            7.168889,
            47.219793,
            941.0
          ],
          [
            7.1687,
            47.219751,
            939.0
          ],
          [
            7.16844,
            47.219647,
            934.0
          ],
          [
            7.168233,
            47.219543,
            929.0
          ],
          [
            7.168124,
            47.219445,
            924.0
          ],
          [
            7.168027,
            47.219323,
            920.0
          ],
          [
            7.167981,
            47.219256,
            918.0
          ],
          [
            7.167927,
            47.219262,
            918.0
          ],
          [
            7.167658,
            47.219213,
            919.0
          ],
          [
            7.166948,
            47.21922,
            919.0
          ],
          [
            7.166589,
            47.219238,
            919.0
          ],
          [
            7.165924,
            47.219256,
            920.0
          ],
          [
            7.165232,
            47.219329,
            921.0
          ],
          [
            7.164343,
            47.219403,
            930.0
          ],
          [
            7.16375,
            47.219366,
            931.0
          ],
          [
            7.16314,
            47.219305,
            932.0
          ],
          [
            7.162637,
            47.219256,
            932.0
          ],
          [
            7.162205,
            47.219134,
            933.0
          ],
          [
            7.161998,
            47.219158,
            935.0
          ],
          [
            7.161746,
            47.219195,
            937.0
          ],
          [
            7.161415,
            47.219268,
            939.0
          ],
          [
            7.161127,
            47.219305,
            942.0
          ],
          [
            7.16074,
            47.219372,
            947.0
          ],
          [
            7.160543,
            47.219403,
            949.0
          ],
          [
            7.160345,
            47.219464,
            949.0
          ],
          [
            7.160345,
            47.219464,
            949.0
          ],
          [
            7.160345,
            47.219464,
            951.0
          ],
          [
            7.160166,
            47.219543,
            954.0
          ],
          [
            7.160121,
            47.219586,
            955.0
          ],
          [
            7.159465,
            47.21972,
            965.0
          ],
          [
            7.158872,
            47.219757,
            969.0
          ],
          [
            7.158513,
            47.21972,
            972.0
          ],
          [
            7.158379,
            47.219671,
            973.0
          ],
          [
            7.158117,
            47.21947,
            978.0
          ],
          [
            7.157713,
            47.219201,
            982.0
          ],
          [
            7.157337,
            47.219067,
            984.0
          ],
          [
            7.156608,
            47.21878,
            988.0
          ],
          [
            7.15588,
            47.218756,
            995.0
          ],
          [
            7.155853,
            47.218768,
            996.0
          ],
          [
            7.155908,
            47.218884,
            996.0
          ],
          [
            7.156025,
            47.219195,
            995.0
          ],
          [
            7.156025,
            47.219323,
            994.0
          ],
          [
            7.155989,
            47.21947,
            994.0
          ],
          [
            7.155773,
            47.219842,
            993.0
          ],
          [
            7.155692,
            47.219995,
            992.0
          ],
          [
            7.155477,
            47.220281,
            991.0
          ],
          [
            7.155413,
            47.220416,
            991.0
          ],
          [
            7.155324,
            47.220458,
            995.0
          ],
          [
            7.15509,
            47.220385,
            995.0
          ],
          [
            7.154561,
            47.220153,
            996.0
          ],
          [
            7.154255,
            47.220038,
            996.0
          ],
          [
            7.154048,
            47.219989,
            996.0
          ],
          [
            7.153572,
            47.219958,
            996.0
          ],
          [
            7.153123,
            47.219922,
            997.0
          ],
          [
            7.151955,
            47.219757,
            997.0
          ],
          [
            7.150679,
            47.219568,
            998.0
          ],
          [
            7.149027,
            47.219323,
            999.0
          ],
          [
            7.147779,
            47.219116,
            1000.0
          ],
          [
            7.146861,
            47.219006,
            1002.0
          ],
          [
            7.145918,
            47.218896,
            1006.0
          ],
          [
            7.145129,
            47.218817,
            1009.0
          ],
          [
            7.144616,
            47.218798,
            1010.0
          ],
          [
            7.143997,
            47.218823,
            1010.0
          ],
          [
            7.142802,
            47.218859,
            1010.0
          ],
          [
            7.142146,
            47.218829,
            1010.0
          ],
          [
            7.140385,
            47.21878,
            1010.0
          ],
          [
            7.139756,
            47.218798,
            1010.0
          ],
          [
            7.139208,
            47.218835,
            1010.0
          ],
          [
            7.139145,
            47.218866,
            1010.0
          ],
          [
            7.139037,
            47.218841,
            1009.0
          ],
          [
            7.138192,
            47.218902,
            1007.0
          ],
          [
            7.137825,
            47.218957,
            1006.0
          ],
          [
            7.137465,
            47.219024,
            1005.0
          ],
          [
            7.13715,
            47.219073,
            1004.0
          ],
          [
            7.13698,
            47.219085,
            1003.0
          ],
          [
            7.136701,
            47.219085,
            1002.0
          ],
          [
            7.136288,
            47.219073,
            1001.0
          ],
          [
            7.135435,
            47.219055,
            1000.0
          ],
          [
            7.134663,
            47.219049,
            999.0
          ],
          [
            7.134016,
            47.219067,
            999.0
          ],
          [
            7.132992,
            47.219055,
            1000.0
          ],
          [
            7.132355,
            47.219042,
            1000.0
          ],
          [
            7.132076,
            47.219024,
            1000.0
          ],
          [
            7.13177,
            47.218994,
            1000.0
          ],
          [
            7.13107,
            47.218902,
            1000.0
          ],
          [
            7.130602,
            47.218847,
            1000.0
          ],
          [
            7.130305,
            47.218792,
            1000.0
          ],
          [
            7.130072,
            47.218725,
            1000.0
          ],
          [
            7.129928,
            47.21867,
            1000.0
          ],
          [
            7.129848,
            47.218634,
            1000.0
          ],
          [
            7.129615,
            47.218481,
            1000.0
          ],
          [
            7.129336,
            47.218341,
            1000.0
          ],
          [
            7.128734,
            47.218158,
            1000.0
          ],
          [
            7.12833,
            47.21806,
            999.0
          ],
          [
            7.128158,
            47.217999,
            999.0
          ],
          [
            7.128007,
            47.217902,
            999.0
          ],
          [
            7.127682,
            47.217658,
            998.0
          ],
          [
            7.127368,
            47.217444,
            998.0
          ],
          [
            7.127162,
            47.217365,
            998.0
          ],
          [
            7.126479,
            47.2172,
            997.0
          ],
          [
            7.126156,
            47.217145,
            996.0
          ],
          [
            7.125976,
            47.217133,
            996.0
          ],
          [
            7.125833,
            47.217152,
            996.0
          ],
          [
            7.125059,
            47.217713,
            994.0
          ],
          [
            7.124575,
            47.21803,
            994.0
          ],
          [
            7.123955,
            47.218347,
            993.0
          ],
          [
            7.123523,
            47.218597,
            992.0
          ],
          [
            7.123236,
            47.21878,
            992.0
          ],
          [
            7.122707,
            47.218951,
            991.0
          ],
          [
            7.122131,
            47.219018,
            991.0
          ],
          [
            7.121933,
            47.219036,
            990.0
          ],
          [
            7.121529,
            47.21914,
            990.0
          ],
          [
            7.120856,
            47.219207,
            984.0
          ],
          [
            7.119931,
            47.219378,
            974.0
          ],
          [
            7.118942,
            47.21961,
            962.0
          ],
          [
            7.118736,
            47.219659,
            959.0
          ],
          [
            7.118466,
            47.219696,
            957.0
          ],
          [
            7.117801,
            47.219757,
            951.0
          ],
          [
            7.117694,
            47.219763,
            950.0
          ],
          [
            7.117568,
            47.219763,
            949.0
          ],
          [
            7.117281,
            47.219726,
            947.0
          ],
          [
            7.117128,
            47.219708,
            946.0
          ],
          [
            7.116929,
            47.219677,
            945.0
          ],
          [
            7.116778,
            47.219745,
            942.0
          ],
          [
            7.116426,
            47.219867,
            938.0
          ],
          [
            7.115546,
            47.220123,
            924.0
          ],
          [
            7.115061,
            47.220251,
            918.0
          ],
          [
            7.114864,
            47.220233,
            916.0
          ],
          [
            7.114801,
            47.220288,
            915.0
          ],
          [
            7.114728,
            47.220349,
            914.0
          ],
          [
            7.11463,
            47.22041,
            913.0
          ],
          [
            7.114531,
            47.220458,
            911.0
          ],
          [
            7.114432,
            47.220501,
            910.0
          ],
          [
            7.114298,
            47.220538,
            909.0
          ],
          [
            7.114118,
            47.220574,
            908.0
          ],
          [
            7.113983,
            47.220592,
            906.0
          ],
          [
            7.113858,
            47.220611,
            905.0
          ],
          [
            7.113713,
            47.220617,
            904.0
          ],
          [
            7.113256,
            47.220617,
            900.0
          ],
          [
            7.112923,
            47.220617,
            898.0
          ],
          [
            7.112671,
            47.220617,
            897.0
          ],
          [
            7.112465,
            47.220617,
            896.0
          ],
          [
            7.112313,
            47.220641,
            895.0
          ],
          [
            7.112214,
            47.220684,
            894.0
          ],
          [
            7.111917,
            47.220958,
            891.0
          ],
          [
            7.111451,
            47.22152,
            888.0
          ],
          [
            7.111235,
            47.22166,
            887.0
          ],
          [
            7.11092,
            47.221819,
            888.0
          ],
          [
            7.110696,
            47.222234,
            888.0
          ],
          [
            7.11056,
            47.222313,
            888.0
          ],
          [
            7.110596,
            47.222344,
            887.0
          ],
          [
            7.110776,
            47.222521,
            880.0
          ],
          [
            7.110839,
            47.222515,
            880.0
          ],
          [
            7.110893,
            47.222527,
            880.0
          ],
          [
            7.111252,
            47.222606,
            880.0
          ],
          [
            7.111351,
            47.222624,
            879.0
          ],
          [
            7.111638,
            47.222685,
            879.0
          ],
          [
            7.112105,
            47.222746,
            878.0
          ],
          [
            7.112438,
            47.222765,
            878.0
          ],
          [
            7.112546,
            47.222801,
            878.0
          ],
          [
            7.112707,
            47.222923,
            878.0
          ],
          [
            7.112753,
            47.223063,
            877.0
          ],
          [
            7.112753,
            47.223118,
            877.0
          ],
          [
            7.112977,
            47.223124,
            877.0
          ],
          [
            7.11322,
            47.223137,
            877.0
          ]
        ]
      }
    }
  ]
}