{
  "type": "FeatureCollection",
  "features": [
    {
      "type": "Feature",
      "properties": {},
      "geometry": {
        "type": "LineString",
        "coordinates": [
          [
            8.722184,
            47.156492,
            838.0
          ],
          [
            8.722068,
            47.156323,
            838.0
          ],
          [
            8.722086,
            47.156172,
            838.0
          ],
          [
            8.722068,
            47.156072,
            838.0
          ],
          [
            8.722021,
            47.155986,
            838.0
          ],
          [
            8.721991,
            47.155896,
            838.0
          ],
          [
            8.721984,
            47.155795,
            838.0
          ],
          [
            8.722037,
            47.155695,
            838.0
          ],
          [
            8.722064,
            47.155599,
            838.0
          ],
          [
            8.722026,
            47.155504,
            838.0
          ],
          [
            8.721987,
            47.155409,
            838.0
          ],
          [
            8.721925,
            47.155321,
            831.0
          ],
          [
            8.721841,
            47.155234,
            831.0
          ],
          [
            8.721748,
            47.155158,
            830.0
          ],
          [
            8.721684,
            47.15506,
            832.0
          ],
          [
            8.721626,
            47.154977,
            833.0
          ],
          [
            8.721555,
            47.154892,
            836.0
          ],
          [
            8.721499,
            47.154801,
            838.0
          ],
          [
            8.721461,
            47.154713,
            839.0
          ],
          [
            8.721428,
            47.154615,
            839.0
          ],
          [
            8.72138,
            47.154521,
            838.0
          ],
          [
            8.721339,
            47.154432,
            837.0
          ],
          [
            8.72131,
            47.154343,
            836.0
          ],
          [
            8.721255,
            47.15426,
            835.0
          ],
          [
            8.7212,
            47.154176,
            833.0
          ],
          [
            8.72113,
            47.154099,
            832.0
          ],
          [
            8.72106,
            47.15402,
            828.0
          ],
          [
            8.720942,
            47.153976,
            827.0
          ],
          [
            8.7208,
            47.153993,
            827.0
          ],
          [
            8.720674,
            47.154026,
            826.0
          ],
          [
            8.720547,
            47.154061,
            826.0
          ],
          [
            8.72032,
            47.154168,
            826.0
          ],
          [
            8.720102,
            47.154291,
            828.0
          ],
          [
            8.719994,
            47.154365,
            831.0
          ],
          [
            8.719895,
            47.154433,
            834.0
          ],
          [
            8.719816,
            47.154512,
            835.0
          ],
          [
            8.71971,
            47.15459,
            838.0
          ],
          [
            8.719627,
            47.15467,
            840.0
          ],
          [
            8.719557,
            47.154757,
            843.0
          ],
          [
            8.719466,
            47.154835,
            845.0
          ],
          [
            8.719379,
            47.154923,
            847.0
          ],
          [
            8.719292,
            47.155007,
            849.0
          ],
          [
            8.719207,
            47.155091,
            851.0
          ],
          [
            8.71912,
            47.155161,
            853.0
          ],
          [
            8.719022,
            47.155234,
            855.0
          ],
          [
            8.718936,
            47.155323,
            856.0
          ],
          [
            8.718862,
            47.155415,
            858.0
          ],
          [
            8.718789,
            47.155503,
            861.0
          ],
          [
            8.718697,
            47.155582,
            861.0
          ],
          [
            8.7186,
            47.15566,
            862.0
          ],
          [
            8.718518,
            47.155744,
            862.0
          ],
          [
            8.718436,
            47.155828,
            862.0
          ],
          [
            8.718337,
            47.155896,
            863.0
          ],
          [
            8.718247,
            47.155969,
            862.0
          ],
          [
            8.718168,
            47.156054,
            862.0
          ],
          [
            8.718085,
            47.156125,
            862.0
          ],
          [
            8.718004,
            47.156205,
            862.0
          ],
          [
            8.717932,
            47.15629,
            862.0
          ],
          [
            8.717853,
            47.156363,
            861.0
          ],
          [
            8.717749,
            47.156426,
            862.0
          ],
          [
            8.717633,
            47.156479,
            862.0
          ],
          [
            8.7175,
            47.156528,
            863.0
          ],
          [
            8.717384,
            47.156585,
            866.0
          ],
          [
            8.717301,
            47.156656,
            871.0
          ],
          [
            8.717209,
            47.156723,
            880.0
          ],
          [
            8.717096,
            47.156778,
            883.0
          ],
          [
            8.716986,
            47.156834,
            884.0
          ],
          [
            8.71688,
            47.156896,
            882.0
          ],
          [
            8.716756,
            47.156933,
            881.0
          ],
          [
            8.71666,
            47.156999,
            879.0
          ],
          [
            8.716568,
            47.157076,
            877.0
          ],
          [
            8.716427,
            47.157074,
            864.0
          ],
          [
            8.716298,
            47.157052,
            859.0
          ],
          [
            8.716161,
            47.15701,
            849.0
          ],
          [
            8.716027,
            47.156977,
            841.0
          ],
          [
            8.715878,
            47.156968,
            838.0
          ],
          [
            8.715743,
            47.156955,
            833.0
          ],
          [
            8.715601,
            47.15693,
            830.0
          ],
          [
            8.715472,
            47.156899,
            830.0
          ],
          [
            8.71522,
            47.156795,
            827.0
          ],
          [
            8.715105,
            47.156616,
            821.0
          ],
          [
            8.71494,
            47.15646,
            815.0
          ],
          [
            8.714846,
            47.156387,
            830.0
          ],
          [
            8.714858,
            47.156283,
            830.0
          ],
          [
            8.714847,
            47.156184,
            830.0
          ],
          [
            8.714949,
            47.156008,
            830.0
          ],
          [
            8.714797,
            47.155857,
            830.0
          ],
          [
            8.714688,
            47.155748,
            830.0
          ],
          [
            8.714604,
            47.155635,
            830.0
          ],
          [
            8.714553,
            47.155545,
            830.0
          ],
          [
            8.714486,
            47.155463,
            830.0
          ],
          [
            8.714421,
            47.155384,
            830.0
          ],
          [
            8.714257,
            47.155229,
            830.0
          ],
          [
            8.714018,
            47.15514,
            830.0
          ],
          [
            8.713765,
            47.155196,
            824.0
          ],
          [
            8.713635,
            47.155247,
            824.0
          ],
          [
            8.713489,
            47.155256,
            824.0
          ],
          [
            8.713345,
            47.155271,
            823.0
          ],
          [
            8.713206,
            47.155295,
            823.0
          ],
          [
            8.713086,
            47.155335,
            820.0
          ],
          [
            8.712933,
            47.155353,
            819.0
          ],
          [
            8.712802,
            47.155341,
            822.0
          ],
          [
            8.712705,
            47.155418,
            819.0
          ],
          [
            8.712652,
            47.15551,
            822.0
          ],
          [
            8.712528,
            47.155581,
            825.0
          ],
          [
            8.712386,
            47.155594,
            828.0
          ],
          [
            8.71224,
            47.155619,
            829.0
          ],
          [
            8.712098,
            47.15561,
            830.0
          ],
          [
            8.711985,
            47.155553,
            831.0
          ],
          [
            8.711913,
            47.155474,
            832.0
          ],
          [
            8.711787,
            47.15541,
            832.0
          ],
          [
            8.711674,
            47.155355,
            836.0
          ],
          [
            8.711568,
            47.155296,
            840.0
          ],
          [
            8.711443,
            47.15525,
            842.0
          ],
          [
            8.711341,
            47.155182,
            841.0
          ],
          [
            8.711315,
            47.155083,
            844.0
          ],
          [
            8.711261,
            47.154997,
            846.0
          ],
          [
            8.711234,
            47.154893,
            842.0
          ],
          [
            8.711218,
            47.154785,
            838.0
          ],
          [
            8.711234,
            47.154696,
            840.0
          ],
          [
            8.711261,
            47.154595,
            841.0
          ],
          [
            8.711248,
            47.154501,
            840.0
          ],
          [
            8.711252,
            47.154409,
            840.0
          ],
          [
            8.711233,
            47.154303,
            841.0
          ],
          [
            8.711229,
            47.154213,
            842.0
          ],
          [
            8.711198,
            47.154108,
            840.0
          ],
          [
            8.711148,
            47.154021,
            840.0
          ],
          [
            8.711101,
            47.153926,
            843.0
          ],
          [
            8.711061,
            47.153829,
            847.0
          ],
          [
            8.711077,
            47.153736,
            847.0
          ],
          [
            8.711103,
            47.153639,
            843.0
          ],
          [
            8.711158,
            47.153444,
            833.0
          ],
          [
            8.711234,
            47.153261,
            832.0
          ],
          [
            8.711364,
            47.153102,
            831.0
          ],
          [
            8.711628,
            47.153029,
            834.0
          ],
          [
            8.711835,
            47.152897,
            832.0
          ],
          [
            8.711881,
            47.152718,
            833.0
          ],
          [
            8.711801,
            47.152544,
            832.0
          ],
          [
            8.711616,
            47.152414,
            831.0
          ],
          [
            8.711524,
            47.152244,
            829.0
          ],
          [
            8.711371,
            47.152084,
            833.0
          ],
          [
            8.711132,
            47.152004,
            838.0
          ],
          [
            8.710848,
            47.151987,
            840.0
          ],
          [
            8.710581,
            47.151973,
            841.0
          ],
          [
            8.710447,
            47.151945,
            842.0
          ],
          [
            8.710321,
            47.151913,
            842.0
          ],
          [
            8.710195,
            47.151865,
            844.0
          ],
          [
            8.709955,
            47.151785,
            844.0
          ],
          [
            8.70979,
            47.151649,
            840.0
          ],
          [
            8.709695,
            47.151581,
            836.0
          ],
          [
            8.70956,
            47.151523,
            831.0
          ],
          [
            8.709442,
            47.151478,
            826.0
          ],
          [
            8.709287,
            47.151461,
            821.0
          ],
          [
            8.709147,
            47.15147,
            815.0
          ],
          [
            8.708995,
            47.151474,
            805.0
          ],
          [
            8.708858,
            47.151472,
            801.0
          ],
          [
            8.708718,
            47.151477,
            796.0
          ],
          [
            8.708577,
            47.151497,
            794.0
          ],
          [
            8.708441,
            47.151494,
            792.0
          ],
          [
            8.708307,
            47.151499,
            793.0
          ],
          [
            8.70817,
            47.15151,
            793.0
          ],
          [
            8.70803,
            47.151509,
            793.0
          ],
          [
            8.707896,
            47.151513,
            793.0
          ],
          [
            8.707759,
            47.151517,
            792.0
          ],
          [
            8.707612,
            47.151494,
            790.0
          ],
          [
            8.707478,
            47.151486,
            787.0
          ],
          [
            8.707346,
            47.151478,
            784.0
          ],
          [
            8.707201,
            47.151475,
            783.0
          ],
          [
            8.70707,
            47.151465,
            782.0
          ],
          [
            8.706936,
            47.151473,
            782.0
          ],
          [
            8.706784,
            47.15147,
            783.0
          ],
          [
            8.706654,
            47.151448,
            784.0
          ],
          [
            8.706512,
            47.151411,
            785.0
          ],
          [
            8.706386,
            47.151352,
            786.0
          ],
          [
            8.70628,
            47.151273,
            789.0
          ],
          [
            8.70621,
            47.151193,
            793.0
          ],
          [
            8.706127,
            47.151112,
            795.0
          ],
          [
            8.706058,
            47.151018,
            798.0
          ],
          [
            8.706003,
            47.15093,
            803.0
          ],
          [
            8.705993,
            47.150839,
            812.0
          ],
          [
            8.705961,
            47.150748,
            824.0
          ],
          [
            8.705914,
            47.150663,
            835.0
          ],
          [
            8.705862,
            47.150578,
            840.0
          ],
          [
            8.705804,
            47.150492,
            845.0
          ],
          [
            8.705702,
            47.150417,
            850.0
          ],
          [
            8.705599,
            47.15036,
            853.0
          ],
          [
            8.705474,
            47.150308,
            856.0
          ],
          [
            8.705341,
            47.150258,
            859.0
          ],
          [
            8.70521,
            47.150238,
            861.0
          ],
          [
            8.705081,
            47.150259,
            863.0
          ],
          [
            8.704928,
            47.150273,
            863.0
          ],
          [
            8.7048,
            47.150301,
            863.0
          ],
          [
            8.704664,
            47.150306,
            863.0
          ],
          [
            8.704513,
            47.150341,
            864.0
          ],
          [
            8.704382,
            47.150371,
            863.0
          ],
          [
            8.704255,
            47.150415,
            859.0
          ],
          [
            8.704144,
            47.150466,
            858.0
          ],
          [
            8.704,
            47.150481,
            854.0
          ],
          [
            8.703878,
            47.150521,
            851.0
          ],
          [
            8.703763,
            47.150568,
            848.0
          ],
          [
            8.70363,
            47.150595,
            848.0
          ],
          [
            8.703508,
            47.150631,
            846.0
          ],
          [
            8.703377,
            47.150635,
            844.0
          ],
          [
            8.703237,
            47.150603,
            844.0
          ],
          [
            8.703103,
            47.150601,
            841.0
          ],
          [
            8.70296,
            47.150639,
            838.0
          ],
          [
            8.702831,
            47.15066,
            839.0
          ],
          [
            8.702678,
            47.150664,
            837.0
          ],
          [
            8.70253,
            47.150648,
            834.0
          ],
          [
            8.702396,
            47.150652,
            832.0
          ],
          [
            8.701203,
            47.149238,
            872.0
          ],
          [
            8.700943,
            47.149302,
            875.0
          ],
          [
            8.70081,
            47.149333,
            875.0
          ],
          [
            8.700662,
            47.149353,
            876.0
          ],
          [
            8.700531,
            47.149366,
            877.0
          ],
          [
            8.700394,
            47.149356,
            879.0
          ],
          [
            8.700271,
            47.149301,
            879.0
          ],
          [
            8.700163,
            47.149245,
            879.0
          ],
          [
            8.700035,
            47.149194,
            878.0
          ],
          [
            8.699917,
            47.14915,
            879.0
          ],
          [
            8.699801,
            47.149094,
            878.0
          ],
          [
            8.699681,
            47.149059,
            878.0
          ],
          [
            8.69955,
            47.149033,
            878.0
          ],
          [
            8.699398,
            47.148998,
            878.0
          ],
          [
            8.699268,
            47.148971,
            877.0
          ],
          [
            8.69912,
            47.148966,
            876.0
          ],
          [
            8.698981,
            47.148935,
            876.0
          ],
          [
            8.698742,
            47.148834,
            877.0
          ],
          [
            8.698598,
            47.148663,
            877.0
          ],
          [
            8.698427,
            47.148523,
            877.0
          ],
          [
            8.698254,
            47.148373,
            876.0
          ],
          [
            8.69813,
            47.148313,
            877.0
          ],
          [
            8.69803,
            47.148247,
            877.0
          ],
          [
            8.69791,
            47.148194,
            877.0
          ],
          [
            8.697681,
            47.148102,
            878.0
          ],
          [
            8.697432,
            47.148015,
            879.0
          ],
          [
            8.697271,
            47.147965,
            881.0
          ],
          [
            8.697155,
            47.14792,
            881.0
          ],
          [
            8.697022,
            47.147898,
            881.0
          ],
          [
            8.696878,
            47.147884,
            881.0
          ],
          [
            8.696744,
            47.147875,
            881.0
          ],
          [
            8.696611,
            47.147874,
            882.0
          ],
          [
            8.696473,
            47.147878,
            883.0
          ],
          [
            8.696208,
            47.14789,
            882.0
          ],
          [
            8.695947,
            47.147925,
            880.0
          ],
          [
            8.695795,
            47.147941,
            880.0
          ],
          [
            8.695657,
            47.14797,
            881.0
          ],
          [
            8.69552,
            47.147998,
            883.0
          ],
          [
            8.695377,
            47.148017,
            884.0
          ],
          [
            8.695224,
            47.148016,
            884.0
          ],
          [
            8.695082,
            47.147989,
            885.0
          ],
          [
            8.694959,
            47.147938,
            886.0
          ],
          [
            8.694863,
            47.147867,
            886.0
          ],
          [
            8.6947,
            47.147725,
            885.0
          ],
          [
            8.69459,
            47.147655,
            885.0
          ],
          [
            8.694477,
            47.147581,
            884.0
          ],
          [
            8.694374,
            47.147511,
            883.0
          ],
          [
            8.694268,
            47.147453,
            883.0
          ],
          [
            8.694143,
            47.147413,
            883.0
          ],
          [
            8.694002,
            47.147403,
            882.0
          ],
          [
            8.693866,
            47.147407,
            883.0
          ],
          [
            8.693721,
            47.147387,
            884.0
          ],
          [
            8.693569,
            47.147366,
            885.0
          ],
          [
            8.693438,
            47.14736,
            885.0
          ],
          [
            8.693294,
            47.147364,
            886.0
          ],
          [
            8.69314,
            47.147381,
            886.0
          ],
          [
            8.692999,
            47.147387,
            885.0
          ],
          [
            8.692869,
            47.147363,
            886.0
          ],
          [
            8.692722,
            47.147334,
            888.0
          ],
          [
            8.692586,
            47.147282,
            889.0
          ],
          [
            8.692455,
            47.147244,
            889.0
          ],
          [
            8.692317,
            47.14723,
            890.0
          ],
          [
            8.69219,
            47.147175,
            890.0
          ],
          [
            8.692066,
            47.147115,
            889.0
          ],
          [
            8.691946,
            47.147059,
            889.0
          ],
          [
            8.691843,
            47.147,
            889.0
          ],
          [
            8.691701,
            47.146959,
            888.0
          ],
          [
            8.691567,
            47.14692,
            887.0
          ],
          [
            8.691423,
            47.14688,
            887.0
          ],
          [
            8.691293,
            47.146837,
            888.0
          ],
          [
            8.691202,
            47.14677,
            888.0
          ],
          [
            8.691126,
            47.14669,
            885.0
          ],
          [
            8.691036,
            47.146607,
            881.0
          ],
          [
            8.690943,
            47.146531,
            879.0
          ],
          [
            8.690836,
            47.146461,
            878.0
          ],
          [
            8.690762,
            47.146381,
            878.0
          ],
          [
            8.690691,
            47.146291,
            876.0
          ],
          [
            8.690607,
            47.146212,
            876.0
          ],
          [
            8.690501,
            47.146156,
            877.0
          ],
          [
            8.690385,
            47.146093,
            879.0
          ],
          [
            8.690281,
            47.146027,
            879.0
          ],
          [
            8.690194,
            47.145945,
            879.0
          ],
          [
            8.69009,
            47.145869,
            880.0
          ],
          [
            8.689995,
            47.145799,
            881.0
          ],
          [
            8.689908,
            47.145712,
            881.0
          ],
          [
            8.689823,
            47.145631,
            882.0
          ],
          [
            8.689736,
            47.145549,
            883.0
          ],
          [
            8.68965,
            47.145471,
            883.0
          ],
          [
            8.689544,
            47.1454,
            883.0
          ],
          [
            8.689453,
            47.145319,
            884.0
          ],
          [
            8.689359,
            47.145242,
            885.0
          ],
          [
            8.689278,
            47.145155,
            884.0
          ],
          [
            8.689196,
            47.145077,
            885.0
          ],
          [
            8.68913,
            47.144998,
            887.0
          ],
          [
            8.689072,
            47.144906,
            888.0
          ],
          [
            8.689015,
            47.144812,
            889.0
          ],
          [
            8.68895,
            47.14472,
            888.0
          ],
          [
            8.688858,
            47.144646,
            888.0
          ],
          [
            8.688775,
            47.144566,
            888.0
          ],
          [
            8.688678,
            47.144494,
            888.0
          ],
          [
            8.688584,
            47.144422,
            889.0
          ],
          [
            8.688474,
            47.144346,
            890.0
          ],
          [
            8.688411,
            47.144264,
            891.0
          ],
          [
            8.688362,
            47.144171,
            890.0
          ],
          [
            8.688311,
            47.144082,
            889.0
          ],
          [
            8.688211,
            47.144014,
            889.0
          ],
          [
            8.688116,
            47.143951,
            888.0
          ],
          [
            8.688,
            47.143887,
            887.0
          ],
          [
            8.6879,
            47.143818,
            891.0
          ],
          [
            8.687687,
            47.143707,
            894.0
          ],
          [
            8.687485,
            47.143583,
            897.0
          ],
          [
            8.687413,
            47.143493,
            898.0
          ],
          [
            8.687416,
            47.143393,
            899.0
          ],
          [
            8.687344,
            47.143318,
            898.0
          ],
          [
            8.687295,
            47.143221,
            898.0
          ],
          [
            8.687275,
            47.143129,
            899.0
          ],
          [
            8.687191,
            47.14305,
            901.0
          ],
          [
            8.687121,
            47.142964,
            902.0
          ],
          [
            8.687066,
            47.14287,
            903.0
          ],
          [
            8.687063,
            47.14278,
            901.0
          ],
          [
            8.687049,
            47.142689,
            897.0
          ],
          [
            8.68709,
            47.142598,
            904.0
          ],
          [
            8.687173,
            47.142522,
            908.0
          ],
          [
            8.687435,
            47.142455,
            917.0
          ],
          [
            8.687564,
            47.142477,
            921.0
          ],
          [
            8.687706,
            47.142494,
            923.0
          ],
          [
            8.68784,
            47.142489,
            926.0
          ],
          [
            8.687965,
            47.142446,
            930.0
          ],
          [
            8.688073,
            47.142394,
            931.0
          ],
          [
            8.688148,
            47.142317,
            932.0
          ],
          [
            8.688234,
            47.142236,
            935.0
          ],
          [
            8.688378,
            47.142192,
            933.0
          ],
          [
            8.688523,
            47.14217,
            934.0
          ],
          [
            8.688785,
            47.142122,
            936.0
          ],
          [
            8.688848,
            47.141954,
            936.0
          ],
          [
            8.688773,
            47.141869,
            934.0
          ],
          [
            8.688701,
            47.141794,
            932.0
          ],
          [
            8.688623,
            47.141716,
            931.0
          ],
          [
            8.688549,
            47.141637,
            930.0
          ],
          [
            8.688449,
            47.141574,
            928.0
          ],
          [
            8.688372,
            47.141486,
            926.0
          ],
          [
            8.688303,
            47.141399,
            926.0
          ],
          [
            8.688202,
            47.14132,
            926.0
          ],
          [
            8.688093,
            47.141263,
            926.0
          ],
          [
            8.687965,
            47.141209,
            926.0
          ],
          [
            8.687852,
            47.141152,
            926.0
          ],
          [
            8.687751,
            47.141082,
            925.0
          ],
          [
            8.687652,
            47.141009,
            925.0
          ],
          [
            8.687556,
            47.140933,
            924.0
          ],
          [
            8.687468,
            47.140858,
            923.0
          ],
          [
            8.687404,
            47.14077,
            921.0
          ],
          [
            8.687329,
            47.140691,
            921.0
          ],
          [
            8.687246,
            47.140614,
            920.0
          ],
          [
            8.687163,
            47.14053,
            919.0
          ],
          [
            8.687078,
            47.140453,
            919.0
          ],
          [
            8.687002,
            47.140378,
            920.0
          ],
          [
            8.686905,
            47.140299,
            921.0
          ],
          [
            8.686809,
            47.140214,
            920.0
          ],
          [
            8.686713,
            47.140126,
            921.0
          ],
          [
            8.686628,
            47.140039,
            922.0
          ],
          [
            8.686534,
            47.139963,
            923.0
          ],
          [
            8.686451,
            47.13989,
            923.0
          ],
          [
            8.686367,
            47.139801,
            921.0
          ],
          [
            8.6863,
            47.139722,
            921.0
          ],
          [
            8.686219,
            47.139649,
            921.0
          ],
          [
            8.686157,
            47.139565,
            920.0
          ],
          [
            8.686145,
            47.139461,
            918.0
          ],
          [
            8.686103,
            47.139362,
            918.0
          ],
          [
            8.686107,
            47.139262,
            918.0
          ],
          [
            8.686105,
            47.139161,
            917.0
          ],
          [
            8.686094,
            47.139066,
            917.0
          ],
          [
            8.686115,
            47.138965,
            915.0
          ],
          [
            8.686123,
            47.138864,
            916.0
          ],
          [
            8.686102,
            47.138775,
            916.0
          ],
          [
            8.686111,
            47.138681,
            914.0
          ],
          [
            8.686143,
            47.138582,
            915.0
          ],
          [
            8.68628,
            47.138562,
            917.0
          ],
          [
            8.686422,
            47.138533,
            918.0
          ],
          [
            8.68653,
            47.138454,
            920.0
          ],
          [
            8.686642,
            47.138401,
            922.0
          ],
          [
            8.686652,
            47.138296,
            920.0
          ],
          [
            8.686709,
            47.138199,
            919.0
          ],
          [
            8.686822,
            47.138148,
            917.0
          ],
          [
            8.686948,
            47.138117,
            916.0
          ],
          [
            8.687074,
            47.138083,
            915.0
          ],
          [
            8.687203,
            47.138009,
            914.0
          ],
          [
            8.68735,
            47.137971,
            913.0
          ],
          [
            8.687494,
            47.137988,
            913.0
          ],
          [
            8.687552,
            47.137904,
            913.0
          ],
          [
            8.687604,
            47.137812,
            911.0
          ],
          [
            8.687632,
            47.137713,
            911.0
          ],
          [
            8.687713,
            47.137638,
            910.0
          ],
          [
            8.687848,
            47.137595,
            909.0
          ],
          [
            8.687941,
            47.137511,
            908.0
          ],
          [
            8.688052,
            47.137445,
            907.0
          ],
          [
            8.688112,
            47.137361,
            906.0
          ],
          [
            8.688197,
            47.13728,
            905.0
          ],
          [
            8.688211,
            47.137185,
            905.0
          ],
          [
            8.688214,
            47.137084,
            905.0
          ],
          [
            8.688277,
            47.136983,
            905.0
          ],
          [
            8.688343,
            47.136903,
            906.0
          ],
          [
            8.688355,
            47.136803,
            905.0
          ],
          [
            8.688321,
            47.136712,
            903.0
          ],
          [
            8.688287,
            47.136623,
            900.0
          ],
          [
            8.688202,
            47.13654,
            899.0
          ],
          [
            8.688095,
            47.136461,
            897.0
          ],
          [
            8.688046,
            47.136356,
            893.0
          ],
          [
            8.688048,
            47.136225,
            892.0
          ],
          [
            8.687937,
            47.136057,
            887.0
          ],
          [
            8.687843,
            47.135981,
            886.0
          ],
          [
            8.6876,
            47.135932,
            886.0
          ],
          [
            8.68747,
            47.135956,
            886.0
          ],
          [
            8.687368,
            47.136016,
            886.0
          ],
          [
            8.68723,
            47.136064,
            887.0
          ],
          [
            8.686955,
            47.136095,
            885.0
          ],
          [
            8.6867,
            47.136034,
            883.0
          ],
          [
            8.686455,
            47.135942,
            883.0
          ],
          [
            8.686252,
            47.135968,
            885.0
          ],
          [
            8.686209,
            47.13606,
            885.0
          ],
          [
            8.686149,
            47.136142,
            886.0
          ],
          [
            8.68608,
            47.136219,
            886.0
          ],
          [
            8.685977,
            47.136278,
            887.0
          ],
          [
            8.685745,
            47.136365,
            894.0
          ],
          [
            8.685614,
            47.136404,
            898.0
          ],
          [
            8.685512,
            47.136472,
            901.0
          ],
          [
            8.685376,
            47.136509,
            901.0
          ],
          [
            8.685237,
            47.136547,
            904.0
          ],
          [
            8.6851,
            47.136569,
            905.0
          ],
          [
            8.684963,
            47.136582,
            906.0
          ],
          [
            8.684828,
            47.136612,
            908.0
          ],
          [
            8.684699,
            47.136648,
            910.0
          ],
          [
            8.684578,
            47.136693,
            912.0
          ],
          [
            8.684447,
            47.136717,
            913.0
          ],
          [
            8.684316,
            47.136757,
            916.0
          ],
          [
            8.684196,
            47.136799,
            918.0
          ],
          [
            8.684079,
            47.136844,
            920.0
          ],
          [
            8.683941,
            47.136846,
            923.0
          ],
          [
            8.683853,
            47.136772,
            928.0
          ],
          [
            8.683787,
            47.136686,
            940.0
          ],
          [
            8.683716,
            47.136603,
            945.0
          ],
          [
            8.683621,
            47.136528,
            950.0
          ],
          [
            8.683492,
            47.136493,
            953.0
          ],
          [
            8.683353,
            47.136487,
            951.0
          ],
          [
            8.683219,
            47.136521,
            950.0
          ],
          [
            8.683095,
            47.136578,
            949.0
          ],
          [
            8.682985,
            47.136629,
            947.0
          ],
          [
            8.682844,
            47.136632,
            951.0
          ],
          [
            8.682746,
            47.13656,
            960.0
          ],
          [
            8.682624,
            47.1365,
            965.0
          ],
          [
            8.68247,
            47.136481,
            964.0
          ],
          [
            8.682337,
            47.136458,
            963.0
          ],
          [
            8.682222,
            47.136402,
            962.0
          ],
          [
            8.682269,
            47.136311,
            960.0
          ],
          [
            8.682226,
            47.136216,
            958.0
          ],
          [
            8.682134,
            47.136136,
            958.0
          ],
          [
            8.682044,
            47.136058,
            957.0
          ],
          [
            8.681959,
            47.135987,
            956.0
          ],
          [
            8.681873,
            47.135913,
            956.0
          ],
          [
            8.681798,
            47.135832,
            956.0
          ],
          [
            8.681711,
            47.135758,
            955.0
          ],
          [
            8.68162,
            47.135677,
            954.0
          ],
          [
            8.681523,
            47.135613,
            955.0
          ],
          [
            8.681407,
            47.135553,
            955.0
          ],
          [
            8.681188,
            47.135439,
            956.0
          ],
          [
            8.681075,
            47.135371,
            955.0
          ],
          [
            8.680979,
            47.135293,
            953.0
          ],
          [
            8.680787,
            47.135148,
            952.0
          ],
          [
            8.680598,
            47.135017,
            949.0
          ],
          [
            8.680366,
            47.134914,
            948.0
          ],
          [
            8.680189,
            47.134779,
            948.0
          ],
          [
            8.680045,
            47.134627,
            947.0
          ],
          [
            8.67994,
            47.134446,
            946.0
          ],
          [
            8.679754,
            47.134291,
            946.0
          ],
          [
            8.679606,
            47.134128,
            946.0
          ],
          [
            8.679437,
            47.133978,
            946.0
          ],
          [
            8.679315,
            47.133817,
            945.0
          ],
          [
            8.679194,
            47.133639,
            943.0
          ],
          [
            8.679024,
            47.133501,
            941.0
          ],
          [
            8.678847,
            47.133358,
            941.0
          ],
          [
            8.678669,
            47.133204,
            940.0
          ],
          [
            8.67848,
            47.133059,
            940.0
          ],
          [
            8.678372,
            47.132984,
            939.0
          ],
          [
            8.678267,
            47.132909,
            939.0
          ],
          [
            8.678058,
            47.132788,
            939.0
          ],
          [
            8.677858,
            47.132667,
            938.0
          ],
          [
            8.677648,
            47.132543,
            937.0
          ],
          [
            8.67744,
            47.132426,
            935.0
          ],
          [
            8.677228,
            47.13229,
            934.0
          ],
          [
            8.677025,
            47.132168,
            932.0
          ],
          [
            8.676815,
            47.132052,
            931.0
          ],
          [
            8.676679,
            47.131891,
            930.0
          ],
          [
            8.676607,
            47.131712,
            929.0
          ],
          [
            8.676505,
            47.131541,
            927.0
          ],
          [
            8.676407,
            47.13137,
            923.0
          ],
          [
            8.676179,
            47.131248,
            922.0
          ],
          [
            8.675946,
            47.131138,
            922.0
          ],
          [
            8.675736,
            47.131013,
            921.0
          ],
          [
            8.675569,
            47.13087,
            921.0
          ],
          [
            8.675396,
            47.130716,
            920.0
          ],
          [
            8.675243,
            47.130564,
            919.0
          ],
          [
            8.675087,
            47.130417,
            920.0
          ],
          [
            8.674928,
            47.130269,
            920.0
          ],
          [
            8.67481,
            47.130108,
            921.0
          ],
          [
            8.67466,
            47.129946,
            920.0
          ],
          [
            8.674492,
            47.129791,
            918.0
          ],
          [
            8.674499,
            47.1296,
            919.0
          ],
          [
            8.674554,
            47.129417,
            919.0
          ],
          [
            8.67459,
            47.129231,
            916.0
          ],
          [
            8.674642,
            47.129052,
            916.0
          ],
          [
            8.674713,
            47.128871,
            915.0
          ],
          [
            8.674779,
            47.128683,
            914.0
          ],
          [
            8.674853,
            47.128497,
            912.0
          ],
          [
            8.674918,
            47.12832,
            912.0
          ],
          [
            8.674955,
            47.128129,
            912.0
          ],
          [
            8.674894,
            47.127948,
            912.0
          ],
          [
            8.674815,
            47.127768,
            911.0
          ],
          [
            8.67474,
            47.12758,
            912.0
          ],
          [
            8.67468,
            47.127397,
            912.0
          ],
          [
            8.674619,
            47.127215,
            911.0
          ],
          [
            8.674543,
            47.127041,
            911.0
          ],
          [
            8.674473,
            47.126866,
            910.0
          ],
          [
            8.674405,
            47.126677,
            909.0
          ],
          [
            8.674407,
            47.126496,
            908.0
          ],
          [
            8.674466,
            47.126304,
            907.0
          ],
          [
            8.674529,
            47.126122,
            906.0
          ],
          [
            8.674595,
            47.125936,
            905.0
          ],
          [
            8.674646,
            47.125746,
            905.0
          ],
          [
            8.674692,
            47.12556,
            905.0
          ],
          [
            8.674709,
            47.125443,
            905.0
          ],
          [
            8.67478,
            47.12527,
            905.0
          ],
          [
            8.674834,
            47.125091,
            905.0
          ],
          [
            8.674889,
            47.124913,
            906.0
          ],
          [
            8.674956,
            47.124723,
            906.0
          ],
          [
            8.675003,
            47.124538,
            906.0
          ],
          [
            8.675028,
            47.124352,
            906.0
          ],
          [
            8.675044,
            47.124161,
            905.0
          ],
          [
            8.675058,
            47.123965,
            904.0
          ],
          [
            8.675069,
            47.123773,
            903.0
          ],
          [
            8.67507,
            47.123588,
            902.0
          ],
          [
            8.675054,
            47.123405,
            901.0
          ],
          [
            8.675063,
            47.123215,
            903.0
          ],
          [
            8.67507,
            47.123035,
            904.0
          ],
          [
            8.67512,
            47.122858,
            904.0
          ],
          [
            8.675156,
            47.122671,
            903.0
          ],
          [
            8.675204,
            47.122488,
            903.0
          ],
          [
            8.675266,
            47.122309,
            903.0
          ],
          [
            8.675305,
            47.122128,
            904.0
          ],
          [
            8.675354,
            47.121946,
            905.0
          ],
          [
            8.675447,
            47.121765,
            905.0
          ],
          [
            8.675561,
            47.121602,
            906.0
          ],
          [
            8.675817,
            47.121548,
            906.0
          ],
          [
            8.676097,
            47.121559,
            907.0
          ],
          [
            8.676152,
            47.121368,
            907.0
          ],
          [
            8.676107,
            47.121178,
            905.0
          ],
          [
            8.676064,
            47.12099,
            903.0
          ],
          [
            8.675991,
            47.12081,
            904.0
          ],
          [
            8.675943,
            47.120624,
            904.0
          ],
          [
            8.675928,
            47.120508,
            903.0
          ],
          [
            8.675909,
            47.120405,
            902.0
          ],
          [
            8.675885,
            47.120302,
            903.0
          ],
          [
            8.675849,
            47.1202,
            903.0
          ],
          [
            8.675821,
            47.120107,
            902.0
          ],
          [
            8.675797,
            47.120006,
            903.0
          ],
          [
            8.675782,
            47.119906,
            903.0
          ],
          [
            8.675753,
            47.119803,
            903.0
          ],
          [
            8.675718,
            47.119702,
            903.0
          ],
          [
            8.675682,
            47.119528,
            902.0
          ],
          [
            8.675652,
            47.11944,
            901.0
          ],
          [
            8.67559,
            47.119248,
            900.0
          ],
          [
            8.675534,
            47.119105,
            900.0
          ],
          [
            8.67551,
            47.118916,
            902.0
          ],
          [
            8.675535,
            47.11882,
            903.0
          ],
          [
            8.675559,
            47.118719,
            903.0
          ],
          [
            8.675592,
            47.118624,
            904.0
          ],
          [
            8.675643,
            47.118445,
            904.0
          ],
          [
            8.675669,
            47.118342,
            904.0
          ],
          [
            8.675698,
            47.118156,
            906.0
          ],
          [
            8.67571,
            47.118064,
            906.0
          ],
          [
            8.675759,
            47.117872,
            905.0
          ],
          [
            8.675824,
            47.117686,
            905.0
          ],
          [
            8.675867,
            47.117495,
            904.0
          ],
          [
            8.675879,
            47.117405,
            904.0
          ],
          [
            8.675857,
            47.117215,
            904.0
          ],
          [
            8.675808,
            47.117115,
            904.0
          ],
          [
            8.675742,
            47.11702,
            904.0
          ],
          [
            8.675633,
            47.116867,
            905.0
          ],
          [
            8.675563,
            47.116791,
            905.0
          ],
          [
            8.675423,
            47.116628,
            905.0
          ],
          [
            8.675272,
            47.116499,
            905.0
          ],
          [
            8.675099,
            47.11635,
            904.0
          ],
          [
            8.674965,
            47.116178,
            904.0
          ],
          [
            8.674831,
            47.116022,
            904.0
          ],
          [
            8.674649,
            47.115878,
            903.0
          ],
          [
            8.674527,
            47.115778,
            904.0
          ],
          [
            8.674378,
            47.115626,
            906.0
          ],
          [
            8.674285,
            47.115452,
            905.0
          ],
          [
            8.674327,
            47.115262,
            906.0
          ],
          [
            8.674438,
            47.115095,
            905.0
          ],
          [
            8.674586,
            47.114943,
            904.0
          ],
          [
            8.674733,
            47.114773,
            904.0
          ],
          [
            8.674881,
            47.114611,
            904.0
          ],
          [
            8.674955,
            47.114526,
            905.0
          ],
          [
            8.675083,
            47.114358,
            906.0
          ],
          [
            8.675148,
            47.114277,
            906.0
          ],
          [
            8.675266,
            47.114113,
            907.0
          ],
          [
            8.67542,
            47.11395,
            908.0
          ],
          [
            8.675541,
            47.113789,
            909.0
          ],
          [
            8.675652,
            47.113618,
            909.0
          ],
          [
            8.675763,
            47.113454,
            908.0
          ],
          [
            8.675872,
            47.113281,
            907.0
          ],
          [
            8.675987,
            47.113115,
            909.0
          ],
          [
            8.676101,
            47.112949,
            909.0
          ],
          [
            8.676207,
            47.112779,
            910.0
          ],
          [
            8.676325,
            47.112602,
            909.0
          ],
          [
            8.67638,
            47.112514,
            910.0
          ],
          [
            8.676431,
            47.112428,
            910.0
          ],
          [
            8.676557,
            47.112256,
            912.0
          ],
          [
            8.676623,
            47.11217,
            912.0
          ],
          [
            8.676729,
            47.111991,
            913.0
          ],
          [
            8.676834,
            47.111815,
            913.0
          ],
          [
            8.676956,
            47.111648,
            914.0
          ],
          [
            8.67707,
            47.111485,
            914.0
          ],
          [
            8.677241,
            47.111341,
            914.0
          ],
          [
            8.677499,
            47.111256,
            915.0
          ],
          [
            8.677729,
            47.111167,
            915.0
          ],
          [
            8.677776,
            47.111069,
            914.0
          ],
          [
            8.677819,
            47.110983,
            914.0
          ],
          [
            8.677874,
            47.110896,
            914.0
          ],
          [
            8.677937,
            47.110804,
            915.0
          ],
          [
            8.677988,
            47.110719,
            916.0
          ],
          [
            8.678034,
            47.110633,
            915.0
          ],
          [
            8.678063,
            47.110544,
            916.0
          ],
          [
            8.678104,
            47.110441,
            916.0
          ],
          [
            8.678157,
            47.11034,
            916.0
          ],
          [
            8.678207,
            47.110242,
            917.0
          ],
          [
            8.67826,
            47.110158,
            918.0
          ],
          [
            8.678278,
            47.110067,
            920.0
          ],
          [
            8.678199,
            47.109979,
            917.0
          ],
          [
            8.678136,
            47.109893,
            915.0
          ],
          [
            8.678091,
            47.109808,
            914.0
          ],
          [
            8.678042,
            47.109708,
            916.0
          ],
          [
            8.677971,
            47.109626,
            916.0
          ],
          [
            8.677924,
            47.109533,
            917.0
          ],
          [
            8.677862,
            47.10945,
            917.0
          ],
          [
            8.677814,
            47.10936,
            917.0
          ],
          [
            8.677744,
            47.109272,
            916.0
          ],
          [
            8.677678,
            47.109189,
            916.0
          ],
          [
            8.677571,
            47.109013,
            916.0
          ],
          [
            8.677457,
            47.108842,
            917.0
          ],
          [
            8.677298,
            47.108685,
            916.0
          ],
          [
            8.677208,
            47.108512,
            918.0
          ],
          [
            8.677094,
            47.108346,
            919.0
          ],
          [
            8.677033,
            47.108169,
            921.0
          ],
          [
            8.676834,
            47.108029,
            922.0
          ],
          [
            8.676728,
            47.10785,
            920.0
          ],
          [
            8.676722,
            47.107717,
            919.0
          ],
          [
            8.676665,
            47.107626,
            916.0
          ],
          [
            8.676576,
            47.107551,
            916.0
          ],
          [
            8.676475,
            47.107492,
            916.0
          ],
          [
            8.676386,
            47.107407,
            917.0
          ],
          [
            8.676336,
            47.107321,
            917.0
          ],
          [
            8.67628,
            47.107229,
            918.0
          ],
          [
            8.676247,
            47.107124,
            918.0
          ],
          [
            8.676199,
            47.107022,
            918.0
          ],
          [
            8.676151,
            47.106937,
            919.0
          ],
          [
            8.676076,
            47.106853,
            920.0
          ],
          [
            8.676017,
            47.106765,
            921.0
          ],
          [
            8.675975,
            47.106679,
            922.0
          ],
          [
            8.675884,
            47.106745,
            920.0
          ],
          [
            8.675728,
            47.106752,
            918.0
          ],
          [
            8.675598,
            47.106765,
            916.0
          ],
          [
            8.67547,
            47.106802,
            917.0
          ],
          [
            8.675354,
            47.106852,
            917.0
          ],
          [
            8.675242,
            47.106902,
            916.0
          ],
          [
            8.675116,
            47.106944,
            917.0
          ],
          [
            8.675014,
            47.107008,
            917.0
          ],
          [
            8.675154,
            47.106962,
            918.0
          ],
          [
            8.675271,
            47.106889,
            918.0
          ],
          [
            8.675408,
            47.106838,
            919.0
          ],
          [
            8.675539,
            47.106799,
            919.0
          ],
          [
            8.675669,
            47.106773,
            920.0
          ],
          [
            8.675809,
            47.106756,
            921.0
          ],
          [
            8.675944,
            47.106724,
            923.0
          ],
          [
            8.675893,
            47.10663,
            923.0
          ],
          [
            8.675946,
            47.106436,
            922.0
          ],
          [
            8.675974,
            47.106257,
            923.0
          ],
          [
            8.676011,
            47.106169,
            924.0
          ],
          [
            8.676042,
            47.106069,
            928.0
          ],
          [
            8.676054,
            47.105973,
            931.0
          ],
          [
            8.67607,
            47.105871,
            934.0
          ],
          [
            8.676046,
            47.105775,
            934.0
          ],
          [
            8.676057,
            47.10568,
            933.0
          ],
          [
            8.676056,
            47.105577,
            932.0
          ],
          [
            8.675939,
            47.105412,
            929.0
          ],
          [
            8.675981,
            47.10522,
            924.0
          ],
          [
            8.67597,
            47.105039,
            926.0
          ],
          [
            8.67594,
            47.104855,
            928.0
          ],
          [
            8.675948,
            47.104674,
            930.0
          ],
          [
            8.675911,
            47.104475,
            929.0
          ],
          [
            8.675888,
            47.104384,
            928.0
          ],
          [
            8.675865,
            47.104279,
            928.0
          ],
          [
            8.675738,
            47.10411,
            927.0
          ],
          [
            8.675684,
            47.104019,
            926.0
          ],
          [
            8.675622,
            47.103931,
            925.0
          ],
          [
            8.675563,
            47.103836,
            925.0
          ],
          [
            8.675437,
            47.103669,
            924.0
          ],
          [
            8.675311,
            47.103492,
            922.0
          ],
          [
            8.675165,
            47.103321,
            921.0
          ],
          [
            8.675203,
            47.103134,
            920.0
          ],
          [
            8.675137,
            47.102945,
            917.0
          ],
          [
            8.674956,
            47.102806,
            916.0
          ],
          [
            8.674847,
            47.10264,
            918.0
          ],
          [
            8.674818,
            47.102459,
            922.0
          ],
          [
            8.674786,
            47.102273,
            926.0
          ],
          [
            8.674751,
            47.102176,
            927.0
          ],
          [
            8.67469,
            47.102081,
            928.0
          ],
          [
            8.67458,
            47.102008,
            928.0
          ],
          [
            8.674563,
            47.101913,
            928.0
          ],
          [
            8.674483,
            47.101727,
            926.0
          ],
          [
            8.674393,
            47.101619,
            925.0
          ],
          [
            8.674299,
            47.10155,
            924.0
          ],
          [
            8.674161,
            47.101525,
            923.0
          ],
          [
            8.674027,
            47.101534,
            924.0
          ],
          [
            8.673882,
            47.101539,
            924.0
          ],
          [
            8.673666,
            47.101427,
            924.0
          ],
          [
            8.673612,
            47.101286,
            924.0
          ],
          [
            8.673635,
            47.101104,
            924.0
          ],
          [
            8.67365,
            47.101006,
            924.0
          ],
          [
            8.673679,
            47.100917,
            924.0
          ],
          [
            8.673702,
            47.100824,
            924.0
          ],
          [
            8.673707,
            47.10072,
            924.0
          ],
          [
            8.673643,
            47.100629,
            924.0
          ],
          [
            8.673545,
            47.100565,
            924.0
          ],
          [
            8.673458,
            47.100489,
            924.0
          ],
          [
            8.673379,
            47.100394,
            924.0
          ],
          [
            8.673313,
            47.10029,
            924.0
          ],
          [
            8.673225,
            47.100215,
            924.0
          ],
          [
            8.673125,
            47.100148,
            924.0
          ],
          [
            8.673022,
            47.100082,
            923.0
          ],
          [
            8.672942,
            47.100004,
            923.0
          ],
          [
            8.672869,
            47.099922,
            923.0
          ],
          [
            8.672781,
            47.099838,
            923.0
          ],
          [
            8.672711,
            47.099761,
            923.0
          ],
          [
            8.672641,
            47.099622,
            923.0
          ],
          [
            8.672538,
            47.099537,
            923.0
          ],
          [
            8.672455,
            47.099458,
            923.0
          ],
          [
            8.672357,
            47.09939,
            923.0
          ],
          [
            8.672289,
            47.099309,
            924.0
          ],
          [
            8.672179,
            47.099249,
            924.0
          ],
          [
            8.67204,
            47.099221,
            924.0
          ],
          [
            8.671999,
            47.09912,
            924.0
          ],
          [
            8.671977,
            47.099016,
            929.0
          ],
          [
            8.671965,
            47.098912,
            925.0
          ],
          [
            8.671916,
            47.09881,
            925.0
          ],
          [
            8.671834,
            47.098726,
            925.0
          ],
          [
            8.671748,
            47.098647,
            925.0
          ],
          [
            8.671696,
            47.098556,
            925.0
          ],
          [
            8.671651,
            47.098452,
            925.0
          ],
          [
            8.671607,
            47.098363,
            925.0
          ],
          [
            8.671568,
            47.098261,
            926.0
          ],
          [
            8.671515,
            47.098171,
            927.0
          ],
          [
            8.671452,
            47.098084,
            927.0
          ],
          [
            8.671327,
            47.097958,
            927.0
          ],
          [
            8.671276,
            47.097873,
            927.0
          ],
          [
            8.671206,
            47.097782,
            927.0
          ],
          [
            8.671053,
            47.097633,
            927.0
          ],
          [
            8.6709,
            47.097475,
            927.0
          ],
          [
            8.670744,
            47.097311,
            927.0
          ],
          [
            8.670609,
            47.097156,
            927.0
          ],
          [
            8.670463,
            47.097001,
            927.0
          ],
          [
            8.670396,
            47.096913,
            923.0
          ],
          [
            8.670259,
            47.096746,
            923.0
          ],
          [
            8.670153,
            47.096624,
            923.0
          ],
          [
            8.670092,
            47.096535,
            924.0
          ],
          [
            8.670005,
            47.096357,
            925.0
          ],
          [
            8.669905,
            47.096188,
            926.0
          ],
          [
            8.669822,
            47.096016,
            926.0
          ],
          [
            8.669732,
            47.095833,
            926.0
          ],
          [
            8.669663,
            47.095684,
            926.0
          ],
          [
            8.669624,
            47.095596,
            926.0
          ],
          [
            8.669579,
            47.095495,
            927.0
          ],
          [
            8.669546,
            47.095401,
            927.0
          ],
          [
            8.669491,
            47.095287,
            927.0
          ],
          [
            8.669443,
            47.095187,
            927.0
          ],
          [
            8.669369,
            47.095008,
            927.0
          ],
          [
            8.669266,
            47.094838,
            928.0
          ],
          [
            8.669185,
            47.094659,
            929.0
          ],
          [
            8.669121,
            47.094578,
            933.0
          ],
          [
            8.669056,
            47.094493,
            933.0
          ],
          [
            8.669028,
            47.094352,
            933.0
          ],
          [
            8.668949,
            47.094277,
            933.0
          ],
          [
            8.668893,
            47.094181,
            933.0
          ],
          [
            8.668798,
            47.094104,
            933.0
          ],
          [
            8.668706,
            47.094037,
            933.0
          ],
          [
            8.668621,
            47.093962,
            933.0
          ],
          [
            8.668528,
            47.093893,
            933.0
          ],
          [
            8.668454,
            47.093813,
            933.0
          ],
          [
            8.668375,
            47.093732,
            933.0
          ],
          [
            8.668292,
            47.09365,
            933.0
          ],
          [
            8.668209,
            47.093576,
            933.0
          ],
          [
            8.668115,
            47.093492,
            933.0
          ],
          [
            8.668032,
            47.093421,
            933.0
          ],
          [
            8.667941,
            47.093351,
            933.0
          ],
          [
            8.667828,
            47.093288,
            933.0
          ],
          [
            8.667713,
            47.093217,
            929.0
          ],
          [
            8.667591,
            47.093159,
            929.0
          ],
          [
            8.667455,
            47.093104,
            930.0
          ],
          [
            8.667343,
            47.093055,
            930.0
          ],
          [
            8.667226,
            47.09301,
            930.0
          ],
          [
            8.6671,
            47.092954,
            930.0
          ],
          [
            8.666856,
            47.092859,
            929.0
          ],
          [
            8.666638,
            47.09275,
            928.0
          ],
          [
            8.666418,
            47.092629,
            928.0
          ],
          [
            8.666207,
            47.092488,
            927.0
          ],
          [
            8.665981,
            47.092375,
            936.0
          ],
          [
            8.665757,
            47.092283,
            936.0
          ],
          [
            8.665658,
            47.092217,
            935.0
          ],
          [
            8.665556,
            47.092159,
            932.0
          ],
          [
            8.665452,
            47.092102,
            932.0
          ],
          [
            8.665348,
            47.092036,
            932.0
          ],
          [
            8.66524,
            47.09197,
            932.0
          ],
          [
            8.665134,
            47.0919,
            932.0
          ],
          [
            8.66501,
            47.091842,
            932.0
          ],
          [
            8.664882,
            47.091799,
            932.0
          ],
          [
            8.664751,
            47.091755,
            932.0
          ],
          [
            8.664636,
            47.091709,
            932.0
          ],
          [
            8.664495,
            47.091677,
            932.0
          ],
          [
            8.664359,
            47.091634,
            932.0
          ],
          [
            8.664104,
            47.091563,
            932.0
          ],
          [
            8.66388,
            47.091469,
            932.0
          ],
          [
            8.663755,
            47.091423,
            941.0
          ],
          [
            8.663515,
            47.091337,
            939.0
          ],
          [
            8.663284,
            47.091244,
            938.0
          ],
          [
            8.663064,
            47.09113,
            935.0
          ],
          [
            8.662855,
            47.091011,
            934.0
          ],
          [
            8.662619,
            47.090902,
            932.0
          ],
          [
            8.662398,
            47.090781,
            934.0
          ],
          [
            8.662182,
            47.090674,
            935.0
          ],
          [
            8.661941,
            47.090569,
            938.0
          ],
          [
            8.661711,
            47.090461,
            940.0
          ],
          [
            8.661482,
            47.090365,
            941.0
          ],
          [
            8.661227,
            47.090288,
            942.0
          ],
          [
            8.661029,
            47.090168,
            943.0
          ],
          [
            8.660897,
            47.090125,
            944.0
          ],
          [
            8.660772,
            47.090081,
            944.0
          ],
          [
            8.660653,
            47.090038,
            945.0
          ],
          [
            8.660523,
            47.089998,
            945.0
          ],
          [
            8.660401,
            47.089951,
            946.0
          ],
          [
            8.660256,
            47.089914,
            946.0
          ],
          [
            8.660118,
            47.089869,
            945.0
          ],
          [
            8.659977,
            47.089833,
            945.0
          ],
          [
            8.659835,
            47.089801,
            945.0
          ],
          [
            8.659697,
            47.089764,
            946.0
          ],
          [
            8.659553,
            47.089728,
            945.0
          ],
          [
            8.659406,
            47.089694,
            946.0
          ],
          [
            8.659273,
            47.089663,
            945.0
          ],
          [
            8.659151,
            47.089616,
            945.0
          ],
          [
            8.659013,
            47.089573,
            946.0
          ],
          [
            8.658751,
            47.089493,
            948.0
          ],
          [
            8.658475,
            47.089437,
            946.0
          ],
          [
            8.658206,
            47.089409,
            943.0
          ],
          [
            8.657925,
            47.089377,
            942.0
          ],
          [
            8.65767,
            47.089319,
            940.0
          ],
          [
            8.657393,
            47.08926,
            939.0
          ],
          [
            8.657129,
            47.089228,
            937.0
          ],
          [
            8.656851,
            47.08922,
            934.0
          ],
          [
            8.656579,
            47.089256,
            930.0
          ],
          [
            8.656297,
            47.089266,
            927.0
          ],
          [
            8.656032,
            47.089242,
            926.0
          ],
          [
            8.655761,
            47.089254,
            924.0
          ],
          [
            8.65548,
            47.089251,
            920.0
          ],
          [
            8.655195,
            47.089235,
            920.0
          ],
          [
            8.654906,
            47.0892,
            920.0
          ],
          [
            8.654641,
            47.089144,
            922.0
          ],
          [
            8.654377,
            47.089069,
            922.0
          ],
          [
            8.654133,
            47.088991,
            925.0
          ],
          [
            8.653867,
            47.088936,
            927.0
          ],
          [
            8.653603,
            47.088901,
            929.0
          ],
          [
            8.653333,
            47.088847,
            930.0
          ],
          [
            8.653062,
            47.088788,
            931.0
          ],
          [
            8.652798,
            47.088777,
            929.0
          ],
          [
            8.652527,
            47.088723,
            929.0
          ],
          [
            8.652251,
            47.088668,
            929.0
          ],
          [
            8.651969,
            47.088641,
            928.0
          ],
          [
            8.651709,
            47.088603,
            926.0
          ],
          [
            8.651461,
            47.088526,
            929.0
          ],
          [
            8.651188,
            47.088494,
            929.0
          ],
          [
            8.650918,
            47.088469,
            928.0
          ],
          [
            8.650674,
            47.088375,
            924.0
          ],
          [
            8.650429,
            47.088305,
            924.0
          ],
          [
            8.650201,
            47.0882,
            921.0
          ],
          [
            8.649923,
            47.088154,
            918.0
          ],
          [
            8.649673,
            47.08808,
            920.0
          ],
          [
            8.649427,
            47.08798,
            922.0
          ],
          [
            8.649294,
            47.087934,
            923.0
          ],
          [
            8.649167,
            47.087878,
            923.0
          ],
          [
            8.649042,
            47.087846,
            921.0
          ],
          [
            8.648786,
            47.087759,
            920.0
          ],
          [
            8.648521,
            47.087691,
            920.0
          ],
          [
            8.648244,
            47.087636,
            919.0
          ],
          [
            8.64797,
            47.087566,
            914.0
          ],
          [
            8.647715,
            47.08749,
            912.0
          ],
          [
            8.647441,
            47.08743,
            909.0
          ],
          [
            8.647184,
            47.087384,
            907.0
          ],
          [
            8.64693,
            47.087333,
            905.0
          ],
          [
            8.646687,
            47.087244,
            903.0
          ],
          [
            8.646453,
            47.08714,
            903.0
          ],
          [
            8.646228,
            47.087026,
            903.0
          ],
          [
            8.646,
            47.086908,
            900.0
          ],
          [
            8.64579,
            47.086797,
            896.0
          ],
          [
            8.645597,
            47.086663,
            891.0
          ],
          [
            8.645398,
            47.086536,
            887.0
          ],
          [
            8.645204,
            47.086396,
            885.0
          ],
          [
            8.644972,
            47.086303,
            883.0
          ],
          [
            8.644713,
            47.086233,
            882.0
          ],
          [
            8.64447,
            47.086136,
            880.0
          ],
          [
            8.644222,
            47.086055,
            880.0
          ],
          [
            8.643986,
            47.085951,
            877.0
          ],
          [
            8.64375,
            47.085839,
            874.0
          ],
          [
            8.643535,
            47.085728,
            873.0
          ],
          [
            8.643279,
            47.085662,
            869.0
          ],
          [
            8.643111,
            47.085654,
            867.0
          ],
          [
            8.642971,
            47.085642,
            867.0
          ],
          [
            8.642832,
            47.085585,
            865.0
          ],
          [
            8.642714,
            47.085521,
            864.0
          ],
          [
            8.642599,
            47.08547,
            864.0
          ],
          [
            8.642368,
            47.085369,
            863.0
          ],
          [
            8.642127,
            47.085261,
            861.0
          ],
          [
            8.641875,
            47.085194,
            859.0
          ],
          [
            8.641635,
            47.085101,
            858.0
          ],
          [
            8.6414,
            47.08501,
            857.0
          ],
          [
            8.641171,
            47.084915,
            855.0
          ],
          [
            8.640933,
            47.084812,
            852.0
          ],
          [
            8.640695,
            47.084719,
            850.0
          ],
          [
            8.640439,
            47.084643,
            848.0
          ],
          [
            8.640174,
            47.084559,
            845.0
          ],
          [
            8.639917,
            47.084483,
            843.0
          ],
          [
            8.639681,
            47.084389,
            841.0
          ],
          [
            8.639445,
            47.084296,
            839.0
          ],
          [
            8.639222,
            47.084182,
            836.0
          ],
          [
            8.638979,
            47.0841,
            834.0
          ],
          [
            8.638746,
            47.084013,
            831.0
          ],
          [
            8.638498,
            47.083941,
            829.0
          ],
          [
            8.638275,
            47.083838,
            828.0
          ],
          [
            8.638065,
            47.083706,
            829.0
          ],
          [
            8.637911,
            47.083555,
            829.0
          ],
          [
            8.637836,
            47.083479,
            826.0
          ],
          [
            8.637727,
            47.083418,
            824.0
          ],
          [
            8.637604,
            47.083374,
            824.0
          ],
          [
            8.63746,
            47.083364,
            825.0
          ],
          [
            8.637341,
            47.083305,
            824.0
          ],
          [
            8.637279,
            47.083215,
            824.0
          ],
          [
            8.63717,
            47.083154,
            825.0
          ],
          [
            8.636975,
            47.08301,
            823.0
          ],
          [
            8.636859,
            47.082938,
            822.0
          ],
          [
            8.636777,
            47.082867,
            820.0
          ],
          [
            8.636684,
            47.082786,
            816.0
          ],
          [
            8.636606,
            47.082707,
            811.0
          ],
          [
            8.636397,
            47.082578,
            805.0
          ],
          [
            8.636226,
            47.082421,
            803.0
          ],
          [
            8.636087,
            47.082348,
            798.0
          ],
          [
            8.63597,
            47.082297,
            798.0
          ],
          [
            8.635848,
            47.082238,
            798.0
          ],
          [
            8.635725,
            47.082192,
            797.0
          ],
          [
            8.635595,
            47.082139,
            795.0
          ],
          [
            8.635509,
            47.082061,
            795.0
          ],
          [
            8.63542,
            47.08199,
            796.0
          ],
          [
            8.635294,
            47.081945,
            794.0
          ],
          [
            8.635173,
            47.081908,
            793.0
          ],
          [
            8.635046,
            47.08186,
            792.0
          ],
          [
            8.634899,
            47.081839,
            792.0
          ],
          [
            8.634759,
            47.081812,
            791.0
          ],
          [
            8.634629,
            47.081782,
            792.0
          ],
          [
            8.6345,
            47.081742,
            792.0
          ],
          [
            8.63438,
            47.081683,
            788.0
          ],
          [
            8.634255,
            47.081642,
            787.0
          ]
        ]
      }
    }
  ]
}