{
  "type": "FeatureCollection",
  "features": [
    {
      "type": "Feature",
      "properties": {},
      "geometry": {
        "type": "LineString",
        "coordinates": [
          [
            8.63448,
            47.081261,
            792.0
          ],
          [
            8.634436,
            47.0812,
            791.0
          ],
          [
            8.634382,
            47.081126,
            791.0
          ],
          [
            8.634329,
            47.081047,
            791.0
          ],
          [
            8.634292,
            47.080973,
            790.0
          ],
          [
            8.634274,
            47.08093,
            790.0
          ],
          [
            8.634193,
            47.080949,
            788.0
          ],
          [
            8.634149,
            47.0809,
            788.0
          ],
          [
            8.63413,
            47.080875,
            788.0
          ],
          [
            8.634113,
            47.080839,
            788.0
          ],
          [
            8.634094,
            47.080796,
            788.0
          ],
          [
            8.63405,
            47.0806,
            789.0
          ],
          [
            8.633969,
            47.080386,
            789.0
          ],
          [
            8.633924,
            47.080307,
            789.0
          ],
          [
            8.63387,
            47.080227,
            789.0
          ],
          [
            8.633816,
            47.080154,
            789.0
          ],
          [
            8.633753,
            47.080086,
            789.0
          ],
          [
            8.63369,
            47.080031,
            789.0
          ],
          [
            8.63369,
            47.080031,
            789.0
          ],
          [
            8.63369,
            47.080031,
            789.0
          ],
          [
            8.63361,
            47.079976,
            790.0
          ],
          [
            8.63352,
            47.079909,
            790.0
          ],
          [
            8.633438,
            47.079866,
            790.0
          ],
          [
            8.633367,
            47.079835,
            790.0
          ],
          [
            8.63335,
            47.079823,
            790.0
          ],
          [
            8.633241,
            47.07978,
            790.0
          ],
          [
            8.632998,
            47.07997,
            788.0
          ],
          [
            8.632604,
            47.080288,
            785.0
          ],
          [
            8.632325,
            47.08052,
            783.0
          ],
          [
            8.632279,
            47.080557,
            783.0
          ],
          [
            8.632189,
            47.0806,
            782.0
          ],
          [
            8.632226,
            47.08063,
            783.0
          ],
          [
            8.632172,
            47.080649,
            782.0
          ],
          [
            8.632128,
            47.080606,
            782.0
          ],
          [
            8.631534,
            47.080062,
            780.0
          ],
          [
            8.631444,
            47.079982,
            780.0
          ],
          [
            8.631426,
            47.079952,
            780.0
          ],
          [
            8.631409,
            47.079933,
            780.0
          ],
          [
            8.6314,
            47.079909,
            780.0
          ],
          [
            8.6314,
            47.079884,
            780.0
          ],
          [
            8.63139,
            47.079786,
            780.0
          ],
          [
            8.631382,
            47.079762,
            780.0
          ],
          [
            8.631373,
            47.079737,
            780.0
          ],
          [
            8.631354,
            47.079713,
            780.0
          ],
          [
            8.631337,
            47.079688,
            780.0
          ],
          [
            8.63131,
            47.07967,
            780.0
          ],
          [
            8.631256,
            47.079646,
            780.0
          ],
          [
            8.63121,
            47.079633,
            780.0
          ],
          [
            8.63113,
            47.079609,
            780.0
          ],
          [
            8.631058,
            47.079578,
            780.0
          ],
          [
            8.630977,
            47.079548,
            780.0
          ],
          [
            8.630816,
            47.079474,
            780.0
          ],
          [
            8.630771,
            47.079462,
            780.0
          ],
          [
            8.630744,
            47.079456,
            780.0
          ],
          [
            8.630698,
            47.079456,
            780.0
          ],
          [
            8.630663,
            47.079456,
            780.0
          ],
          [
            8.630627,
            47.079456,
            780.0
          ],
          [
            8.630537,
            47.079419,
            780.0
          ],
          [
            8.6306,
            47.079364,
            780.0
          ],
          [
            8.630627,
            47.079334,
            780.0
          ],
          [
            8.630044,
            47.079065,
            777.0
          ],
          [
            8.629818,
            47.078955,
            776.0
          ],
          [
            8.629818,
            47.078955,
            776.0
          ],
          [
            8.629755,
            47.078924,
            775.0
          ],
          [
            8.629594,
            47.078838,
            774.0
          ],
          [
            8.629415,
            47.07874,
            773.0
          ],
          [
            8.628822,
            47.078398,
            770.0
          ],
          [
            8.628704,
            47.078324,
            769.0
          ],
          [
            8.628579,
            47.078263,
            769.0
          ],
          [
            8.628543,
            47.078288,
            767.0
          ],
          [
            8.628436,
            47.078239,
            767.0
          ],
          [
            8.62795,
            47.078019,
            766.0
          ],
          [
            8.627312,
            47.077725,
            764.0
          ],
          [
            8.627124,
            47.077639,
            763.0
          ],
          [
            8.626989,
            47.077633,
            762.0
          ],
          [
            8.626979,
            47.077633,
            762.0
          ],
          [
            8.626944,
            47.077609,
            762.0
          ],
          [
            8.626899,
            47.07759,
            762.0
          ],
          [
            8.626889,
            47.077584,
            762.0
          ],
          [
            8.626836,
            47.077498,
            761.0
          ],
          [
            8.626602,
            47.077388,
            760.0
          ],
          [
            8.626639,
            47.077358,
            760.0
          ],
          [
            8.626665,
            47.077327,
            760.0
          ],
          [
            8.626468,
            47.077241,
            760.0
          ],
          [
            8.626378,
            47.077199,
            760.0
          ],
          [
            8.626297,
            47.077174,
            760.0
          ],
          [
            8.626207,
            47.077131,
            760.0
          ],
          [
            8.625767,
            47.07693,
            760.0
          ],
          [
            8.625696,
            47.076893,
            760.0
          ],
          [
            8.625633,
            47.076863,
            760.0
          ],
          [
            8.625291,
            47.07671,
            760.0
          ],
          [
            8.625102,
            47.076605,
            760.0
          ],
          [
            8.625057,
            47.076581,
            760.0
          ],
          [
            8.625012,
            47.076563,
            760.0
          ],
          [
            8.624635,
            47.076409,
            760.0
          ],
          [
            8.624384,
            47.076312,
            760.0
          ],
          [
            8.624321,
            47.076287,
            760.0
          ],
          [
            8.624266,
            47.076263,
            760.0
          ],
          [
            8.624231,
            47.076232,
            760.0
          ],
          [
            8.624195,
            47.076207,
            760.0
          ],
          [
            8.624178,
            47.076177,
            760.0
          ],
          [
            8.624159,
            47.076152,
            760.0
          ],
          [
            8.624132,
            47.07611,
            760.0
          ],
          [
            8.624123,
            47.076079,
            760.0
          ],
          [
            8.624105,
            47.076024,
            760.0
          ],
          [
            8.624078,
            47.07589,
            760.0
          ],
          [
            8.623952,
            47.075388,
            760.0
          ],
          [
            8.623926,
            47.075278,
            760.0
          ],
          [
            8.623889,
            47.07518,
            760.0
          ],
          [
            8.623836,
            47.075057,
            760.0
          ],
          [
            8.623773,
            47.074954,
            760.0
          ],
          [
            8.623692,
            47.074832,
            760.0
          ],
          [
            8.623612,
            47.074721,
            760.0
          ],
          [
            8.623503,
            47.074587,
            760.0
          ],
          [
            8.622731,
            47.073651,
            760.0
          ],
          [
            8.622658,
            47.073565,
            760.0
          ],
          [
            8.622578,
            47.073479,
            760.0
          ],
          [
            8.622488,
            47.0734,
            760.0
          ],
          [
            8.622371,
            47.073314,
            760.0
          ],
          [
            8.622245,
            47.073228,
            760.0
          ],
          [
            8.622129,
            47.073161,
            760.0
          ],
          [
            8.622004,
            47.0731,
            760.0
          ],
          [
            8.621851,
            47.073038,
            760.0
          ],
          [
            8.621563,
            47.072916,
            760.0
          ],
          [
            8.621383,
            47.072843,
            760.0
          ],
          [
            8.621258,
            47.072782,
            760.0
          ],
          [
            8.62115,
            47.072721,
            760.0
          ],
          [
            8.621042,
            47.072635,
            759.0
          ],
          [
            8.62097,
            47.072549,
            759.0
          ],
          [
            8.620899,
            47.072445,
            759.0
          ],
          [
            8.620826,
            47.072341,
            758.0
          ],
          [
            8.620754,
            47.072255,
            758.0
          ],
          [
            8.620673,
            47.072176,
            758.0
          ],
          [
            8.620539,
            47.072078,
            757.0
          ],
          [
            8.619622,
            47.071411,
            754.0
          ],
          [
            8.619578,
            47.071381,
            754.0
          ],
          [
            8.619532,
            47.07135,
            754.0
          ],
          [
            8.619461,
            47.071319,
            753.0
          ],
          [
            8.619155,
            47.071191,
            752.0
          ],
          [
            8.619065,
            47.071148,
            752.0
          ],
          [
            8.618985,
            47.071111,
            752.0
          ],
          [
            8.618895,
            47.071062,
            752.0
          ],
          [
            8.618841,
            47.071038,
            752.0
          ],
          [
            8.618742,
            47.070976,
            751.0
          ],
          [
            8.618652,
            47.070922,
            751.0
          ],
          [
            8.61858,
            47.070867,
            751.0
          ],
          [
            8.618509,
            47.070806,
            750.0
          ],
          [
            8.618373,
            47.070696,
            750.0
          ],
          [
            8.618266,
            47.070598,
            748.0
          ],
          [
            8.618113,
            47.070445,
            746.0
          ],
          [
            8.617826,
            47.070163,
            742.0
          ],
          [
            8.617736,
            47.070083,
            741.0
          ],
          [
            8.61761,
            47.069973,
            740.0
          ],
          [
            8.617557,
            47.069924,
            740.0
          ],
          [
            8.617503,
            47.069869,
            740.0
          ],
          [
            8.617394,
            47.069784,
            739.0
          ],
          [
            8.617358,
            47.069753,
            739.0
          ],
          [
            8.617287,
            47.069698,
            739.0
          ],
          [
            8.617242,
            47.069662,
            739.0
          ],
          [
            8.617054,
            47.069509,
            738.0
          ],
          [
            8.616972,
            47.069441,
            738.0
          ],
          [
            8.616865,
            47.069349,
            738.0
          ],
          [
            8.617018,
            47.06927,
            738.0
          ],
          [
            8.616874,
            47.069104,
            738.0
          ],
          [
            8.616811,
            47.069092,
            738.0
          ],
          [
            8.616712,
            47.06908,
            738.0
          ],
          [
            8.616676,
            47.069025,
            738.0
          ],
          [
            8.616559,
            47.068841,
            738.0
          ],
          [
            8.616505,
            47.068866,
            738.0
          ],
          [
            8.616452,
            47.06889,
            737.0
          ],
          [
            8.616362,
            47.068744,
            737.0
          ],
          [
            8.616326,
            47.068689,
            737.0
          ],
          [
            8.616289,
            47.068646,
            737.0
          ],
          [
            8.616245,
            47.068585,
            737.0
          ],
          [
            8.616272,
            47.06856,
            736.0
          ],
          [
            8.616289,
            47.068542,
            736.0
          ],
          [
            8.616308,
            47.068493,
            736.0
          ],
          [
            8.616316,
            47.068407,
            735.0
          ],
          [
            8.616352,
            47.06793,
            730.0
          ],
          [
            8.616371,
            47.067606,
            728.0
          ],
          [
            8.616379,
            47.067496,
            728.0
          ],
          [
            8.616371,
            47.067434,
            727.0
          ],
          [
            8.616352,
            47.067306,
            727.0
          ],
          [
            8.616316,
            47.067189,
            726.0
          ],
          [
            8.616281,
            47.067122,
            726.0
          ],
          [
            8.616236,
            47.067048,
            726.0
          ],
          [
            8.616002,
            47.066718,
            724.0
          ],
          [
            8.615868,
            47.066535,
            723.0
          ],
          [
            8.615634,
            47.066278,
            722.0
          ],
          [
            8.615616,
            47.066241,
            721.0
          ],
          [
            8.615607,
            47.06621,
            721.0
          ],
          [
            8.615626,
            47.06618,
            721.0
          ],
          [
            8.615662,
            47.066149,
            721.0
          ],
          [
            8.615715,
            47.066125,
            721.0
          ],
          [
            8.61575,
            47.066112,
            721.0
          ],
          [
            8.615778,
            47.066112,
            721.0
          ],
          [
            8.615805,
            47.066112,
            720.0
          ],
          [
            8.615976,
            47.066174,
            720.0
          ],
          [
            8.616128,
            47.06621,
            718.0
          ],
          [
            8.616289,
            47.066253,
            717.0
          ],
          [
            8.616461,
            47.066272,
            716.0
          ],
          [
            8.616838,
            47.066302,
            712.0
          ],
          [
            8.617593,
            47.066333,
            707.0
          ],
          [
            8.6177,
            47.066333,
            706.0
          ],
          [
            8.617763,
            47.066327,
            705.0
          ],
          [
            8.617817,
            47.066314,
            705.0
          ],
          [
            8.617871,
            47.066302,
            705.0
          ],
          [
            8.617924,
            47.066278,
            704.0
          ],
          [
            8.617997,
            47.066241,
            703.0
          ],
          [
            8.618023,
            47.066216,
            703.0
          ],
          [
            8.618069,
            47.066167,
            703.0
          ],
          [
            8.618113,
            47.066076,
            701.0
          ],
          [
            8.618132,
            47.06602,
            701.0
          ],
          [
            8.61814,
            47.065904,
            700.0
          ],
          [
            8.618123,
            47.065831,
            699.0
          ],
          [
            8.618069,
            47.065697,
            698.0
          ],
          [
            8.618033,
            47.065623,
            697.0
          ],
          [
            8.61797,
            47.065544,
            696.0
          ],
          [
            8.617924,
            47.065501,
            695.0
          ],
          [
            8.617746,
            47.065354,
            693.0
          ],
          [
            8.617557,
            47.065201,
            692.0
          ],
          [
            8.61744,
            47.065084,
            690.0
          ],
          [
            8.617314,
            47.064931,
            688.0
          ],
          [
            8.616874,
            47.064313,
            681.0
          ],
          [
            8.616496,
            47.063818,
            676.0
          ],
          [
            8.616272,
            47.06353,
            673.0
          ],
          [
            8.616209,
            47.063463,
            672.0
          ],
          [
            8.616092,
            47.06334,
            670.0
          ],
          [
            8.615949,
            47.063212,
            669.0
          ],
          [
            8.615796,
            47.063095,
            667.0
          ],
          [
            8.615778,
            47.063083,
            667.0
          ],
          [
            8.615778,
            47.063083,
            667.0
          ],
          [
            8.615626,
            47.062967,
            665.0
          ],
          [
            8.615427,
            47.062808,
            663.0
          ],
          [
            8.615274,
            47.062662,
            661.0
          ],
          [
            8.615086,
            47.062459,
            659.0
          ],
          [
            8.614916,
            47.0623,
            657.0
          ],
          [
            8.614781,
            47.06219,
            655.0
          ],
          [
            8.614655,
            47.062086,
            654.0
          ],
          [
            8.614618,
            47.062049,
            654.0
          ],
          [
            8.614494,
            47.061915,
            652.0
          ],
          [
            8.614431,
            47.061854,
            651.0
          ],
          [
            8.614358,
            47.061762,
            650.0
          ],
          [
            8.614278,
            47.061646,
            649.0
          ],
          [
            8.614125,
            47.06137,
            646.0
          ],
          [
            8.613964,
            47.061144,
            643.0
          ],
          [
            8.613748,
            47.060918,
            640.0
          ],
          [
            8.613666,
            47.060832,
            639.0
          ],
          [
            8.613469,
            47.060605,
            637.0
          ],
          [
            8.613425,
            47.060556,
            636.0
          ],
          [
            8.61337,
            47.060507,
            636.0
          ],
          [
            8.613289,
            47.060458,
            635.0
          ],
          [
            8.613209,
            47.060434,
            634.0
          ],
          [
            8.613002,
            47.060379,
            633.0
          ],
          [
            8.612786,
            47.060336,
            632.0
          ],
          [
            8.612706,
            47.060299,
            631.0
          ],
          [
            8.612652,
            47.060268,
            630.0
          ],
          [
            8.612616,
            47.060226,
            630.0
          ],
          [
            8.612597,
            47.060189,
            630.0
          ],
          [
            8.61258,
            47.06014,
            629.0
          ],
          [
            8.61258,
            47.060061,
            628.0
          ],
          [
            8.612597,
            47.059902,
            627.0
          ],
          [
            8.612607,
            47.059779,
            626.0
          ],
          [
            8.612597,
            47.059724,
            625.0
          ],
          [
            8.61257,
            47.059608,
            624.0
          ],
          [
            8.612463,
            47.059186,
            620.0
          ],
          [
            8.612347,
            47.058628,
            614.0
          ],
          [
            8.61232,
            47.058463,
            612.0
          ],
          [
            8.612328,
            47.058365,
            611.0
          ],
          [
            8.612383,
            47.058225,
            610.0
          ],
          [
            8.612427,
            47.05809,
            609.0
          ],
          [
            8.612427,
            47.057864,
            607.0
          ],
          [
            8.61241,
            47.057576,
            605.0
          ],
          [
            8.612391,
            47.057514,
            605.0
          ],
          [
            8.612373,
            47.05746,
            604.0
          ],
          [
            8.61232,
            47.05738,
            603.0
          ],
          [
            8.612257,
            47.057289,
            603.0
          ],
          [
            8.612238,
            47.057264,
            602.0
          ],
          [
            8.61222,
            47.057234,
            602.0
          ],
          [
            8.612203,
            47.057197,
            602.0
          ],
          [
            8.612184,
            47.05716,
            602.0
          ],
          [
            8.612176,
            47.057099,
            601.0
          ],
          [
            8.612167,
            47.057056,
            601.0
          ],
          [
            8.612157,
            47.057019,
            601.0
          ],
          [
            8.612157,
            47.056964,
            600.0
          ],
          [
            8.612167,
            47.056927,
            600.0
          ],
          [
            8.612176,
            47.056878,
            599.0
          ],
          [
            8.612266,
            47.056542,
            595.0
          ],
          [
            8.612283,
            47.056462,
            593.0
          ],
          [
            8.612274,
            47.056389,
            593.0
          ],
          [
            8.612274,
            47.056364,
            592.0
          ],
          [
            8.612257,
            47.056334,
            592.0
          ],
          [
            8.61222,
            47.056291,
            591.0
          ],
          [
            8.612184,
            47.056267,
            591.0
          ],
          [
            8.612131,
            47.05623,
            590.0
          ],
          [
            8.612058,
            47.056211,
            589.0
          ],
          [
            8.611915,
            47.056181,
            588.0
          ],
          [
            8.610406,
            47.05607,
            577.0
          ],
          [
            8.610262,
            47.056046,
            576.0
          ],
          [
            8.610209,
            47.056021,
            576.0
          ],
          [
            8.610173,
            47.055985,
            575.0
          ],
          [
            8.610127,
            47.055893,
            574.0
          ],
          [
            8.610037,
            47.055721,
            573.0
          ],
          [
            8.609983,
            47.05563,
            572.0
          ],
          [
            8.609903,
            47.055538,
            571.0
          ],
          [
            8.609786,
            47.055416,
            569.0
          ],
          [
            8.609544,
            47.055214,
            567.0
          ],
          [
            8.609454,
            47.05511,
            566.0
          ],
          [
            8.609337,
            47.05492,
            564.0
          ],
          [
            8.609291,
            47.054858,
            564.0
          ],
          [
            8.609257,
            47.054816,
            563.0
          ],
          [
            8.60922,
            47.054779,
            563.0
          ],
          [
            8.609184,
            47.054754,
            563.0
          ],
          [
            8.609131,
            47.054736,
            562.0
          ],
          [
            8.609077,
            47.054712,
            562.0
          ],
          [
            8.608995,
            47.054687,
            562.0
          ],
          [
            8.608924,
            47.054681,
            561.0
          ],
          [
            8.608815,
            47.054681,
            561.0
          ],
          [
            8.608565,
            47.054712,
            559.0
          ],
          [
            8.608519,
            47.054712,
            559.0
          ],
          [
            8.608475,
            47.054706,
            558.0
          ],
          [
            8.608429,
            47.054687,
            558.0
          ],
          [
            8.608394,
            47.054669,
            558.0
          ],
          [
            8.608366,
            47.054638,
            557.0
          ],
          [
            8.608339,
            47.054602,
            557.0
          ],
          [
            8.608331,
            47.054559,
            557.0
          ],
          [
            8.608339,
            47.054516,
            556.0
          ],
          [
            8.608366,
            47.054473,
            556.0
          ],
          [
            8.608402,
            47.054449,
            556.0
          ],
          [
            8.608456,
            47.054424,
            555.0
          ],
          [
            8.608519,
            47.054412,
            555.0
          ],
          [
            8.608861,
            47.054363,
            552.0
          ],
          [
            8.608798,
            47.054314,
            552.0
          ],
          [
            8.608664,
            47.054289,
            552.0
          ],
          [
            8.608088,
            47.054283,
            551.0
          ],
          [
            8.608062,
            47.054283,
            551.0
          ],
          [
            8.608016,
            47.054283,
            551.0
          ],
          [
            8.607899,
            47.054277,
            551.0
          ],
          [
            8.607783,
            47.054247,
            551.0
          ],
          [
            8.607702,
            47.054185,
            551.0
          ],
          [
            8.607504,
            47.053855,
            550.0
          ],
          [
            8.607496,
            47.053806,
            550.0
          ],
          [
            8.607226,
            47.053751,
            552.0
          ],
          [
            8.606247,
            47.053574,
            558.0
          ],
          [
            8.605618,
            47.053506,
            558.0
          ],
          [
            8.605744,
            47.053378,
            553.0
          ],
          [
            8.605492,
            47.053347,
            548.0
          ],
          [
            8.605842,
            47.053212,
            542.0
          ],
          [
            8.605349,
            47.053194,
            526.0
          ],
          [
            8.604999,
            47.05312,
            520.0
          ],
          [
            8.604693,
            47.05312,
            520.0
          ],
          [
            8.60445,
            47.053041,
            520.0
          ],
          [
            8.60445,
            47.053041,
            520.0
          ],
          [
            8.60445,
            47.053041,
            520.0
          ],
          [
            8.604351,
            47.052986,
            520.0
          ],
          [
            8.604316,
            47.052631,
            520.0
          ],
          [
            8.60436,
            47.052361,
            520.0
          ],
          [
            8.604324,
            47.052098,
            517.0
          ],
          [
            8.60427,
            47.051854,
            510.0
          ],
          [
            8.604136,
            47.051701,
            506.0
          ],
          [
            8.604261,
            47.051627,
            505.0
          ],
          [
            8.604297,
            47.05159,
            504.0
          ],
          [
            8.604387,
            47.051517,
            503.0
          ],
          [
            8.604423,
            47.051431,
            502.0
          ],
          [
            8.604396,
            47.051351,
            500.0
          ],
          [
            8.604297,
            47.051266,
            499.0
          ],
          [
            8.604261,
            47.051229,
            499.0
          ],
          [
            8.60428,
            47.051132,
            498.0
          ],
          [
            8.604351,
            47.05104,
            497.0
          ],
          [
            8.604351,
            47.050991,
            497.0
          ],
          [
            8.603884,
            47.050844,
            493.0
          ],
          [
            8.603758,
            47.050923,
            492.0
          ],
          [
            8.603678,
            47.050966,
            492.0
          ],
          [
            8.603588,
            47.051003,
            491.0
          ],
          [
            8.603345,
            47.051095,
            488.0
          ],
          [
            8.603202,
            47.051132,
            487.0
          ],
          [
            8.603085,
            47.05115,
            486.0
          ],
          [
            8.603012,
            47.051156,
            485.0
          ],
          [
            8.602949,
            47.05115,
            484.0
          ],
          [
            8.602878,
            47.051138,
            484.0
          ],
          [
            8.602825,
            47.051107,
            483.0
          ],
          [
            8.602743,
            47.051046,
            482.0
          ],
          [
            8.602689,
            47.050997,
            481.0
          ],
          [
            8.602672,
            47.050954,
            481.0
          ],
          [
            8.602662,
            47.050911,
            480.0
          ],
          [
            8.60268,
            47.050868,
            479.0
          ],
          [
            8.602851,
            47.050746,
            475.0
          ],
          [
            8.603094,
            47.05058,
            470.0
          ],
          [
            8.603274,
            47.050537,
            470.0
          ],
          [
            8.603408,
            47.050488,
            470.0
          ],
          [
            8.603552,
            47.050427,
            470.0
          ],
          [
            8.604226,
            47.050122,
            469.0
          ],
          [
            8.604406,
            47.050036,
            469.0
          ],
          [
            8.604513,
            47.049981,
            469.0
          ],
          [
            8.604549,
            47.049999,
            469.0
          ],
          [
            8.604756,
            47.049889,
            469.0
          ],
          [
            8.604827,
            47.049846,
            468.0
          ],
          [
            8.604936,
            47.049778,
            468.0
          ],
          [
            8.605079,
            47.04968,
            467.0
          ],
          [
            8.605213,
            47.049576,
            467.0
          ],
          [
            8.605295,
            47.049509,
            467.0
          ],
          [
            8.60551,
            47.049332,
            466.0
          ],
          [
            8.605815,
            47.049081,
            465.0
          ],
          [
            8.605834,
            47.049075,
            465.0
          ],
          [
            8.606049,
            47.048897,
            464.0
          ],
          [
            8.606157,
            47.048811,
            464.0
          ],
          [
            8.606184,
            47.048793,
            464.0
          ],
          [
            8.606211,
            47.048781,
            464.0
          ],
          [
            8.606247,
            47.048775,
            464.0
          ],
          [
            8.606282,
            47.048762,
            464.0
          ],
          [
            8.606318,
            47.04875,
            464.0
          ],
          [
            8.606354,
            47.048738,
            464.0
          ],
          [
            8.6064,
            47.048713,
            464.0
          ],
          [
            8.606435,
            47.048689,
            464.0
          ],
          [
            8.606481,
            47.048652,
            465.0
          ],
          [
            8.606731,
            47.048432,
            467.0
          ],
          [
            8.606867,
            47.04831,
            467.0
          ],
          [
            8.606947,
            47.048242,
            467.0
          ],
          [
            8.60701,
            47.048199,
            467.0
          ],
          [
            8.607073,
            47.048169,
            467.0
          ],
          [
            8.607136,
            47.048144,
            467.0
          ],
          [
            8.60719,
            47.048126,
            467.0
          ],
          [
            8.607234,
            47.048114,
            467.0
          ],
          [
            8.607207,
            47.048071,
            465.0
          ],
          [
            8.60719,
            47.048034,
            463.0
          ],
          [
            8.607207,
            47.048028,
            463.0
          ],
          [
            8.607244,
            47.048016,
            463.0
          ],
          [
            8.607262,
            47.047997,
            463.0
          ],
          [
            8.60737,
            47.047918,
            462.0
          ],
          [
            8.60745,
            47.047832,
            462.0
          ],
          [
            8.607486,
            47.047905,
            466.0
          ],
          [
            8.607549,
            47.04785,
            466.0
          ],
          [
            8.607612,
            47.047796,
            467.0
          ],
          [
            8.607962,
            47.04749,
            468.0
          ],
          [
            8.60798,
            47.047465,
            468.0
          ],
          [
            8.60798,
            47.04744,
            468.0
          ],
          [
            8.607999,
            47.047269,
            468.0
          ],
          [
            8.608008,
            47.047251,
            468.0
          ],
          [
            8.608016,
            47.047232,
            468.0
          ],
          [
            8.608043,
            47.047214,
            468.0
          ],
          [
            8.60807,
            47.047208,
            468.0
          ],
          [
            8.608106,
            47.047208,
            468.0
          ],
          [
            8.608152,
            47.047128,
            467.0
          ],
          [
            8.608196,
            47.047067,
            466.0
          ],
          [
            8.608366,
            47.046939,
            466.0
          ],
          [
            8.608475,
            47.046871,
            465.0
          ],
          [
            8.608807,
            47.046596,
            464.0
          ],
          [
            8.60896,
            47.046443,
            463.0
          ],
          [
            8.609418,
            47.046082,
            461.0
          ],
          [
            8.609418,
            47.046033,
            461.0
          ],
          [
            8.609597,
            47.045892,
            461.0
          ],
          [
            8.609607,
            47.045843,
            461.0
          ],
          [
            8.609678,
            47.045892,
            461.0
          ],
          [
            8.609706,
            47.045892,
            461.0
          ],
          [
            8.609723,
            47.045892,
            461.0
          ],
          [
            8.609733,
            47.04588,
            461.0
          ],
          [
            8.609733,
            47.045861,
            461.0
          ],
          [
            8.609706,
            47.045837,
            461.0
          ],
          [
            8.60966,
            47.045806,
            461.0
          ],
          [
            8.609408,
            47.045665,
            461.0
          ],
          [
            8.609022,
            47.045439,
            461.0
          ],
          [
            8.608565,
            47.045127,
            461.0
          ],
          [
            8.607962,
            47.044716,
            461.0
          ],
          [
            8.607639,
            47.044508,
            460.0
          ],
          [
            8.607442,
            47.044398,
            460.0
          ],
          [
            8.607091,
            47.044251,
            460.0
          ],
          [
            8.606758,
            47.044166,
            460.0
          ],
          [
            8.606498,
            47.044037,
            460.0
          ],
          [
            8.606364,
            47.043994,
            460.0
          ],
          [
            8.606364,
            47.043994,
            460.0
          ],
          [
            8.606094,
            47.043902,
            460.0
          ],
          [
            8.605429,
            47.043664,
            460.0
          ],
          [
            8.60471,
            47.043376,
            460.0
          ],
          [
            8.603894,
            47.043021,
            460.0
          ],
          [
            8.603714,
            47.042929,
            460.0
          ],
          [
            8.60348,
            47.042795,
            459.0
          ],
          [
            8.603444,
            47.04274,
            459.0
          ],
          [
            8.603075,
            47.042556,
            459.0
          ],
          [
            8.60206,
            47.042048,
            458.0
          ],
          [
            8.601557,
            47.041766,
            457.0
          ],
          [
            8.600911,
            47.041411,
            456.0
          ],
          [
            8.60092,
            47.041386,
            456.0
          ],
          [
            8.601018,
            47.041307,
            455.0
          ],
          [
            8.601045,
            47.041276,
            455.0
          ],
          [
            8.601127,
            47.041276,
            454.0
          ],
          [
            8.601341,
            47.041362,
            454.0
          ],
          [
            8.601854,
            47.041356,
            455.0
          ],
          [
            8.602536,
            47.041123,
            455.0
          ],
          [
            8.602905,
            47.04105,
            455.0
          ],
          [
            8.603058,
            47.041019,
            455.0
          ],
          [
            8.60357,
            47.040897,
            456.0
          ],
          [
            8.603641,
            47.040878,
            456.0
          ],
          [
            8.603804,
            47.040829,
            456.0
          ],
          [
            8.603875,
            47.040805,
            456.0
          ],
          [
            8.603947,
            47.040774,
            456.0
          ],
          [
            8.604054,
            47.040719,
            456.0
          ],
          [
            8.604136,
            47.040676,
            456.0
          ],
          [
            8.604207,
            47.040627,
            456.0
          ],
          [
            8.60427,
            47.040584,
            456.0
          ],
          [
            8.604494,
            47.04037,
            457.0
          ],
          [
            8.604549,
            47.040334,
            457.0
          ],
          [
            8.604567,
            47.040321,
            457.0
          ],
          [
            8.604594,
            47.040315,
            457.0
          ],
          [
            8.604612,
            47.040315,
            457.0
          ],
          [
            8.604846,
            47.040015,
            457.0
          ],
          [
            8.605349,
            47.040199,
            457.0
          ],
          [
            8.605565,
            47.040279,
            457.0
          ],
          [
            8.605968,
            47.039801,
            457.0
          ],
          [
            8.606075,
            47.039892,
            457.0
          ],
          [
            8.607863,
            47.04075,
            454.0
          ],
          [
            8.607836,
            47.040823,
            457.0
          ],
          [
            8.608196,
            47.040713,
            456.0
          ],
          [
            8.608196,
            47.040713,
            456.0
          ],
          [
            8.610236,
            47.040095,
            455.0
          ],
          [
            8.612517,
            47.039366,
            453.0
          ],
          [
            8.612706,
            47.039299,
            453.0
          ],
          [
            8.614278,
            47.038773,
            452.0
          ],
          [
            8.614771,
            47.038595,
            452.0
          ],
          [
            8.614807,
            47.038583,
            452.0
          ],
          [
            8.614834,
            47.03857,
            452.0
          ],
          [
            8.61487,
            47.038552,
            452.0
          ],
          [
            8.614888,
            47.038534,
            452.0
          ],
          [
            8.614951,
            47.038497,
            452.0
          ],
          [
            8.614978,
            47.038472,
            451.0
          ],
          [
            8.614997,
            47.038454,
            451.0
          ],
          [
            8.615023,
            47.038423,
            451.0
          ],
          [
            8.61505,
            47.038386,
            451.0
          ],
          [
            8.615167,
            47.038252,
            451.0
          ],
          [
            8.615373,
            47.037995,
            451.0
          ],
          [
            8.61541,
            47.037946,
            451.0
          ],
          [
            8.615436,
            47.037903,
            451.0
          ],
          [
            8.615454,
            47.03786,
            451.0
          ],
          [
            8.615463,
            47.037824,
            451.0
          ],
          [
            8.615473,
            47.037793,
            451.0
          ],
          [
            8.615482,
            47.037762,
            451.0
          ],
          [
            8.615499,
            47.037505,
            450.0
          ],
          [
            8.615562,
            47.037352,
            450.0
          ],
          [
            8.615689,
            47.03726,
            450.0
          ],
          [
            8.615849,
            47.037218,
            450.0
          ],
          [
            8.616039,
            47.037254,
            450.0
          ],
          [
            8.616281,
            47.037389,
            450.0
          ],
          [
            8.616649,
            47.037609,
            450.0
          ],
          [
            8.61682,
            47.037658,
            450.0
          ],
          [
            8.617,
            47.037627,
            450.0
          ],
          [
            8.61726,
            47.037523,
            450.0
          ],
          [
            8.618023,
            47.037181,
            450.0
          ],
          [
            8.619165,
            47.036605,
            450.0
          ],
          [
            8.619721,
            47.036293,
            450.0
          ],
          [
            8.620656,
            47.035675,
            450.0
          ],
          [
            8.621249,
            47.035166,
            450.0
          ],
          [
            8.621563,
            47.034842,
            450.0
          ],
          [
            8.621895,
            47.034444,
            450.0
          ],
          [
            8.622425,
            47.033605,
            450.0
          ],
          [
            8.622847,
            47.03273,
            450.0
          ],
          [
            8.62309,
            47.032093,
            450.0
          ],
          [
            8.623297,
            47.031578,
            450.0
          ],
          [
            8.623566,
            47.031077,
            450.0
          ],
          [
            8.623593,
            47.031028,
            450.0
          ],
          [
            8.623629,
            47.030954,
            450.0
          ],
          [
            8.623665,
            47.030887,
            450.0
          ],
          [
            8.623692,
            47.030825,
            450.0
          ],
          [
            8.623702,
            47.030752,
            450.0
          ],
          [
            8.623692,
            47.030696,
            450.0
          ],
          [
            8.623673,
            47.030641,
            450.0
          ],
          [
            8.623647,
            47.03058,
            450.0
          ],
          [
            8.623584,
            47.030507,
            450.0
          ],
          [
            8.623503,
            47.03044,
            450.0
          ],
          [
            8.623396,
            47.030354,
            450.0
          ],
          [
            8.623342,
            47.030317,
            450.0
          ],
          [
            8.623314,
            47.030274,
            450.0
          ],
          [
            8.623279,
            47.030231,
            450.0
          ],
          [
            8.623243,
            47.03017,
            450.0
          ],
          [
            8.623224,
            47.030109,
            450.0
          ],
          [
            8.623207,
            47.030048,
            450.0
          ],
          [
            8.623216,
            47.029974,
            450.0
          ],
          [
            8.623224,
            47.029913,
            450.0
          ],
          [
            8.623252,
            47.029845,
            450.0
          ],
          [
            8.623297,
            47.029784,
            450.0
          ],
          [
            8.623342,
            47.029723,
            450.0
          ],
          [
            8.623396,
            47.029681,
            450.0
          ],
          [
            8.623467,
            47.029632,
            450.0
          ],
          [
            8.623539,
            47.029589,
            450.0
          ],
          [
            8.623612,
            47.029558,
            450.0
          ],
          [
            8.623683,
            47.029534,
            450.0
          ],
          [
            8.623773,
            47.029509,
            450.0
          ],
          [
            8.623863,
            47.029497,
            450.0
          ],
          [
            8.623979,
            47.029484,
            450.0
          ],
          [
            8.624239,
            47.029466,
            450.0
          ],
          [
            8.624698,
            47.029442,
            450.0
          ],
          [
            8.624878,
            47.029435,
            450.0
          ],
          [
            8.625012,
            47.029429,
            450.0
          ],
          [
            8.625048,
            47.029356,
            450.0
          ],
          [
            8.625516,
            47.029368,
            450.0
          ],
          [
            8.625776,
            47.02927,
            450.0
          ],
          [
            8.625866,
            47.029258,
            450.0
          ],
          [
            8.626,
            47.029276,
            450.0
          ],
          [
            8.626109,
            47.029325,
            450.0
          ],
          [
            8.62618,
            47.029313,
            450.0
          ],
          [
            8.626387,
            47.029202,
            450.0
          ],
          [
            8.626495,
            47.029135,
            450.0
          ],
          [
            8.626566,
            47.028934,
            450.0
          ],
          [
            8.626818,
            47.028909,
            450.0
          ],
          [
            8.626962,
            47.028878,
            450.0
          ],
          [
            8.627132,
            47.028823,
            450.0
          ],
          [
            8.627357,
            47.028725,
            450.0
          ],
          [
            8.627923,
            47.028468,
            450.0
          ],
          [
            8.628157,
            47.028358,
            451.0
          ],
          [
            8.62831,
            47.028266,
            452.0
          ],
          [
            8.628444,
            47.028131,
            454.0
          ],
          [
            8.628606,
            47.027954,
            455.0
          ],
          [
            8.628713,
            47.027825,
            476.0
          ],
          [
            8.628687,
            47.027813,
            476.0
          ],
          [
            8.62865,
            47.0278,
            476.0
          ],
          [
            8.62856,
            47.027714,
            476.0
          ],
          [
            8.628543,
            47.027684,
            476.0
          ],
          [
            8.628444,
            47.027427,
            476.0
          ],
          [
            8.628444,
            47.027384,
            477.0
          ],
          [
            8.628453,
            47.027348,
            477.0
          ],
          [
            8.62848,
            47.027311,
            477.0
          ],
          [
            8.62856,
            47.027194,
            477.0
          ],
          [
            8.62865,
            47.027108,
            477.0
          ],
          [
            8.628713,
            47.027023,
            477.0
          ],
          [
            8.62875,
            47.026906,
            478.0
          ],
          [
            8.628776,
            47.026827,
            478.0
          ],
          [
            8.628992,
            47.026686,
            478.0
          ],
          [
            8.629028,
            47.026607,
            479.0
          ],
          [
            8.629019,
            47.026557,
            479.0
          ],
          [
            8.629019,
            47.026496,
            479.0
          ],
          [
            8.628956,
            47.026324,
            479.0
          ],
          [
            8.628956,
            47.026251,
            479.0
          ],
          [
            8.629019,
            47.026147,
            480.0
          ],
          [
            8.629037,
            47.026068,
            480.0
          ],
          [
            8.629002,
            47.025951,
            480.0
          ],
          [
            8.629028,
            47.025792,
            483.0
          ],
          [
            8.62901,
            47.0257,
            484.0
          ],
          [
            8.628947,
            47.02559,
            486.0
          ],
          [
            8.628822,
            47.025266,
            491.0
          ],
          [
            8.628776,
            47.025118,
            493.0
          ],
          [
            8.628704,
            47.024904,
            496.0
          ],
          [
            8.628436,
            47.024525,
            501.0
          ],
          [
            8.628228,
            47.024279,
            505.0
          ],
          [
            8.627995,
            47.023937,
            511.0
          ],
          [
            8.627968,
            47.023839,
            512.0
          ],
          [
            8.627977,
            47.023747,
            513.0
          ],
          [
            8.627977,
            47.023692,
            514.0
          ],
          [
            8.627941,
            47.023636,
            515.0
          ],
          [
            8.62787,
            47.023563,
            516.0
          ],
          [
            8.627222,
            47.023086,
            525.0
          ],
          [
            8.626738,
            47.02273,
            532.0
          ],
          [
            8.626468,
            47.022516,
            536.0
          ],
          [
            8.626252,
            47.022351,
            539.0
          ],
          [
            8.62574,
            47.022019,
            545.0
          ],
          [
            8.62566,
            47.021922,
            547.0
          ],
          [
            8.62539,
            47.021554,
            553.0
          ],
          [
            8.625273,
            47.021419,
            555.0
          ],
          [
            8.625228,
            47.021376,
            556.0
          ],
          [
            8.624941,
            47.021077,
            561.0
          ],
          [
            8.624411,
            47.020562,
            561.0
          ],
          [
            8.624411,
            47.020562,
            561.0
          ],
          [
            8.624321,
            47.020483,
            571.0
          ],
          [
            8.623826,
            47.01998,
            580.0
          ],
          [
            8.62371,
            47.019882,
            582.0
          ],
          [
            8.623639,
            47.01987,
            583.0
          ],
          [
            8.623557,
            47.019888,
            583.0
          ],
          [
            8.623423,
            47.019968,
            585.0
          ],
          [
            8.62336,
            47.019925,
            585.0
          ],
          [
            8.623234,
            47.019766,
            586.0
          ],
          [
            8.622838,
            47.019478,
            586.0
          ],
          [
            8.622587,
            47.019233,
            586.0
          ],
          [
            8.622318,
            47.018982,
            586.0
          ],
          [
            8.622344,
            47.01889,
            585.0
          ],
          [
            8.622335,
            47.018786,
            585.0
          ],
          [
            8.622272,
            47.018713,
            584.0
          ],
          [
            8.622228,
            47.018596,
            583.0
          ],
          [
            8.622228,
            47.018498,
            582.0
          ],
          [
            8.622237,
            47.018309,
            580.0
          ],
          [
            8.622155,
            47.018033,
            577.0
          ],
          [
            8.621976,
            47.017825,
            574.0
          ],
          [
            8.621824,
            47.017666,
            572.0
          ],
          [
            8.621715,
            47.017543,
            569.0
          ],
          [
            8.621725,
            47.017451,
            567.0
          ],
          [
            8.621788,
            47.017353,
            565.0
          ],
          [
            8.621788,
            47.017255,
            562.0
          ],
          [
            8.621752,
            47.017151,
            560.0
          ],
          [
            8.621555,
            47.01701,
            560.0
          ],
          [
            8.621276,
            47.016888,
            560.0
          ],
          [
            8.620962,
            47.016808,
            560.0
          ],
          [
            8.620754,
            47.016765,
            560.0
          ],
          [
            8.62053,
            47.016679,
            560.0
          ],
          [
            8.62036,
            47.016606,
            560.0
          ],
          [
            8.620297,
            47.016563,
            559.0
          ],
          [
            8.620161,
            47.016361,
            554.0
          ],
          [
            8.619964,
            47.016165,
            549.0
          ],
          [
            8.619201,
            47.015626,
            541.0
          ],
          [
            8.618985,
            47.01524,
            539.0
          ],
          [
            8.618815,
            47.015038,
            538.0
          ],
          [
            8.618805,
            47.015026,
            538.0
          ],
          [
            8.618805,
            47.014977,
            538.0
          ],
          [
            8.618698,
            47.014946,
            536.0
          ],
          [
            8.618356,
            47.014934,
            532.0
          ],
          [
            8.618212,
            47.014867,
            530.0
          ],
          [
            8.617979,
            47.014658,
            526.0
          ],
          [
            8.617593,
            47.014273,
            519.0
          ],
          [
            8.617566,
            47.014242,
            518.0
          ],
          [
            8.617547,
            47.014224,
            518.0
          ],
          [
            8.617538,
            47.014205,
            517.0
          ],
          [
            8.617538,
            47.014187,
            517.0
          ],
          [
            8.617547,
            47.014168,
            517.0
          ],
          [
            8.617566,
            47.014156,
            516.0
          ],
          [
            8.617593,
            47.014138,
            516.0
          ],
          [
            8.617637,
            47.014125,
            515.0
          ],
          [
            8.617853,
            47.014083,
            512.0
          ],
          [
            8.617889,
            47.01407,
            512.0
          ],
          [
            8.617907,
            47.014064,
            512.0
          ],
          [
            8.617924,
            47.014052,
            511.0
          ],
          [
            8.617924,
            47.014033,
            511.0
          ],
          [
            8.617924,
            47.014015,
            511.0
          ],
          [
            8.617916,
            47.014003,
            510.0
          ],
          [
            8.617889,
            47.013991,
            510.0
          ],
          [
            8.617844,
            47.013972,
            509.0
          ],
          [
            8.61779,
            47.013954,
            509.0
          ],
          [
            8.617557,
            47.013874,
            506.0
          ],
          [
            8.617494,
            47.013856,
            505.0
          ],
          [
            8.617404,
            47.013837,
            504.0
          ],
          [
            8.617358,
            47.013825,
            504.0
          ],
          [
            8.617314,
            47.013807,
            503.0
          ],
          [
            8.617278,
            47.013782,
            502.0
          ],
          [
            8.617207,
            47.013733,
            501.0
          ],
          [
            8.617125,
            47.013654,
            500.0
          ],
          [
            8.617054,
            47.013599,
            498.0
          ],
          [
            8.616892,
            47.013495,
            495.0
          ],
          [
            8.616828,
            47.013452,
            493.0
          ],
          [
            8.616784,
            47.013433,
            492.0
          ],
          [
            8.616731,
            47.013415,
            491.0
          ],
          [
            8.616532,
            47.013372,
            489.0
          ],
          [
            8.616505,
            47.013366,
            489.0
          ],
          [
            8.616469,
            47.013354,
            488.0
          ],
          [
            8.616434,
            47.013341,
            488.0
          ],
          [
            8.616182,
            47.013182,
            485.0
          ],
          [
            8.616146,
            47.013157,
            484.0
          ],
          [
            8.616119,
            47.013127,
            484.0
          ],
          [
            8.616102,
            47.013096,
            483.0
          ],
          [
            8.616092,
            47.013054,
            483.0
          ],
          [
            8.616075,
            47.012962,
            481.0
          ],
          [
            8.616065,
            47.012925,
            481.0
          ],
          [
            8.616075,
            47.012888,
            480.0
          ],
          [
            8.616092,
            47.012821,
            475.0
          ],
          [
            8.616173,
            47.012833,
            474.0
          ],
          [
            8.616218,
            47.012845,
            474.0
          ],
          [
            8.616254,
            47.012852,
            474.0
          ],
          [
            8.616362,
            47.012888,
            473.0
          ],
          [
            8.616398,
            47.012895,
            473.0
          ],
          [
            8.616434,
            47.012901,
            473.0
          ],
          [
            8.616469,
            47.012901,
            473.0
          ],
          [
            8.616505,
            47.012895,
            473.0
          ],
          [
            8.616559,
            47.012888,
            473.0
          ],
          [
            8.616658,
            47.012907,
            472.0
          ],
          [
            8.616739,
            47.012913,
            472.0
          ],
          [
            8.616811,
            47.012913,
            471.0
          ],
          [
            8.616901,
            47.012901,
            471.0
          ],
          [
            8.616972,
            47.012888,
            470.0
          ],
          [
            8.617044,
            47.012864,
            470.0
          ],
          [
            8.617125,
            47.012833,
            469.0
          ],
          [
            8.617215,
            47.012796,
            468.0
          ],
          [
            8.617297,
            47.012772,
            467.0
          ],
          [
            8.617394,
            47.012741,
            466.0
          ],
          [
            8.617691,
            47.012668,
            462.0
          ],
          [
            8.61796,
            47.012612,
            459.0
          ],
          [
            8.618113,
            47.012576,
            457.0
          ],
          [
            8.618212,
            47.012563,
            456.0
          ],
          [
            8.618284,
            47.012557,
            455.0
          ],
          [
            8.618339,
            47.012551,
            454.0
          ],
          [
            8.618428,
            47.012551,
            453.0
          ],
          [
            8.618526,
            47.012563,
            452.0
          ],
          [
            8.618635,
            47.012569,
            451.0
          ],
          [
            8.618841,
            47.012594,
            449.0
          ],
          [
            8.618895,
            47.012606,
            449.0
          ],
          [
            8.618939,
            47.012612,
            449.0
          ],
          [
            8.619075,
            47.012655,
            449.0
          ],
          [
            8.619119,
            47.012661,
            448.0
          ],
          [
            8.619165,
            47.012661,
            448.0
          ],
          [
            8.619209,
            47.012661,
            448.0
          ],
          [
            8.619255,
            47.012655,
            448.0
          ],
          [
            8.619281,
            47.012643,
            448.0
          ],
          [
            8.619299,
            47.012631,
            448.0
          ],
          [
            8.619335,
            47.012606,
            448.0
          ],
          [
            8.619389,
            47.012557,
            447.0
          ],
          [
            8.619255,
            47.012502,
            447.0
          ],
          [
            8.619138,
            47.012441,
            447.0
          ],
          [
            8.619048,
            47.012392,
            447.0
          ],
          [
            8.618939,
            47.012325,
            447.0
          ],
          [
            8.618823,
            47.012239,
            447.0
          ],
          [
            8.618698,
            47.012129,
            447.0
          ],
          [
            8.618455,
            47.011926,
            446.0
          ],
          [
            8.618428,
            47.011896,
            446.0
          ],
          [
            8.618392,
            47.011859,
            446.0
          ],
          [
            8.618365,
            47.011816,
            446.0
          ],
          [
            8.618339,
            47.011773,
            446.0
          ],
          [
            8.618329,
            47.011737,
            446.0
          ],
          [
            8.618329,
            47.011694,
            446.0
          ],
          [
            8.618329,
            47.011651,
            446.0
          ],
          [
            8.618347,
            47.01159,
            446.0
          ],
          [
            8.618257,
            47.011535,
            447.0
          ],
          [
            8.618159,
            47.011277,
            449.0
          ],
          [
            8.618069,
            47.011069,
            449.0
          ],
          [
            8.617916,
            47.010787,
            450.0
          ],
          [
            8.617844,
            47.010481,
            450.0
          ],
          [
            8.617773,
            47.010083,
            450.0
          ],
          [
            8.6177,
            47.009673,
            450.0
          ],
          [
            8.617647,
            47.009421,
            450.0
          ],
          [
            8.617547,
            47.009072,
            450.0
          ],
          [
            8.61744,
            47.008907,
            450.0
          ],
          [
            8.617233,
            47.008729,
            450.0
          ],
          [
            8.617098,
            47.008643,
            450.0
          ],
          [
            8.616847,
            47.008472,
            450.0
          ],
          [
            8.616326,
            47.008196,
            449.0
          ],
          [
            8.615823,
            47.007957,
            449.0
          ],
          [
            8.615517,
            47.007798,
            449.0
          ],
          [
            8.614618,
            47.007314,
            448.0
          ],
          [
            8.613549,
            47.006836,
            448.0
          ],
          [
            8.612984,
            47.006573,
            447.0
          ],
          [
            8.612796,
            47.006457,
            446.0
          ],
          [
            8.61275,
            47.006389,
            446.0
          ],
          [
            8.61275,
            47.006377,
            446.0
          ],
          [
            8.612733,
            47.006334,
            446.0
          ],
          [
            8.612517,
            47.006218,
            446.0
          ],
          [
            8.612373,
            47.006156,
            444.0
          ],
          [
            8.61232,
            47.006138,
            443.0
          ],
          [
            8.612238,
            47.006107,
            443.0
          ],
          [
            8.612194,
            47.00607,
            443.0
          ],
          [
            8.612167,
            47.006009,
            444.0
          ],
          [
            8.612058,
            47.005642,
            444.0
          ],
          [
            8.611781,
            47.005048,
            446.0
          ],
          [
            8.611754,
            47.004949,
            446.0
          ],
          [
            8.611672,
            47.004919,
            442.0
          ],
          [
            8.611215,
            47.004864,
            440.0
          ],
          [
            8.610882,
            47.004827,
            440.0
          ],
          [
            8.610532,
            47.004741,
            440.0
          ],
          [
            8.610433,
            47.004717,
            440.0
          ],
          [
            8.609867,
            47.004552,
            440.0
          ],
          [
            8.609328,
            47.004325,
            440.0
          ],
          [
            8.609085,
            47.004245,
            440.0
          ],
          [
            8.608752,
            47.004067,
            440.0
          ],
          [
            8.608205,
            47.003865,
            440.0
          ],
          [
            8.607523,
            47.003749,
            440.0
          ],
          [
            8.607523,
            47.003749,
            440.0
          ],
          [
            8.607289,
            47.003706,
            440.0
          ],
          [
            8.606714,
            47.003546,
            440.0
          ],
          [
            8.606031,
            47.00332,
            440.0
          ],
          [
            8.605725,
            47.003247,
            440.0
          ],
          [
            8.605205,
            47.003191,
            440.0
          ],
          [
            8.604441,
            47.003142,
            444.0
          ],
          [
            8.604441,
            47.003118,
            440.0
          ],
          [
            8.60462,
            47.002805,
            440.0
          ],
          [
            8.604657,
            47.002744,
            440.0
          ],
          [
            8.604666,
            47.00272,
            440.0
          ],
          [
            8.604683,
            47.002702,
            440.0
          ],
          [
            8.60472,
            47.002689,
            440.0
          ],
          [
            8.604756,
            47.002677,
            440.0
          ],
          [
            8.6048,
            47.002671,
            440.0
          ],
          [
            8.604809,
            47.002671,
            440.0
          ],
          [
            8.604819,
            47.002659,
            440.0
          ],
          [
            8.604819,
            47.002646,
            440.0
          ],
          [
            8.604819,
            47.002616,
            440.0
          ],
          [
            8.604819,
            47.002585,
            440.0
          ],
          [
            8.604792,
            47.002585,
            440.0
          ],
          [
            8.604773,
            47.002585,
            440.0
          ],
          [
            8.604746,
            47.002579,
            440.0
          ],
          [
            8.604729,
            47.002573,
            440.0
          ],
          [
            8.60471,
            47.00256,
            440.0
          ],
          [
            8.604693,
            47.002548,
            440.0
          ],
          [
            8.604683,
            47.002536,
            440.0
          ],
          [
            8.604674,
            47.002518,
            440.0
          ],
          [
            8.604674,
            47.002505,
            440.0
          ],
          [
            8.604683,
            47.002487,
            440.0
          ],
          [
            8.604693,
            47.002475,
            440.0
          ],
          [
            8.605366,
            47.001586,
            440.0
          ],
          [
            8.60622,
            47.000489,
            440.0
          ],
          [
            8.60631,
            47.000379,
            440.0
          ],
          [
            8.606318,
            47.000361,
            440.0
          ],
          [
            8.606337,
            47.000349,
            440.0
          ],
          [
            8.606354,
            47.000336,
            440.0
          ],
          [
            8.606381,
            47.000324,
            440.0
          ],
          [
            8.606408,
            47.000318,
            440.0
          ],
          [
            8.60657,
            47.000312,
            440.0
          ],
          [
            8.60693,
            47.0003,
            440.0
          ],
          [
            8.607118,
            47.000282,
            440.0
          ],
          [
            8.607244,
            47.000269,
            440.0
          ],
          [
            8.60736,
            47.000257,
            440.0
          ],
          [
            8.607477,
            47.000239,
            440.0
          ],
          [
            8.607586,
            47.00022,
            440.0
          ],
          [
            8.607683,
            47.000196,
            440.0
          ],
          [
            8.607783,
            47.000171,
            440.0
          ],
          [
            8.607882,
            47.000135,
            440.0
          ],
          [
            8.607972,
            47.000104,
            440.0
          ],
          [
            8.608052,
            47.000073,
            440.0
          ],
          [
            8.608178,
            47.000012,
            440.0
          ],
          [
            8.608232,
            47.0,
            440.0
          ],
          [
            8.608286,
            47.0,
            440.0
          ],
          [
            8.608322,
            47.000012,
            440.0
          ],
          [
            8.608385,
            46.999981,
            440.0
          ],
          [
            8.608429,
            46.999957,
            440.0
          ],
          [
            8.608484,
            46.999938,
            440.0
          ],
          [
            8.608492,
            46.999926,
            440.0
          ],
          [
            8.608492,
            46.999914,
            440.0
          ],
          [
            8.608492,
            46.999901,
            440.0
          ],
          [
            8.608475,
            46.999889,
            440.0
          ],
          [
            8.608484,
            46.999865,
            440.0
          ],
          [
            8.609031,
            46.999583,
            440.0
          ],
          [
            8.609094,
            46.999546,
            440.0
          ],
          [
            8.609131,
            46.999534,
            440.0
          ],
          [
            8.609175,
            46.999516,
            440.0
          ],
          [
            8.60923,
            46.999503,
            440.0
          ],
          [
            8.609265,
            46.999491,
            440.0
          ],
          [
            8.609301,
            46.999485,
            440.0
          ],
          [
            8.609337,
            46.999473,
            440.0
          ],
          [
            8.609373,
            46.999473,
            440.0
          ],
          [
            8.609418,
            46.999467,
            440.0
          ],
          [
            8.609454,
            46.999467,
            440.0
          ],
          [
            8.60949,
            46.999467,
            440.0
          ],
          [
            8.609526,
            46.999473,
            440.0
          ],
          [
            8.609534,
            46.999491,
            440.0
          ],
          [
            8.60958,
            46.999503,
            440.0
          ],
          [
            8.609768,
            46.999663,
            440.0
          ],
          [
            8.610029,
            46.999644,
            440.0
          ],
          [
            8.61019,
            46.999596,
            440.0
          ],
          [
            8.610388,
            46.99951,
            440.0
          ],
          [
            8.61037,
            46.999485,
            440.0
          ],
          [
            8.610244,
            46.99954,
            440.0
          ],
          [
            8.610209,
            46.999528,
            440.0
          ],
          [
            8.610154,
            46.999503,
            440.0
          ],
          [
            8.610092,
            46.999418,
            440.0
          ],
          [
            8.610199,
            46.999368,
            440.0
          ]
        ]
      }
    }
  ]
}