{
  "type": "FeatureCollection",
  "features": [
    {
      "type": "Feature",
      "properties": {},
      "geometry": {
        "type": "LineString",
        "coordinates": [
          [
            7.113256,
            47.223173,
            877.0
          ],
          [
            7.112959,
            47.223155,
            877.0
          ],
          [
            7.11304,
            47.223204,
            877.0
          ],
          [
            7.112581,
            47.223198,
            878.0
          ],
          [
            7.11216,
            47.22321,
            880.0
          ],
          [
            7.112061,
            47.22321,
            880.0
          ],
          [
            7.111872,
            47.223204,
            880.0
          ],
          [
            7.111864,
            47.223167,
            878.0
          ],
          [
            7.111864,
            47.22313,
            877.0
          ],
          [
            7.111028,
            47.223173,
            878.0
          ],
          [
            7.11074,
            47.223204,
            878.0
          ],
          [
            7.110533,
            47.223234,
            878.0
          ],
          [
            7.110327,
            47.223277,
            879.0
          ],
          [
            7.110183,
            47.223326,
            879.0
          ],
          [
            7.11004,
            47.22338,
            879.0
          ],
          [
            7.109904,
            47.223448,
            880.0
          ],
          [
            7.109627,
            47.223588,
            880.0
          ],
          [
            7.109528,
            47.223637,
            881.0
          ],
          [
            7.109518,
            47.223618,
            881.0
          ],
          [
            7.109518,
            47.223618,
            881.0
          ],
          [
            7.109393,
            47.223466,
            880.0
          ],
          [
            7.109294,
            47.223362,
            880.0
          ],
          [
            7.109124,
            47.223259,
            880.0
          ],
          [
            7.109042,
            47.223228,
            880.0
          ],
          [
            7.108917,
            47.223185,
            881.0
          ],
          [
            7.108782,
            47.223167,
            881.0
          ],
          [
            7.108378,
            47.22321,
            882.0
          ],
          [
            7.108046,
            47.223204,
            883.0
          ],
          [
            7.107704,
            47.223112,
            883.0
          ],
          [
            7.107633,
            47.223112,
            883.0
          ],
          [
            7.107533,
            47.223106,
            883.0
          ],
          [
            7.107461,
            47.223106,
            883.0
          ],
          [
            7.107013,
            47.223106,
            884.0
          ],
          [
            7.106168,
            47.223082,
            885.0
          ],
          [
            7.105539,
            47.223063,
            886.0
          ],
          [
            7.105405,
            47.223082,
            886.0
          ],
          [
            7.105315,
            47.223118,
            886.0
          ],
          [
            7.10527,
            47.223082,
            886.0
          ],
          [
            7.10518,
            47.223057,
            887.0
          ],
          [
            7.104398,
            47.222984,
            888.0
          ],
          [
            7.104308,
            47.222978,
            888.0
          ],
          [
            7.103878,
            47.222941,
            888.0
          ],
          [
            7.103887,
            47.222868,
            888.0
          ],
          [
            7.103895,
            47.222819,
            888.0
          ],
          [
            7.103895,
            47.222795,
            888.0
          ],
          [
            7.103859,
            47.222795,
            889.0
          ],
          [
            7.103778,
            47.222789,
            889.0
          ],
          [
            7.103778,
            47.222765,
            889.0
          ],
          [
            7.103859,
            47.2226,
            889.0
          ],
          [
            7.103931,
            47.222569,
            889.0
          ],
          [
            7.103975,
            47.222563,
            889.0
          ],
          [
            7.104038,
            47.222563,
            889.0
          ],
          [
            7.104128,
            47.222582,
            889.0
          ],
          [
            7.104165,
            47.222594,
            889.0
          ],
          [
            7.104264,
            47.222612,
            890.0
          ],
          [
            7.104453,
            47.22263,
            890.0
          ],
          [
            7.104659,
            47.22263,
            890.0
          ],
          [
            7.10483,
            47.222624,
            891.0
          ],
          [
            7.104973,
            47.222612,
            891.0
          ],
          [
            7.105117,
            47.222594,
            892.0
          ],
          [
            7.105359,
            47.222545,
            893.0
          ],
          [
            7.105557,
            47.222478,
            894.0
          ],
          [
            7.105853,
            47.22235,
            896.0
          ],
          [
            7.105962,
            47.222289,
            897.0
          ],
          [
            7.106006,
            47.222246,
            897.0
          ],
          [
            7.106051,
            47.222197,
            897.0
          ],
          [
            7.106114,
            47.222093,
            898.0
          ],
          [
            7.106249,
            47.221855,
            901.0
          ],
          [
            7.106249,
            47.221581,
            901.0
          ],
          [
            7.106239,
            47.221294,
            902.0
          ],
          [
            7.106222,
            47.221044,
            903.0
          ],
          [
            7.106212,
            47.220952,
            903.0
          ],
          [
            7.106186,
            47.220861,
            904.0
          ],
          [
            7.105925,
            47.2208,
            904.0
          ],
          [
            7.105899,
            47.2208,
            904.0
          ],
          [
            7.105988,
            47.220525,
            905.0
          ],
          [
            7.105988,
            47.220507,
            905.0
          ],
          [
            7.105979,
            47.220495,
            905.0
          ],
          [
            7.105943,
            47.220471,
            905.0
          ],
          [
            7.105925,
            47.220458,
            906.0
          ],
          [
            7.105872,
            47.220373,
            906.0
          ],
          [
            7.105916,
            47.220172,
            906.0
          ],
          [
            7.105916,
            47.220105,
            907.0
          ],
          [
            7.105889,
            47.219977,
            907.0
          ],
          [
            7.105791,
            47.219665,
            908.0
          ],
          [
            7.105782,
            47.21961,
            908.0
          ],
          [
            7.105791,
            47.219525,
            909.0
          ],
          [
            7.105853,
            47.219348,
            909.0
          ],
          [
            7.105943,
            47.21914,
            910.0
          ],
          [
            7.106061,
            47.219,
            911.0
          ],
          [
            7.106088,
            47.218951,
            911.0
          ],
          [
            7.106141,
            47.218835,
            913.0
          ],
          [
            7.106231,
            47.218689,
            914.0
          ],
          [
            7.106285,
            47.218518,
            916.0
          ],
          [
            7.106338,
            47.21839,
            917.0
          ],
          [
            7.106275,
            47.218311,
            918.0
          ],
          [
            7.106428,
            47.217987,
            923.0
          ],
          [
            7.106447,
            47.217896,
            924.0
          ],
          [
            7.106564,
            47.217865,
            926.0
          ],
          [
            7.106617,
            47.217829,
            927.0
          ],
          [
            7.106715,
            47.217743,
            928.0
          ],
          [
            7.106824,
            47.217646,
            931.0
          ],
          [
            7.10686,
            47.217536,
            934.0
          ],
          [
            7.106923,
            47.217231,
            942.0
          ],
          [
            7.106931,
            47.217066,
            948.0
          ],
          [
            7.107111,
            47.216871,
            955.0
          ],
          [
            7.10721,
            47.216736,
            960.0
          ],
          [
            7.107254,
            47.216706,
            961.0
          ],
          [
            7.107461,
            47.216553,
            966.0
          ],
          [
            7.107551,
            47.216504,
            968.0
          ],
          [
            7.107722,
            47.216358,
            972.0
          ],
          [
            7.107749,
            47.216285,
            974.0
          ],
          [
            7.107767,
            47.216187,
            976.0
          ],
          [
            7.107785,
            47.215955,
            980.0
          ],
          [
            7.107776,
            47.215601,
            984.0
          ],
          [
            7.107812,
            47.215296,
            988.0
          ],
          [
            7.10782,
            47.215174,
            989.0
          ],
          [
            7.107803,
            47.215107,
            990.0
          ],
          [
            7.107803,
            47.21501,
            992.0
          ],
          [
            7.10783,
            47.214778,
            997.0
          ],
          [
            7.107803,
            47.214589,
            1000.0
          ],
          [
            7.107722,
            47.214479,
            1003.0
          ],
          [
            7.107614,
            47.214388,
            1005.0
          ],
          [
            7.107497,
            47.214302,
            1008.0
          ],
          [
            7.107228,
            47.214088,
            1013.0
          ],
          [
            7.107138,
            47.213985,
            1016.0
          ],
          [
            7.107093,
            47.213875,
            1018.0
          ],
          [
            7.107084,
            47.213832,
            1019.0
          ],
          [
            7.107048,
            47.213691,
            1021.0
          ],
          [
            7.107004,
            47.213643,
            1022.0
          ],
          [
            7.106841,
            47.213563,
            1025.0
          ],
          [
            7.106715,
            47.213514,
            1027.0
          ],
          [
            7.106528,
            47.213423,
            1029.0
          ],
          [
            7.106428,
            47.21335,
            1031.0
          ],
          [
            7.106258,
            47.21324,
            1033.0
          ],
          [
            7.106204,
            47.213185,
            1033.0
          ],
          [
            7.106088,
            47.213142,
            1034.0
          ],
          [
            7.105971,
            47.213106,
            1035.0
          ],
          [
            7.105791,
            47.213038,
            1037.0
          ],
          [
            7.105638,
            47.212959,
            1038.0
          ],
          [
            7.10535,
            47.21277,
            1041.0
          ],
          [
            7.105225,
            47.212679,
            1042.0
          ],
          [
            7.105,
            47.212471,
            1045.0
          ],
          [
            7.104784,
            47.212252,
            1047.0
          ],
          [
            7.104515,
            47.212014,
            1050.0
          ],
          [
            7.104354,
            47.2118,
            1053.0
          ],
          [
            7.104308,
            47.211666,
            1055.0
          ],
          [
            7.104291,
            47.211495,
            1057.0
          ],
          [
            7.104264,
            47.211111,
            1062.0
          ],
          [
            7.104434,
            47.210573,
            1073.0
          ],
          [
            7.104506,
            47.210384,
            1076.0
          ],
          [
            7.10456,
            47.210305,
            1077.0
          ],
          [
            7.104596,
            47.210256,
            1078.0
          ],
          [
            7.10457,
            47.210189,
            1079.0
          ],
          [
            7.104533,
            47.210134,
            1080.0
          ],
          [
            7.104434,
            47.210048,
            1081.0
          ],
          [
            7.104317,
            47.209859,
            1083.0
          ],
          [
            7.104191,
            47.209719,
            1085.0
          ],
          [
            7.104065,
            47.20956,
            1087.0
          ],
          [
            7.104004,
            47.209438,
            1088.0
          ],
          [
            7.103975,
            47.209335,
            1089.0
          ],
          [
            7.103958,
            47.2092,
            1090.0
          ],
          [
            7.103851,
            47.208962,
            1093.0
          ],
          [
            7.103742,
            47.208725,
            1095.0
          ],
          [
            7.103446,
            47.208383,
            1099.0
          ],
          [
            7.103231,
            47.208139,
            1102.0
          ],
          [
            7.103105,
            47.207968,
            1104.0
          ],
          [
            7.102996,
            47.20787,
            1105.0
          ],
          [
            7.10279,
            47.207736,
            1107.0
          ],
          [
            7.102683,
            47.207602,
            1109.0
          ],
          [
            7.102503,
            47.207327,
            1110.0
          ],
          [
            7.102359,
            47.207186,
            1111.0
          ],
          [
            7.10208,
            47.206954,
            1112.0
          ],
          [
            7.101757,
            47.20682,
            1112.0
          ],
          [
            7.101587,
            47.206631,
            1113.0
          ],
          [
            7.101362,
            47.206472,
            1113.0
          ],
          [
            7.100652,
            47.206265,
            1115.0
          ],
          [
            7.100069,
            47.206149,
            1116.0
          ],
          [
            7.099601,
            47.206064,
            1116.0
          ],
          [
            7.099457,
            47.206045,
            1117.0
          ],
          [
            7.099044,
            47.205996,
            1117.0
          ],
          [
            7.098721,
            47.205868,
            1118.0
          ],
          [
            7.098568,
            47.205862,
            1118.0
          ],
          [
            7.098425,
            47.205844,
            1118.0
          ],
          [
            7.098317,
            47.205819,
            1119.0
          ],
          [
            7.098182,
            47.205777,
            1119.0
          ],
          [
            7.098056,
            47.205728,
            1119.0
          ],
          [
            7.097922,
            47.205679,
            1119.0
          ],
          [
            7.097868,
            47.205661,
            1119.0
          ],
          [
            7.097769,
            47.205643,
            1120.0
          ],
          [
            7.097346,
            47.204331,
            1131.0
          ],
          [
            7.097293,
            47.204257,
            1132.0
          ],
          [
            7.097247,
            47.204196,
            1133.0
          ],
          [
            7.097149,
            47.204141,
            1133.0
          ],
          [
            7.09687,
            47.204044,
            1135.0
          ],
          [
            7.095694,
            47.203641,
            1145.0
          ],
          [
            7.095541,
            47.203586,
            1146.0
          ],
          [
            7.095459,
            47.203543,
            1147.0
          ],
          [
            7.095388,
            47.203488,
            1148.0
          ],
          [
            7.095325,
            47.203409,
            1149.0
          ],
          [
            7.094723,
            47.202499,
            1160.0
          ],
          [
            7.094625,
            47.202371,
            1161.0
          ],
          [
            7.09448,
            47.202377,
            1162.0
          ],
          [
            7.094346,
            47.202402,
            1163.0
          ],
          [
            7.093134,
            47.202731,
            1171.0
          ],
          [
            7.093044,
            47.202731,
            1172.0
          ],
          [
            7.092972,
            47.202713,
            1173.0
          ],
          [
            7.092918,
            47.202682,
            1173.0
          ],
          [
            7.092864,
            47.202621,
            1174.0
          ],
          [
            7.092478,
            47.20206,
            1182.0
          ],
          [
            7.092379,
            47.201956,
            1183.0
          ],
          [
            7.092002,
            47.201578,
            1188.0
          ],
          [
            7.091857,
            47.201425,
            1190.0
          ],
          [
            7.091723,
            47.201462,
            1191.0
          ],
          [
            7.090995,
            47.201614,
            1195.0
          ],
          [
            7.090133,
            47.201749,
            1199.0
          ],
          [
            7.089899,
            47.201755,
            1200.0
          ],
          [
            7.086819,
            47.200949,
            1204.0
          ],
          [
            7.086675,
            47.200925,
            1204.0
          ],
          [
            7.086504,
            47.200778,
            1204.0
          ],
          [
            7.086406,
            47.200717,
            1205.0
          ],
          [
            7.086297,
            47.200669,
            1205.0
          ],
          [
            7.086127,
            47.200632,
            1205.0
          ],
          [
            7.084366,
            47.200351,
            1207.0
          ],
          [
            7.083324,
            47.200235,
            1208.0
          ],
          [
            7.081383,
            47.200052,
            1211.0
          ],
          [
            7.079515,
            47.199857,
            1214.0
          ],
          [
            7.079372,
            47.199845,
            1214.0
          ],
          [
            7.077072,
            47.199607,
            1218.0
          ],
          [
            7.075985,
            47.199509,
            1220.0
          ],
          [
            7.074978,
            47.199344,
            1222.0
          ],
          [
            7.072068,
            47.198849,
            1240.0
          ],
          [
            7.071188,
            47.198685,
            1240.0
          ],
          [
            7.070037,
            47.198514,
            1240.0
          ],
          [
            7.069049,
            47.198227,
            1240.0
          ],
          [
            7.068969,
            47.198196,
            1240.0
          ],
          [
            7.06764,
            47.197781,
            1242.0
          ],
          [
            7.06604,
            47.19736,
            1245.0
          ],
          [
            7.064917,
            47.197098,
            1247.0
          ],
          [
            7.062797,
            47.19661,
            1249.0
          ],
          [
            7.061711,
            47.196304,
            1249.0
          ],
          [
            7.061279,
            47.196182,
            1245.0
          ],
          [
            7.061234,
            47.19617,
            1245.0
          ],
          [
            7.061271,
            47.196127,
            1244.0
          ],
          [
            7.061342,
            47.195969,
            1244.0
          ],
          [
            7.061405,
            47.195834,
            1243.0
          ],
          [
            7.061432,
            47.195767,
            1243.0
          ],
          [
            7.061468,
            47.195737,
            1243.0
          ],
          [
            7.061558,
            47.195706,
            1242.0
          ],
          [
            7.061638,
            47.195688,
            1242.0
          ],
          [
            7.061692,
            47.195657,
            1242.0
          ],
          [
            7.061711,
            47.195603,
            1242.0
          ],
          [
            7.061665,
            47.195541,
            1241.0
          ],
          [
            7.061477,
            47.195474,
            1241.0
          ],
          [
            7.061432,
            47.195444,
            1241.0
          ],
          [
            7.061405,
            47.195401,
            1240.0
          ],
          [
            7.061424,
            47.195316,
            1240.0
          ],
          [
            7.061495,
            47.195139,
            1240.0
          ],
          [
            7.061261,
            47.195114,
            1240.0
          ],
          [
            7.060695,
            47.195078,
            1240.0
          ],
          [
            7.059967,
            47.195065,
            1243.0
          ],
          [
            7.05942,
            47.195078,
            1246.0
          ],
          [
            7.058835,
            47.195029,
            1249.0
          ],
          [
            7.058288,
            47.195023,
            1252.0
          ],
          [
            7.057938,
            47.195004,
            1254.0
          ],
          [
            7.057713,
            47.194943,
            1256.0
          ],
          [
            7.057021,
            47.194785,
            1260.0
          ],
          [
            7.056338,
            47.194687,
            1260.0
          ],
          [
            7.056034,
            47.194479,
            1260.0
          ],
          [
            7.054487,
            47.193869,
            1250.0
          ],
          [
            7.053805,
            47.193515,
            1246.0
          ],
          [
            7.052826,
            47.192739,
            1240.0
          ],
          [
            7.052583,
            47.192489,
            1240.0
          ],
          [
            7.052386,
            47.192165,
            1240.0
          ],
          [
            7.051874,
            47.192104,
            1241.0
          ],
          [
            7.051271,
            47.191933,
            1250.0
          ],
          [
            7.050392,
            47.191702,
            1250.0
          ],
          [
            7.04899,
            47.191396,
            1250.0
          ],
          [
            7.047436,
            47.191207,
            1250.0
          ],
          [
            7.044858,
            47.190926,
            1250.0
          ],
          [
            7.042442,
            47.190572,
            1258.0
          ],
          [
            7.04183,
            47.19056,
            1252.0
          ],
          [
            7.040644,
            47.190408,
            1237.0
          ],
          [
            7.040474,
            47.190389,
            1235.0
          ],
          [
            7.040402,
            47.190414,
            1234.0
          ],
          [
            7.040304,
            47.190481,
            1233.0
          ],
          [
            7.040222,
            47.190517,
            1232.0
          ],
          [
            7.04016,
            47.190475,
            1230.0
          ],
          [
            7.040044,
            47.190432,
            1228.0
          ],
          [
            7.039836,
            47.190359,
            1223.0
          ],
          [
            7.039702,
            47.19031,
            1220.0
          ],
          [
            7.039639,
            47.190322,
            1220.0
          ],
          [
            7.039531,
            47.190194,
            1220.0
          ],
          [
            7.039459,
            47.190096,
            1220.0
          ],
          [
            7.039432,
            47.190084,
            1220.0
          ],
          [
            7.039396,
            47.190053,
            1220.0
          ],
          [
            7.039252,
            47.189858,
            1220.0
          ],
          [
            7.039046,
            47.189413,
            1220.0
          ],
          [
            7.038822,
            47.189016,
            1220.0
          ],
          [
            7.038669,
            47.188814,
            1219.0
          ],
          [
            7.038363,
            47.18854,
            1216.0
          ],
          [
            7.037761,
            47.187978,
            1209.0
          ],
          [
            7.037348,
            47.187423,
            1204.0
          ],
          [
            7.036809,
            47.186751,
            1197.0
          ],
          [
            7.036665,
            47.186366,
            1192.0
          ],
          [
            7.036539,
            47.186043,
            1188.0
          ],
          [
            7.036476,
            47.185707,
            1185.0
          ],
          [
            7.036495,
            47.185634,
            1184.0
          ],
          [
            7.036468,
            47.185554,
            1183.0
          ],
          [
            7.036413,
            47.185389,
            1182.0
          ],
          [
            7.036378,
            47.185261,
            1181.0
          ],
          [
            7.036352,
            47.185206,
            1180.0
          ],
          [
            7.036333,
            47.185145,
            1180.0
          ],
          [
            7.036279,
            47.18498,
            1179.0
          ],
          [
            7.03618,
            47.184809,
            1178.0
          ],
          [
            7.036109,
            47.184773,
            1178.0
          ],
          [
            7.035937,
            47.184663,
            1178.0
          ],
          [
            7.035847,
            47.184608,
            1179.0
          ],
          [
            7.035767,
            47.184547,
            1179.0
          ],
          [
            7.035686,
            47.184486,
            1179.0
          ],
          [
            7.035597,
            47.184425,
            1179.0
          ],
          [
            7.035488,
            47.184327,
            1179.0
          ],
          [
            7.035398,
            47.184254,
            1179.0
          ],
          [
            7.035255,
            47.184205,
            1179.0
          ],
          [
            7.034149,
            47.184095,
            1181.0
          ],
          [
            7.033889,
            47.184064,
            1181.0
          ],
          [
            7.033746,
            47.183967,
            1182.0
          ],
          [
            7.033647,
            47.183887,
            1182.0
          ],
          [
            7.032381,
            47.182965,
            1184.0
          ],
          [
            7.032264,
            47.182892,
            1185.0
          ],
          [
            7.032218,
            47.182861,
            1185.0
          ],
          [
            7.032191,
            47.182849,
            1185.0
          ],
          [
            7.032155,
            47.182837,
            1185.0
          ],
          [
            7.032102,
            47.182819,
            1185.0
          ],
          [
            7.031949,
            47.182788,
            1185.0
          ],
          [
            7.031868,
            47.182764,
            1185.0
          ],
          [
            7.031769,
            47.182733,
            1186.0
          ],
          [
            7.031689,
            47.182697,
            1186.0
          ],
          [
            7.031635,
            47.182666,
            1186.0
          ],
          [
            7.031581,
            47.182636,
            1186.0
          ],
          [
            7.031518,
            47.182593,
            1186.0
          ],
          [
            7.031375,
            47.182471,
            1186.0
          ],
          [
            7.031275,
            47.182404,
            1187.0
          ],
          [
            7.03106,
            47.182257,
            1187.0
          ],
          [
            7.030889,
            47.182147,
            1187.0
          ],
          [
            7.03052,
            47.181909,
            1188.0
          ],
          [
            7.030413,
            47.181848,
            1188.0
          ],
          [
            7.030081,
            47.181683,
            1189.0
          ],
          [
            7.029847,
            47.181561,
            1189.0
          ],
          [
            7.029847,
            47.181561,
            1189.0
          ],
          [
            7.029794,
            47.181536,
            1189.0
          ],
          [
            7.02974,
            47.181518,
            1189.0
          ],
          [
            7.029694,
            47.1815,
            1190.0
          ],
          [
            7.029425,
            47.181433,
            1190.0
          ],
          [
            7.029146,
            47.18139,
            1191.0
          ],
          [
            7.028796,
            47.181341,
            1193.0
          ],
          [
            7.028652,
            47.181311,
            1194.0
          ],
          [
            7.028536,
            47.181286,
            1194.0
          ],
          [
            7.028436,
            47.181249,
            1195.0
          ],
          [
            7.028338,
            47.181213,
            1196.0
          ],
          [
            7.028212,
            47.181146,
            1196.0
          ],
          [
            7.027781,
            47.180901,
            1199.0
          ],
          [
            7.027457,
            47.180724,
            1201.0
          ],
          [
            7.02735,
            47.180663,
            1202.0
          ],
          [
            7.02718,
            47.180584,
            1203.0
          ],
          [
            7.027081,
            47.180541,
            1203.0
          ],
          [
            7.027,
            47.180499,
            1204.0
          ],
          [
            7.026945,
            47.180468,
            1204.0
          ],
          [
            7.026874,
            47.180413,
            1205.0
          ],
          [
            7.026694,
            47.18026,
            1206.0
          ],
          [
            7.026631,
            47.180212,
            1206.0
          ],
          [
            7.026568,
            47.180175,
            1207.0
          ],
          [
            7.026532,
            47.180157,
            1207.0
          ],
          [
            7.026478,
            47.180132,
            1207.0
          ],
          [
            7.026344,
            47.180077,
            1208.0
          ],
          [
            7.026272,
            47.180047,
            1209.0
          ],
          [
            7.026199,
            47.180004,
            1209.0
          ],
          [
            7.026101,
            47.179937,
            1210.0
          ],
          [
            7.025643,
            47.179601,
            1210.0
          ],
          [
            7.02549,
            47.179461,
            1210.0
          ],
          [
            7.025302,
            47.179326,
            1211.0
          ],
          [
            7.025096,
            47.179167,
            1211.0
          ],
          [
            7.024637,
            47.178813,
            1211.0
          ],
          [
            7.024377,
            47.17871,
            1211.0
          ],
          [
            7.024341,
            47.178697,
            1211.0
          ],
          [
            7.024314,
            47.178691,
            1211.0
          ],
          [
            7.024224,
            47.178673,
            1211.0
          ],
          [
            7.023838,
            47.178581,
            1212.0
          ],
          [
            7.023738,
            47.178563,
            1212.0
          ],
          [
            7.023604,
            47.178526,
            1212.0
          ],
          [
            7.023488,
            47.178484,
            1212.0
          ],
          [
            7.023362,
            47.178435,
            1212.0
          ],
          [
            7.023073,
            47.178319,
            1212.0
          ],
          [
            7.022624,
            47.178136,
            1212.0
          ],
          [
            7.022301,
            47.178007,
            1213.0
          ],
          [
            7.022067,
            47.177916,
            1213.0
          ],
          [
            7.021897,
            47.177855,
            1213.0
          ],
          [
            7.021744,
            47.1778,
            1213.0
          ],
          [
            7.021601,
            47.177751,
            1213.0
          ],
          [
            7.02143,
            47.177684,
            1213.0
          ],
          [
            7.021286,
            47.177623,
            1213.0
          ],
          [
            7.021134,
            47.177549,
            1213.0
          ],
          [
            7.021008,
            47.177482,
            1213.0
          ],
          [
            7.020549,
            47.177226,
            1214.0
          ],
          [
            7.020136,
            47.176994,
            1214.0
          ],
          [
            7.019974,
            47.176902,
            1214.0
          ],
          [
            7.019822,
            47.176811,
            1214.0
          ],
          [
            7.019633,
            47.176682,
            1214.0
          ],
          [
            7.019463,
            47.176548,
            1215.0
          ],
          [
            7.019337,
            47.176432,
            1215.0
          ],
          [
            7.018932,
            47.17609,
            1215.0
          ],
          [
            7.018807,
            47.175956,
            1215.0
          ],
          [
            7.018456,
            47.176005,
            1220.0
          ],
          [
            7.018115,
            47.176053,
            1222.0
          ],
          [
            7.017819,
            47.176096,
            1224.0
          ],
          [
            7.017612,
            47.176121,
            1225.0
          ],
          [
            7.016957,
            47.176169,
            1229.0
          ],
          [
            7.016517,
            47.176249,
            1230.0
          ],
          [
            7.015582,
            47.176432,
            1230.0
          ],
          [
            7.015169,
            47.176517,
            1230.0
          ],
          [
            7.014729,
            47.176609,
            1230.0
          ],
          [
            7.013848,
            47.177391,
            1233.0
          ],
          [
            7.013112,
            47.177983,
            1235.0
          ],
          [
            7.012968,
            47.178087,
            1236.0
          ],
          [
            7.012859,
            47.178172,
            1236.0
          ],
          [
            7.01277,
            47.178264,
            1237.0
          ],
          [
            7.012752,
            47.178374,
            1237.0
          ],
          [
            7.012825,
            47.178526,
            1237.0
          ],
          [
            7.012859,
            47.178618,
            1238.0
          ],
          [
            7.012825,
            47.178716,
            1238.0
          ],
          [
            7.012743,
            47.178838,
            1238.0
          ],
          [
            7.012725,
            47.178942,
            1239.0
          ],
          [
            7.012815,
            47.180065,
            1240.0
          ],
          [
            7.012798,
            47.180303,
            1240.0
          ],
          [
            7.012267,
            47.181256,
            1240.0
          ],
          [
            7.012159,
            47.181396,
            1240.0
          ],
          [
            7.012024,
            47.18142,
            1240.0
          ],
          [
            7.011746,
            47.181463,
            1240.0
          ],
          [
            7.011234,
            47.181555,
            1240.0
          ],
          [
            7.010938,
            47.181616,
            1239.0
          ],
          [
            7.010758,
            47.181714,
            1238.0
          ],
          [
            7.010542,
            47.181793,
            1237.0
          ],
          [
            7.010462,
            47.181823,
            1236.0
          ],
          [
            7.010272,
            47.181811,
            1236.0
          ],
          [
            7.009833,
            47.181707,
            1235.0
          ],
          [
            7.009393,
            47.181598,
            1233.0
          ],
          [
            7.00862,
            47.181408,
            1231.0
          ],
          [
            7.00862,
            47.181408,
            1231.0
          ],
          [
            7.008188,
            47.181298,
            1230.0
          ],
          [
            7.007865,
            47.181201,
            1223.0
          ],
          [
            7.007775,
            47.181158,
            1220.0
          ],
          [
            7.007856,
            47.180651,
            1220.0
          ],
          [
            7.007875,
            47.180499,
            1220.0
          ],
          [
            7.007838,
            47.180291,
            1220.0
          ],
          [
            7.007766,
            47.180077,
            1220.0
          ],
          [
            7.007731,
            47.179906,
            1220.0
          ],
          [
            7.007731,
            47.179784,
            1220.0
          ],
          [
            7.007794,
            47.179638,
            1220.0
          ],
          [
            7.007928,
            47.179406,
            1220.0
          ],
          [
            7.008144,
            47.179186,
            1220.0
          ],
          [
            7.008198,
            47.179137,
            1220.0
          ],
          [
            7.008215,
            47.179088,
            1220.0
          ],
          [
            7.008215,
            47.179027,
            1220.0
          ],
          [
            7.008188,
            47.178972,
            1220.0
          ],
          [
            7.008099,
            47.178893,
            1220.0
          ],
          [
            7.008001,
            47.178844,
            1220.0
          ],
          [
            7.007838,
            47.17871,
            1220.0
          ],
          [
            7.007569,
            47.178478,
            1220.0
          ],
          [
            7.007362,
            47.178276,
            1220.0
          ],
          [
            7.007219,
            47.178075,
            1220.0
          ],
          [
            7.007093,
            47.177775,
            1220.0
          ],
          [
            7.00703,
            47.177574,
            1220.0
          ],
          [
            7.006985,
            47.177391,
            1220.0
          ],
          [
            7.006896,
            47.177232,
            1220.0
          ],
          [
            7.006823,
            47.177091,
            1220.0
          ],
          [
            7.006823,
            47.176957,
            1220.0
          ],
          [
            7.006833,
            47.176664,
            1220.0
          ],
          [
            7.006859,
            47.176102,
            1220.0
          ],
          [
            7.006823,
            47.175614,
            1220.0
          ],
          [
            7.006833,
            47.175125,
            1220.0
          ],
          [
            7.006877,
            47.174869,
            1220.0
          ],
          [
            7.006993,
            47.174612,
            1220.0
          ],
          [
            7.007048,
            47.174551,
            1219.0
          ],
          [
            7.007075,
            47.174472,
            1219.0
          ],
          [
            7.007192,
            47.17416,
            1216.0
          ],
          [
            7.007326,
            47.1738,
            1213.0
          ],
          [
            7.007435,
            47.173428,
            1210.0
          ],
          [
            7.007596,
            47.17275,
            1205.0
          ],
          [
            7.007739,
            47.17217,
            1202.0
          ],
          [
            7.007892,
            47.17173,
            1200.0
          ],
          [
            7.008062,
            47.171443,
            1200.0
          ],
          [
            7.008162,
            47.171303,
            1200.0
          ],
          [
            7.008288,
            47.171174,
            1200.0
          ],
          [
            7.008351,
            47.171089,
            1200.0
          ],
          [
            7.008538,
            47.170845,
            1198.0
          ],
          [
            7.008727,
            47.170661,
            1196.0
          ],
          [
            7.008898,
            47.170423,
            1194.0
          ],
          [
            7.009024,
            47.170264,
            1193.0
          ],
          [
            7.009024,
            47.170216,
            1193.0
          ],
          [
            7.009006,
            47.170167,
            1192.0
          ],
          [
            7.00889,
            47.170136,
            1192.0
          ],
          [
            7.008691,
            47.170094,
            1191.0
          ],
          [
            7.008683,
            47.170051,
            1190.0
          ],
          [
            7.00871,
            47.169996,
            1190.0
          ],
          [
            7.008817,
            47.169947,
            1189.0
          ],
          [
            7.008926,
            47.169923,
            1189.0
          ],
          [
            7.00906,
            47.169904,
            1188.0
          ],
          [
            7.009213,
            47.16991,
            1187.0
          ],
          [
            7.009626,
            47.169978,
            1185.0
          ],
          [
            7.009896,
            47.170014,
            1184.0
          ],
          [
            7.010093,
            47.169978,
            1183.0
          ],
          [
            7.010209,
            47.169874,
            1182.0
          ],
          [
            7.010236,
            47.169831,
            1182.0
          ],
          [
            7.010228,
            47.169788,
            1181.0
          ],
          [
            7.010075,
            47.169642,
            1180.0
          ],
          [
            7.00985,
            47.169471,
            1177.0
          ],
          [
            7.009133,
            47.169178,
            1170.0
          ],
          [
            7.008863,
            47.169092,
            1168.0
          ],
          [
            7.008278,
            47.168848,
            1162.0
          ],
          [
            7.008387,
            47.168701,
            1159.0
          ],
          [
            7.008485,
            47.168561,
            1156.0
          ],
          [
            7.008494,
            47.168353,
            1151.0
          ],
          [
            7.008332,
            47.168115,
            1148.0
          ],
          [
            7.007559,
            47.167254,
            1135.0
          ],
          [
            7.007586,
            47.16715,
            1133.0
          ],
          [
            7.007766,
            47.167059,
            1130.0
          ],
          [
            7.008035,
            47.167071,
            1125.0
          ],
          [
            7.008099,
            47.167022,
            1124.0
          ],
          [
            7.007964,
            47.166918,
            1120.0
          ],
          [
            7.008045,
            47.166881,
            1118.0
          ],
          [
            7.008188,
            47.166869,
            1115.0
          ],
          [
            7.008324,
            47.166894,
            1111.0
          ],
          [
            7.008152,
            47.16671,
            1104.0
          ],
          [
            7.008018,
            47.166594,
            1099.0
          ],
          [
            7.007785,
            47.16635,
            1091.0
          ],
          [
            7.007704,
            47.166271,
            1089.0
          ],
          [
            7.007668,
            47.16621,
            1087.0
          ],
          [
            7.007578,
            47.166142,
            1085.0
          ],
          [
            7.007435,
            47.166045,
            1082.0
          ],
          [
            7.007345,
            47.165953,
            1079.0
          ],
          [
            7.007569,
            47.165929,
            1074.0
          ],
          [
            7.007435,
            47.165868,
            1071.0
          ],
          [
            7.007282,
            47.165709,
            1064.0
          ],
          [
            7.007246,
            47.16566,
            1061.0
          ],
          [
            7.007299,
            47.165623,
            1060.0
          ],
          [
            7.007479,
            47.165654,
            1057.0
          ],
          [
            7.007685,
            47.165727,
            1053.0
          ],
          [
            7.007739,
            47.165715,
            1052.0
          ],
          [
            7.007641,
            47.165538,
            1046.0
          ],
          [
            7.007525,
            47.165348,
            1039.0
          ],
          [
            7.007425,
            47.165165,
            1034.0
          ],
          [
            7.007488,
            47.165165,
            1033.0
          ],
          [
            7.007586,
            47.16519,
            1031.0
          ],
          [
            7.007641,
            47.165177,
            1030.0
          ],
          [
            7.007488,
            47.165,
            1025.0
          ],
          [
            7.007246,
            47.164731,
            1017.0
          ],
          [
            7.006904,
            47.164255,
            1005.0
          ],
          [
            7.006842,
            47.164188,
            1003.0
          ],
          [
            7.006859,
            47.164145,
            1002.0
          ],
          [
            7.006922,
            47.164139,
            1001.0
          ],
          [
            7.007056,
            47.164145,
            998.0
          ],
          [
            7.007012,
            47.164078,
            995.0
          ],
          [
            7.00702,
            47.164053,
            994.0
          ],
          [
            7.007075,
            47.164041,
            993.0
          ],
          [
            7.007165,
            47.16406,
            991.0
          ],
          [
            7.0072,
            47.163992,
            988.0
          ],
          [
            7.00729,
            47.163992,
            986.0
          ],
          [
            7.007506,
            47.164041,
            982.0
          ],
          [
            7.007739,
            47.164078,
            976.0
          ],
          [
            7.007938,
            47.164047,
            971.0
          ],
          [
            7.008001,
            47.163986,
            969.0
          ],
          [
            7.007982,
            47.163907,
            967.0
          ],
          [
            7.007901,
            47.163699,
            964.0
          ],
          [
            7.007848,
            47.163595,
            962.0
          ],
          [
            7.007704,
            47.16343,
            958.0
          ],
          [
            7.007596,
            47.163272,
            956.0
          ],
          [
            7.007586,
            47.163149,
            954.0
          ],
          [
            7.007533,
            47.162997,
            952.0
          ],
          [
            7.007542,
            47.162881,
            950.0
          ],
          [
            7.007586,
            47.162807,
            948.0
          ],
          [
            7.007785,
            47.162508,
            942.0
          ],
          [
            7.007884,
            47.162319,
            938.0
          ],
          [
            7.008001,
            47.162044,
            933.0
          ],
          [
            7.008018,
            47.161989,
            932.0
          ],
          [
            7.007974,
            47.161683,
            929.0
          ],
          [
            7.008054,
            47.16161,
            928.0
          ],
          [
            7.008171,
            47.161549,
            928.0
          ],
          [
            7.00818,
            47.161451,
            927.0
          ],
          [
            7.008242,
            47.161274,
            926.0
          ],
          [
            7.008332,
            47.160969,
            924.0
          ],
          [
            7.008414,
            47.160529,
            922.0
          ],
          [
            7.008512,
            47.160206,
            920.0
          ],
          [
            7.008601,
            47.160029,
            918.0
          ],
          [
            7.008628,
            47.159949,
            917.0
          ],
          [
            7.008656,
            47.159876,
            916.0
          ],
          [
            7.008674,
            47.159742,
            915.0
          ],
          [
            7.008611,
            47.159204,
            908.0
          ],
          [
            7.008593,
            47.159082,
            906.0
          ],
          [
            7.00853,
            47.158941,
            904.0
          ],
          [
            7.008458,
            47.158813,
            902.0
          ],
          [
            7.00836,
            47.158679,
            899.0
          ],
          [
            7.00827,
            47.158581,
            897.0
          ],
          [
            7.008171,
            47.158489,
            895.0
          ],
          [
            7.008009,
            47.158361,
            892.0
          ],
          [
            7.007865,
            47.158245,
            889.0
          ],
          [
            7.007506,
            47.157927,
            881.0
          ],
          [
            7.007389,
            47.157848,
            879.0
          ],
          [
            7.007219,
            47.157756,
            876.0
          ],
          [
            7.00702,
            47.157652,
            872.0
          ],
          [
            7.006922,
            47.157622,
            871.0
          ],
          [
            7.006806,
            47.157603,
            869.0
          ],
          [
            7.006689,
            47.157591,
            868.0
          ],
          [
            7.006617,
            47.157579,
            868.0
          ],
          [
            7.006544,
            47.157542,
            867.0
          ],
          [
            7.006491,
            47.157487,
            866.0
          ],
          [
            7.00641,
            47.157444,
            865.0
          ],
          [
            7.006267,
            47.157426,
            863.0
          ],
          [
            7.00553,
            47.157286,
            858.0
          ],
          [
            7.005009,
            47.1572,
            855.0
          ],
          [
            7.00482,
            47.157188,
            854.0
          ],
          [
            7.004596,
            47.157157,
            853.0
          ],
          [
            7.004129,
            47.157041,
            851.0
          ],
          [
            7.003688,
            47.156913,
            850.0
          ],
          [
            7.002735,
            47.156638,
            850.0
          ],
          [
            7.002754,
            47.156607,
            849.0
          ],
          [
            7.002844,
            47.156443,
            843.0
          ],
          [
            7.002888,
            47.156363,
            835.0
          ],
          [
            7.002997,
            47.15618,
            833.0
          ],
          [
            7.003024,
            47.156131,
            837.0
          ],
          [
            7.003301,
            47.15563,
            828.0
          ],
          [
            7.003527,
            47.155258,
            821.0
          ],
          [
            7.00367,
            47.155007,
            818.0
          ],
          [
            7.003714,
            47.15494,
            817.0
          ],
          [
            7.00376,
            47.15491,
            817.0
          ],
          [
            7.003769,
            47.154897,
            817.0
          ],
          [
            7.003823,
            47.154861,
            816.0
          ],
          [
            7.003364,
            47.154378,
            812.0
          ],
          [
            7.003284,
            47.154299,
            812.0
          ],
          [
            7.00323,
            47.154256,
            812.0
          ],
          [
            7.00315,
            47.154207,
            811.0
          ],
          [
            7.00306,
            47.154158,
            811.0
          ],
          [
            7.003024,
            47.15411,
            810.0
          ],
          [
            7.003014,
            47.154073,
            810.0
          ],
          [
            7.002898,
            47.154042,
            810.0
          ],
          [
            7.002825,
            47.154018,
            810.0
          ],
          [
            7.002772,
            47.154,
            810.0
          ],
          [
            7.002502,
            47.153883,
            810.0
          ],
          [
            7.002332,
            47.153792,
            810.0
          ],
          [
            7.002215,
            47.153731,
            810.0
          ],
          [
            7.002098,
            47.153676,
            810.0
          ],
          [
            7.001972,
            47.153645,
            810.0
          ],
          [
            7.001999,
            47.153596,
            810.0
          ],
          [
            7.002026,
            47.153547,
            810.0
          ],
          [
            7.002072,
            47.153456,
            810.0
          ],
          [
            7.002206,
            47.153321,
            810.0
          ],
          [
            7.002439,
            47.153071,
            802.0
          ],
          [
            7.002735,
            47.152723,
            800.0
          ],
          [
            7.002754,
            47.152692,
            800.0
          ],
          [
            7.002439,
            47.152545,
            800.0
          ],
          [
            7.001685,
            47.152252,
            798.0
          ],
          [
            7.001056,
            47.151989,
            794.0
          ],
          [
            7.000957,
            47.151953,
            794.0
          ],
          [
            7.000903,
            47.15191,
            793.0
          ],
          [
            7.000913,
            47.151891,
            793.0
          ],
          [
            7.000921,
            47.151879,
            793.0
          ],
          [
            7.000921,
            47.151861,
            793.0
          ],
          [
            7.000913,
            47.151836,
            793.0
          ],
          [
            7.000886,
            47.151824,
            793.0
          ],
          [
            7.000858,
            47.151812,
            793.0
          ],
          [
            7.000831,
            47.151812,
            793.0
          ],
          [
            7.000804,
            47.151818,
            793.0
          ],
          [
            7.000777,
            47.151788,
            793.0
          ],
          [
            7.00076,
            47.151769,
            793.0
          ],
          [
            7.000733,
            47.151739,
            793.0
          ],
          [
            7.000777,
            47.15172,
            792.0
          ],
          [
            7.000796,
            47.151714,
            792.0
          ],
          [
            7.000823,
            47.151641,
            791.0
          ]
        ]
      }
    }
  ]
}