{
  "type": "FeatureCollection",
  "features": [
    {
      "type": "Feature",
      "properties": {},
      "geometry": {
        "type": "LineString",
        "coordinates": [
          [
            8.396167,
            47.384004,
            430.0
          ],
          [
            8.396221,
            47.384466,
            430.0
          ],
          [
            8.396265,
            47.384892,
            430.0
          ],
          [
            8.39641,
            47.384879,
            430.0
          ],
          [
            8.396445,
            47.384885,
            430.0
          ],
          [
            8.396472,
            47.384898,
            430.0
          ],
          [
            8.396508,
            47.384916,
            430.0
          ],
          [
            8.396535,
            47.384946,
            430.0
          ],
          [
            8.396535,
            47.384959,
            430.0
          ],
          [
            8.396544,
            47.384977,
            430.0
          ],
          [
            8.396553,
            47.384995,
            430.0
          ],
          [
            8.396553,
            47.385007,
            430.0
          ],
          [
            8.396553,
            47.385025,
            430.0
          ],
          [
            8.396544,
            47.385044,
            430.0
          ],
          [
            8.396535,
            47.385062,
            430.0
          ],
          [
            8.396517,
            47.38508,
            430.0
          ],
          [
            8.396508,
            47.385092,
            430.0
          ],
          [
            8.39649,
            47.385098,
            430.0
          ],
          [
            8.396481,
            47.385104,
            430.0
          ],
          [
            8.396464,
            47.38511,
            430.0
          ],
          [
            8.396427,
            47.38511,
            430.0
          ],
          [
            8.396382,
            47.385116,
            430.0
          ],
          [
            8.396364,
            47.384684,
            430.0
          ],
          [
            8.396382,
            47.384484,
            430.0
          ],
          [
            8.396364,
            47.384411,
            430.0
          ],
          [
            8.396355,
            47.384368,
            430.0
          ],
          [
            8.396347,
            47.384295,
            430.0
          ],
          [
            8.396347,
            47.384271,
            430.0
          ],
          [
            8.396355,
            47.384246,
            430.0
          ],
          [
            8.396364,
            47.384228,
            430.0
          ],
          [
            8.396374,
            47.38421,
            430.0
          ],
          [
            8.396382,
            47.384149,
            430.0
          ],
          [
            8.396418,
            47.383955,
            430.0
          ],
          [
            8.396571,
            47.383109,
            430.0
          ],
          [
            8.396706,
            47.381588,
            433.0
          ],
          [
            8.396706,
            47.381431,
            433.0
          ],
          [
            8.396697,
            47.381297,
            433.0
          ],
          [
            8.396661,
            47.381181,
            433.0
          ],
          [
            8.39632,
            47.380293,
            435.0
          ],
          [
            8.396265,
            47.380104,
            436.0
          ],
          [
            8.396238,
            47.379934,
            436.0
          ],
          [
            8.396265,
            47.379667,
            437.0
          ],
          [
            8.396391,
            47.379417,
            437.0
          ],
          [
            8.396768,
            47.379138,
            438.0
          ],
          [
            8.396831,
            47.379009,
            438.0
          ],
          [
            8.396823,
            47.378888,
            439.0
          ],
          [
            8.396787,
            47.378772,
            439.0
          ],
          [
            8.396706,
            47.378547,
            439.0
          ],
          [
            8.396643,
            47.378316,
            440.0
          ],
          [
            8.396651,
            47.37811,
            440.0
          ],
          [
            8.396688,
            47.377969,
            441.0
          ],
          [
            8.396751,
            47.377829,
            441.0
          ],
          [
            8.396787,
            47.377714,
            441.0
          ],
          [
            8.396777,
            47.377464,
            442.0
          ],
          [
            8.396804,
            47.377239,
            442.0
          ],
          [
            8.396787,
            47.377173,
            442.0
          ],
          [
            8.396464,
            47.377221,
            442.0
          ],
          [
            8.396274,
            47.377252,
            441.0
          ],
          [
            8.395718,
            47.377337,
            440.0
          ],
          [
            8.395655,
            47.377258,
            440.0
          ],
          [
            8.395582,
            47.377173,
            440.0
          ],
          [
            8.395466,
            47.377045,
            440.0
          ],
          [
            8.39516,
            47.376753,
            440.0
          ],
          [
            8.395035,
            47.376625,
            441.0
          ],
          [
            8.394909,
            47.376473,
            444.0
          ],
          [
            8.394739,
            47.376199,
            449.0
          ],
          [
            8.394451,
            47.375913,
            455.0
          ],
          [
            8.394236,
            47.375822,
            459.0
          ],
          [
            8.393894,
            47.375688,
            461.0
          ],
          [
            8.39367,
            47.375542,
            462.0
          ],
          [
            8.3934,
            47.375299,
            464.0
          ],
          [
            8.393301,
            47.375189,
            465.0
          ],
          [
            8.393301,
            47.375189,
            465.0
          ],
          [
            8.393274,
            47.375159,
            465.0
          ],
          [
            8.393058,
            47.375013,
            466.0
          ],
          [
            8.39199,
            47.374387,
            470.0
          ],
          [
            8.390902,
            47.373729,
            470.0
          ],
          [
            8.390112,
            47.373352,
            470.0
          ],
          [
            8.389097,
            47.37289,
            470.0
          ],
          [
            8.388477,
            47.372592,
            470.0
          ],
          [
            8.387749,
            47.372312,
            470.0
          ],
          [
            8.387085,
            47.372014,
            470.0
          ],
          [
            8.386914,
            47.371934,
            470.0
          ],
          [
            8.386636,
            47.371813,
            470.0
          ],
          [
            8.385971,
            47.371539,
            471.0
          ],
          [
            8.385926,
            47.371484,
            471.0
          ],
          [
            8.385791,
            47.371436,
            472.0
          ],
          [
            8.385531,
            47.371381,
            472.0
          ],
          [
            8.385208,
            47.371278,
            473.0
          ],
          [
            8.384974,
            47.371168,
            474.0
          ],
          [
            8.38447,
            47.370882,
            475.0
          ],
          [
            8.38421,
            47.370712,
            476.0
          ],
          [
            8.384057,
            47.370584,
            477.0
          ],
          [
            8.383977,
            47.370493,
            477.0
          ],
          [
            8.383913,
            47.370438,
            478.0
          ],
          [
            8.383833,
            47.370389,
            478.0
          ],
          [
            8.383806,
            47.370365,
            478.0
          ],
          [
            8.383761,
            47.370267,
            478.0
          ],
          [
            8.383474,
            47.369952,
            480.0
          ],
          [
            8.383158,
            47.369617,
            481.0
          ],
          [
            8.383015,
            47.369447,
            482.0
          ],
          [
            8.382925,
            47.369307,
            483.0
          ],
          [
            8.382871,
            47.369191,
            483.0
          ],
          [
            8.3828,
            47.369051,
            482.0
          ],
          [
            8.382711,
            47.368893,
            484.0
          ],
          [
            8.382296,
            47.36823,
            482.0
          ],
          [
            8.382234,
            47.368138,
            482.0
          ],
          [
            8.382116,
            47.368004,
            481.0
          ],
          [
            8.382063,
            47.367937,
            481.0
          ],
          [
            8.382027,
            47.367913,
            481.0
          ],
          [
            8.381946,
            47.367871,
            481.0
          ],
          [
            8.381839,
            47.367846,
            480.0
          ],
          [
            8.381892,
            47.367737,
            481.0
          ],
          [
            8.38191,
            47.36764,
            482.0
          ],
          [
            8.38191,
            47.367579,
            483.0
          ],
          [
            8.38191,
            47.367469,
            484.0
          ],
          [
            8.381883,
            47.367378,
            485.0
          ],
          [
            8.381812,
            47.367201,
            486.0
          ],
          [
            8.38174,
            47.367062,
            488.0
          ],
          [
            8.381506,
            47.366733,
            491.0
          ],
          [
            8.381407,
            47.366581,
            492.0
          ],
          [
            8.3813,
            47.366392,
            493.0
          ],
          [
            8.38121,
            47.366197,
            494.0
          ],
          [
            8.381174,
            47.366094,
            495.0
          ],
          [
            8.381156,
            47.365991,
            496.0
          ],
          [
            8.381147,
            47.365881,
            496.0
          ],
          [
            8.381156,
            47.365777,
            497.0
          ],
          [
            8.381192,
            47.365553,
            498.0
          ],
          [
            8.381263,
            47.36526,
            501.0
          ],
          [
            8.3813,
            47.365096,
            502.0
          ],
          [
            8.38121,
            47.365084,
            502.0
          ],
          [
            8.381111,
            47.365035,
            503.0
          ],
          [
            8.380537,
            47.36453,
            503.0
          ],
          [
            8.380114,
            47.364061,
            504.0
          ],
          [
            8.379845,
            47.36366,
            504.0
          ],
          [
            8.379772,
            47.363612,
            504.0
          ],
          [
            8.379772,
            47.363563,
            504.0
          ],
          [
            8.378963,
            47.362115,
            506.0
          ],
          [
            8.378334,
            47.360788,
            508.0
          ],
          [
            8.378183,
            47.36052,
            508.0
          ],
          [
            8.378111,
            47.360332,
            508.0
          ],
          [
            8.378147,
            47.360259,
            508.0
          ],
          [
            8.378227,
            47.360192,
            508.0
          ],
          [
            8.378227,
            47.360168,
            508.0
          ],
          [
            8.378227,
            47.360137,
            508.0
          ],
          [
            8.377931,
            47.359808,
            509.0
          ],
          [
            8.37794,
            47.359657,
            509.0
          ],
          [
            8.377895,
            47.359663,
            509.0
          ],
          [
            8.377742,
            47.359675,
            509.0
          ],
          [
            8.377787,
            47.359675,
            509.0
          ],
          [
            8.377724,
            47.359681,
            509.0
          ],
          [
            8.377527,
            47.359729,
            510.0
          ],
          [
            8.377292,
            47.35979,
            510.0
          ],
          [
            8.377122,
            47.359887,
            513.0
          ],
          [
            8.376934,
            47.359978,
            517.0
          ],
          [
            8.376799,
            47.36007,
            519.0
          ],
          [
            8.376692,
            47.360027,
            520.0
          ],
          [
            8.376548,
            47.360003,
            521.0
          ],
          [
            8.376413,
            47.359991,
            521.0
          ],
          [
            8.376224,
            47.359972,
            522.0
          ],
          [
            8.376116,
            47.359985,
            523.0
          ],
          [
            8.375963,
            47.360021,
            523.0
          ],
          [
            8.37565,
            47.360143,
            525.0
          ],
          [
            8.375506,
            47.360149,
            526.0
          ],
          [
            8.375397,
            47.360204,
            526.0
          ],
          [
            8.375397,
            47.360204,
            526.0
          ],
          [
            8.375353,
            47.360222,
            526.0
          ],
          [
            8.375047,
            47.360356,
            528.0
          ],
          [
            8.374967,
            47.360393,
            529.0
          ],
          [
            8.374904,
            47.360399,
            529.0
          ],
          [
            8.374822,
            47.36038,
            529.0
          ],
          [
            8.374697,
            47.360326,
            530.0
          ],
          [
            8.374598,
            47.360289,
            530.0
          ],
          [
            8.374481,
            47.360271,
            531.0
          ],
          [
            8.374329,
            47.360265,
            531.0
          ],
          [
            8.374176,
            47.360277,
            531.0
          ],
          [
            8.374023,
            47.360314,
            532.0
          ],
          [
            8.37387,
            47.360368,
            532.0
          ],
          [
            8.373386,
            47.360618,
            534.0
          ],
          [
            8.373134,
            47.360734,
            535.0
          ],
          [
            8.372766,
            47.360867,
            536.0
          ],
          [
            8.372397,
            47.361001,
            537.0
          ],
          [
            8.371606,
            47.361263,
            539.0
          ],
          [
            8.371247,
            47.361373,
            540.0
          ],
          [
            8.370323,
            47.36167,
            543.0
          ],
          [
            8.369342,
            47.361987,
            547.0
          ],
          [
            8.369281,
            47.361993,
            547.0
          ],
          [
            8.369226,
            47.361987,
            547.0
          ],
          [
            8.369199,
            47.362011,
            547.0
          ],
          [
            8.368723,
            47.362163,
            550.0
          ],
          [
            8.368679,
            47.362157,
            550.0
          ],
          [
            8.368552,
            47.362011,
            550.0
          ],
          [
            8.368157,
            47.361957,
            550.0
          ],
          [
            8.367942,
            47.361963,
            550.0
          ],
          [
            8.36787,
            47.361945,
            550.0
          ],
          [
            8.367789,
            47.361945,
            550.0
          ],
          [
            8.3676,
            47.361999,
            550.0
          ],
          [
            8.367501,
            47.361963,
            550.0
          ],
          [
            8.367466,
            47.361969,
            550.0
          ],
          [
            8.367348,
            47.361452,
            550.0
          ],
          [
            8.367304,
            47.361299,
            550.0
          ],
          [
            8.367197,
            47.361299,
            550.0
          ],
          [
            8.367115,
            47.361306,
            550.0
          ],
          [
            8.367115,
            47.361287,
            550.0
          ],
          [
            8.367079,
            47.361251,
            550.0
          ],
          [
            8.367025,
            47.361214,
            550.0
          ],
          [
            8.366962,
            47.361208,
            550.0
          ],
          [
            8.366918,
            47.361208,
            550.0
          ],
          [
            8.366908,
            47.361147,
            550.0
          ],
          [
            8.366837,
            47.361159,
            550.0
          ],
          [
            8.366765,
            47.361183,
            550.0
          ],
          [
            8.366702,
            47.361123,
            550.0
          ],
          [
            8.366594,
            47.361056,
            550.0
          ],
          [
            8.366442,
            47.360892,
            550.0
          ],
          [
            8.366352,
            47.360813,
            550.0
          ],
          [
            8.366199,
            47.360715,
            550.0
          ],
          [
            8.365885,
            47.360563,
            550.0
          ],
          [
            8.365776,
            47.360502,
            550.0
          ],
          [
            8.36566,
            47.360441,
            550.0
          ],
          [
            8.365184,
            47.360192,
            550.0
          ],
          [
            8.365067,
            47.360125,
            550.0
          ],
          [
            8.364734,
            47.359936,
            550.0
          ],
          [
            8.364591,
            47.359857,
            550.0
          ],
          [
            8.364331,
            47.359699,
            550.0
          ],
          [
            8.363872,
            47.359382,
            550.0
          ],
          [
            8.363845,
            47.35937,
            550.0
          ],
          [
            8.363809,
            47.359346,
            550.0
          ],
          [
            8.36309,
            47.358828,
            548.0
          ],
          [
            8.363055,
            47.35881,
            548.0
          ],
          [
            8.36275,
            47.358597,
            547.0
          ],
          [
            8.362381,
            47.35833,
            546.0
          ],
          [
            8.36222,
            47.358226,
            545.0
          ],
          [
            8.361941,
            47.358032,
            545.0
          ],
          [
            8.361779,
            47.357922,
            544.0
          ],
          [
            8.361591,
            47.357794,
            544.0
          ],
          [
            8.361545,
            47.35777,
            543.0
          ],
          [
            8.361249,
            47.357581,
            543.0
          ],
          [
            8.361178,
            47.357526,
            543.0
          ],
          [
            8.361123,
            47.357484,
            543.0
          ],
          [
            8.361079,
            47.357417,
            543.0
          ],
          [
            8.361034,
            47.357423,
            543.0
          ],
          [
            8.360989,
            47.357411,
            543.0
          ],
          [
            8.360952,
            47.357399,
            543.0
          ],
          [
            8.360872,
            47.357356,
            542.0
          ],
          [
            8.360792,
            47.357301,
            542.0
          ],
          [
            8.360737,
            47.357271,
            542.0
          ],
          [
            8.360665,
            47.357247,
            541.0
          ],
          [
            8.360602,
            47.357241,
            541.0
          ],
          [
            8.360522,
            47.357253,
            541.0
          ],
          [
            8.360468,
            47.357271,
            541.0
          ],
          [
            8.36036,
            47.357283,
            540.0
          ],
          [
            8.36027,
            47.357265,
            540.0
          ],
          [
            8.36018,
            47.357235,
            540.0
          ],
          [
            8.360063,
            47.35718,
            539.0
          ],
          [
            8.359991,
            47.357143,
            539.0
          ],
          [
            8.359956,
            47.357107,
            538.0
          ],
          [
            8.35992,
            47.357125,
            538.0
          ],
          [
            8.359461,
            47.356997,
            530.0
          ],
          [
            8.359461,
            47.356997,
            530.0
          ],
          [
            8.359407,
            47.356979,
            529.0
          ],
          [
            8.358895,
            47.356839,
            520.0
          ],
          [
            8.358905,
            47.356748,
            520.0
          ],
          [
            8.358922,
            47.356699,
            520.0
          ],
          [
            8.358868,
            47.356693,
            520.0
          ],
          [
            8.357153,
            47.356163,
            491.0
          ],
          [
            8.357036,
            47.356255,
            491.0
          ],
          [
            8.356901,
            47.356236,
            489.0
          ],
          [
            8.35682,
            47.356182,
            487.0
          ],
          [
            8.356784,
            47.356157,
            486.0
          ],
          [
            8.35691,
            47.35603,
            484.0
          ],
          [
            8.357018,
            47.355877,
            483.0
          ],
          [
            8.357134,
            47.355567,
            480.0
          ],
          [
            8.357314,
            47.35508,
            477.0
          ],
          [
            8.357207,
            47.355074,
            476.0
          ],
          [
            8.357073,
            47.35508,
            475.0
          ],
          [
            8.357,
            47.355044,
            472.0
          ],
          [
            8.356901,
            47.355001,
            469.0
          ],
          [
            8.356811,
            47.354965,
            465.0
          ],
          [
            8.356704,
            47.35494,
            461.0
          ],
          [
            8.356497,
            47.354916,
            455.0
          ],
          [
            8.356381,
            47.354867,
            452.0
          ],
          [
            8.356362,
            47.354843,
            451.0
          ],
          [
            8.356255,
            47.354794,
            450.0
          ],
          [
            8.356201,
            47.354739,
            448.0
          ],
          [
            8.356102,
            47.354782,
            447.0
          ],
          [
            8.355985,
            47.354813,
            447.0
          ],
          [
            8.355851,
            47.354819,
            446.0
          ],
          [
            8.355689,
            47.354788,
            446.0
          ],
          [
            8.355805,
            47.35455,
            444.0
          ],
          [
            8.355895,
            47.354326,
            443.0
          ],
          [
            8.356444,
            47.353145,
            437.0
          ],
          [
            8.356425,
            47.353017,
            436.0
          ],
          [
            8.356533,
            47.352822,
            435.0
          ],
          [
            8.35665,
            47.352609,
            433.0
          ],
          [
            8.356748,
            47.352439,
            432.0
          ],
          [
            8.356803,
            47.352342,
            431.0
          ],
          [
            8.356857,
            47.352244,
            431.0
          ],
          [
            8.356874,
            47.352189,
            430.0
          ],
          [
            8.356874,
            47.352134,
            430.0
          ],
          [
            8.356847,
            47.352104,
            430.0
          ],
          [
            8.356803,
            47.352061,
            430.0
          ],
          [
            8.356686,
            47.352001,
            431.0
          ],
          [
            8.356568,
            47.351964,
            431.0
          ],
          [
            8.356533,
            47.351952,
            431.0
          ],
          [
            8.35647,
            47.351946,
            432.0
          ],
          [
            8.356398,
            47.351934,
            432.0
          ],
          [
            8.356335,
            47.351934,
            432.0
          ],
          [
            8.356255,
            47.35194,
            432.0
          ],
          [
            8.35621,
            47.35194,
            432.0
          ],
          [
            8.356174,
            47.35194,
            430.0
          ],
          [
            8.356147,
            47.35194,
            428.0
          ],
          [
            8.356147,
            47.351897,
            428.0
          ],
          [
            8.356147,
            47.351855,
            427.0
          ],
          [
            8.356174,
            47.35177,
            427.0
          ],
          [
            8.356201,
            47.351715,
            427.0
          ],
          [
            8.356237,
            47.351666,
            427.0
          ],
          [
            8.356425,
            47.351489,
            427.0
          ],
          [
            8.356488,
            47.351483,
            427.0
          ],
          [
            8.356568,
            47.351404,
            426.0
          ],
          [
            8.356568,
            47.351404,
            426.0
          ],
          [
            8.356597,
            47.351374,
            425.0
          ],
          [
            8.356721,
            47.351222,
            423.0
          ],
          [
            8.357073,
            47.350862,
            418.0
          ],
          [
            8.357107,
            47.35082,
            418.0
          ],
          [
            8.357144,
            47.350747,
            417.0
          ],
          [
            8.357153,
            47.350674,
            416.0
          ],
          [
            8.357144,
            47.350595,
            415.0
          ],
          [
            8.357134,
            47.350418,
            414.0
          ],
          [
            8.357107,
            47.350314,
            413.0
          ],
          [
            8.357063,
            47.350242,
            412.0
          ],
          [
            8.357,
            47.350193,
            411.0
          ],
          [
            8.356937,
            47.35015,
            410.0
          ],
          [
            8.356803,
            47.350071,
            409.0
          ],
          [
            8.356631,
            47.349986,
            408.0
          ],
          [
            8.356605,
            47.349974,
            407.0
          ],
          [
            8.356578,
            47.349992,
            407.0
          ],
          [
            8.356551,
            47.350023,
            407.0
          ],
          [
            8.356479,
            47.350071,
            406.0
          ],
          [
            8.356371,
            47.350126,
            405.0
          ],
          [
            8.356291,
            47.350156,
            404.0
          ],
          [
            8.356245,
            47.350169,
            404.0
          ],
          [
            8.356174,
            47.350187,
            404.0
          ],
          [
            8.356021,
            47.350229,
            402.0
          ],
          [
            8.355706,
            47.350321,
            400.0
          ],
          [
            8.355339,
            47.350424,
            400.0
          ],
          [
            8.355213,
            47.350449,
            400.0
          ],
          [
            8.355096,
            47.350461,
            400.0
          ],
          [
            8.354989,
            47.350467,
            400.0
          ],
          [
            8.354781,
            47.350467,
            400.0
          ],
          [
            8.354574,
            47.350449,
            400.0
          ],
          [
            8.354071,
            47.350327,
            400.0
          ],
          [
            8.353901,
            47.350296,
            400.0
          ],
          [
            8.353775,
            47.350284,
            400.0
          ],
          [
            8.353155,
            47.350278,
            400.0
          ],
          [
            8.352913,
            47.350278,
            400.0
          ],
          [
            8.352886,
            47.350278,
            400.0
          ],
          [
            8.352886,
            47.350278,
            400.0
          ],
          [
            8.352796,
            47.350284,
            400.0
          ],
          [
            8.352545,
            47.350272,
            399.0
          ],
          [
            8.352373,
            47.350248,
            399.0
          ],
          [
            8.352329,
            47.350242,
            399.0
          ],
          [
            8.352131,
            47.350217,
            399.0
          ],
          [
            8.351817,
            47.350156,
            399.0
          ],
          [
            8.351744,
            47.350156,
            399.0
          ],
          [
            8.351683,
            47.350163,
            399.0
          ],
          [
            8.351601,
            47.350205,
            399.0
          ],
          [
            8.351448,
            47.350339,
            399.0
          ],
          [
            8.351377,
            47.350424,
            399.0
          ],
          [
            8.351377,
            47.350424,
            399.0
          ],
          [
            8.351197,
            47.350638,
            399.0
          ],
          [
            8.350918,
            47.350559,
            399.0
          ],
          [
            8.350658,
            47.350479,
            399.0
          ],
          [
            8.349886,
            47.350254,
            399.0
          ],
          [
            8.349859,
            47.35029,
            399.0
          ],
          [
            8.349832,
            47.350333,
            399.0
          ],
          [
            8.349805,
            47.350351,
            399.0
          ],
          [
            8.349769,
            47.350357,
            399.0
          ],
          [
            8.34966,
            47.350363,
            399.0
          ],
          [
            8.349509,
            47.350369,
            399.0
          ],
          [
            8.349077,
            47.350388,
            399.0
          ],
          [
            8.348771,
            47.3504,
            399.0
          ],
          [
            8.347828,
            47.35043,
            399.0
          ],
          [
            8.34676,
            47.350461,
            390.0
          ],
          [
            8.34676,
            47.350522,
            390.0
          ],
          [
            8.346696,
            47.350613,
            390.0
          ],
          [
            8.346436,
            47.350972,
            390.0
          ],
          [
            8.3464,
            47.351027,
            390.0
          ],
          [
            8.346257,
            47.351228,
            390.0
          ],
          [
            8.34623,
            47.351264,
            391.0
          ],
          [
            8.34622,
            47.35127,
            391.0
          ],
          [
            8.346194,
            47.351301,
            391.0
          ],
          [
            8.346184,
            47.351307,
            391.0
          ],
          [
            8.346175,
            47.351319,
            391.0
          ],
          [
            8.346175,
            47.351325,
            391.0
          ],
          [
            8.346157,
            47.351343,
            391.0
          ],
          [
            8.346238,
            47.35138,
            390.0
          ],
          [
            8.34614,
            47.351477,
            390.0
          ],
          [
            8.346104,
            47.35152,
            390.0
          ],
          [
            8.346157,
            47.351544,
            390.0
          ],
          [
            8.346104,
            47.351599,
            390.0
          ],
          [
            8.346068,
            47.351648,
            390.0
          ],
          [
            8.346023,
            47.351696,
            390.0
          ],
          [
            8.345907,
            47.351666,
            390.0
          ],
          [
            8.345844,
            47.351642,
            390.0
          ],
          [
            8.345654,
            47.351562,
            390.0
          ],
          [
            8.345637,
            47.351538,
            390.0
          ],
          [
            8.345591,
            47.351513,
            390.0
          ],
          [
            8.345519,
            47.351483,
            390.0
          ],
          [
            8.345457,
            47.351453,
            390.0
          ],
          [
            8.344792,
            47.351185,
            390.0
          ],
          [
            8.344685,
            47.351167,
            390.0
          ],
          [
            8.344423,
            47.351063,
            390.0
          ],
          [
            8.34427,
            47.351002,
            390.0
          ],
          [
            8.34428,
            47.350996,
            390.0
          ],
          [
            8.344325,
            47.350947,
            390.0
          ],
          [
            8.344325,
            47.350941,
            390.0
          ],
          [
            8.344333,
            47.350935,
            390.0
          ],
          [
            8.34437,
            47.350887,
            390.0
          ],
          [
            8.344379,
            47.350881,
            390.0
          ],
          [
            8.344388,
            47.350868,
            390.0
          ],
          [
            8.344388,
            47.350862,
            390.0
          ],
          [
            8.344379,
            47.35082,
            390.0
          ],
          [
            8.34436,
            47.350814,
            390.0
          ],
          [
            8.344299,
            47.350783,
            390.0
          ],
          [
            8.344289,
            47.350783,
            390.0
          ],
          [
            8.34427,
            47.350771,
            390.0
          ],
          [
            8.344199,
            47.350735,
            390.0
          ],
          [
            8.344173,
            47.350723,
            390.0
          ],
          [
            8.344073,
            47.35071,
            390.0
          ],
          [
            8.343831,
            47.350601,
            390.0
          ],
          [
            8.343408,
            47.350424,
            390.0
          ],
          [
            8.343373,
            47.350467,
            390.0
          ],
          [
            8.343337,
            47.350516,
            390.0
          ],
          [
            8.343202,
            47.350522,
            390.0
          ],
          [
            8.34313,
            47.350552,
            390.0
          ],
          [
            8.343022,
            47.350625,
            389.0
          ],
          [
            8.343085,
            47.350692,
            389.0
          ],
          [
            8.343104,
            47.350759,
            388.0
          ],
          [
            8.342888,
            47.351045,
            387.0
          ],
          [
            8.342869,
            47.351063,
            387.0
          ],
          [
            8.342852,
            47.351106,
            387.0
          ],
          [
            8.342834,
            47.351088,
            387.0
          ],
          [
            8.342807,
            47.35107,
            387.0
          ],
          [
            8.342591,
            47.350917,
            387.0
          ],
          [
            8.342628,
            47.350893,
            387.0
          ],
          [
            8.342628,
            47.350893,
            387.0
          ],
          [
            8.342591,
            47.350917,
            387.0
          ],
          [
            8.342268,
            47.351106,
            385.0
          ],
          [
            8.342215,
            47.351125,
            385.0
          ],
          [
            8.342215,
            47.351125,
            385.0
          ],
          [
            8.342268,
            47.351106,
            385.0
          ],
          [
            8.342483,
            47.351252,
            385.0
          ],
          [
            8.342654,
            47.351368,
            385.0
          ],
          [
            8.342834,
            47.351155,
            386.0
          ],
          [
            8.342852,
            47.351106,
            387.0
          ],
          [
            8.342869,
            47.351063,
            387.0
          ],
          [
            8.342888,
            47.351045,
            387.0
          ],
          [
            8.343104,
            47.350759,
            388.0
          ],
          [
            8.343085,
            47.350692,
            389.0
          ],
          [
            8.343022,
            47.350625,
            389.0
          ],
          [
            8.34313,
            47.350552,
            390.0
          ],
          [
            8.343202,
            47.350522,
            390.0
          ],
          [
            8.343202,
            47.350412,
            387.0
          ],
          [
            8.343228,
            47.350376,
            386.0
          ],
          [
            8.343301,
            47.350321,
            383.0
          ],
          [
            8.343364,
            47.350254,
            381.0
          ],
          [
            8.343381,
            47.350193,
            379.0
          ],
          [
            8.343381,
            47.350059,
            374.0
          ],
          [
            8.343364,
            47.349992,
            372.0
          ],
          [
            8.343301,
            47.350005,
            372.0
          ],
          [
            8.343157,
            47.350065,
            372.0
          ],
          [
            8.343014,
            47.350132,
            371.0
          ],
          [
            8.342897,
            47.350163,
            371.0
          ],
          [
            8.342717,
            47.350187,
            371.0
          ],
          [
            8.342358,
            47.350314,
            370.0
          ],
          [
            8.342312,
            47.350314,
            370.0
          ],
          [
            8.342276,
            47.350308,
            370.0
          ],
          [
            8.34216,
            47.350327,
            370.0
          ],
          [
            8.342025,
            47.350382,
            370.0
          ],
          [
            8.341827,
            47.350437,
            370.0
          ],
          [
            8.341496,
            47.350492,
            370.0
          ],
          [
            8.34137,
            47.350516,
            370.0
          ],
          [
            8.341136,
            47.35054,
            370.0
          ],
          [
            8.340903,
            47.350559,
            370.0
          ],
          [
            8.340534,
            47.350589,
            370.0
          ],
          [
            8.340454,
            47.350607,
            370.0
          ],
          [
            8.340444,
            47.350589,
            370.0
          ],
          [
            8.340408,
            47.350479,
            370.0
          ],
          [
            8.340391,
            47.35043,
            370.0
          ],
          [
            8.340301,
            47.350096,
            370.0
          ],
          [
            8.340211,
            47.349718,
            370.0
          ],
          [
            8.340165,
            47.349578,
            370.0
          ],
          [
            8.340129,
            47.349511,
            370.0
          ],
          [
            8.340067,
            47.349426,
            370.0
          ],
          [
            8.339689,
            47.349103,
            370.0
          ],
          [
            8.339626,
            47.349067,
            370.0
          ],
          [
            8.339582,
            47.349049,
            370.0
          ],
          [
            8.339609,
            47.349024,
            370.0
          ],
          [
            8.339618,
            47.349,
            371.0
          ],
          [
            8.339618,
            47.34897,
            371.0
          ],
          [
            8.339599,
            47.348945,
            371.0
          ],
          [
            8.339565,
            47.348921,
            371.0
          ],
          [
            8.339528,
            47.348909,
            371.0
          ],
          [
            8.339536,
            47.348878,
            371.0
          ],
          [
            8.339546,
            47.348842,
            371.0
          ],
          [
            8.339475,
            47.348805,
            373.0
          ],
          [
            8.339267,
            47.348641,
            377.0
          ],
          [
            8.339232,
            47.348629,
            377.0
          ],
          [
            8.339205,
            47.348593,
            378.0
          ],
          [
            8.339142,
            47.348568,
            379.0
          ],
          [
            8.339079,
            47.348562,
            379.0
          ],
          [
            8.33898,
            47.348568,
            381.0
          ],
          [
            8.338909,
            47.348556,
            382.0
          ],
          [
            8.338863,
            47.348531,
            383.0
          ],
          [
            8.338773,
            47.348476,
            386.0
          ],
          [
            8.338674,
            47.348416,
            389.0
          ],
          [
            8.338603,
            47.348355,
            390.0
          ],
          [
            8.338567,
            47.3483,
            390.0
          ],
          [
            8.338531,
            47.348282,
            390.0
          ],
          [
            8.338467,
            47.348245,
            391.0
          ],
          [
            8.338387,
            47.348221,
            391.0
          ],
          [
            8.33801,
            47.348136,
            392.0
          ],
          [
            8.337615,
            47.348045,
            393.0
          ],
          [
            8.337425,
            47.348033,
            393.0
          ],
          [
            8.337362,
            47.348002,
            394.0
          ],
          [
            8.337328,
            47.347917,
            394.0
          ],
          [
            8.337336,
            47.347819,
            394.0
          ],
          [
            8.337265,
            47.347801,
            394.0
          ],
          [
            8.337121,
            47.34774,
            393.0
          ],
          [
            8.337112,
            47.347679,
            394.0
          ],
          [
            8.337022,
            47.34757,
            394.0
          ],
          [
            8.336886,
            47.347406,
            395.0
          ],
          [
            8.33677,
            47.347284,
            395.0
          ],
          [
            8.336609,
            47.347113,
            396.0
          ],
          [
            8.336294,
            47.346779,
            397.0
          ],
          [
            8.336007,
            47.346584,
            398.0
          ],
          [
            8.335783,
            47.346444,
            399.0
          ],
          [
            8.334991,
            47.346018,
            400.0
          ],
          [
            8.334767,
            47.345884,
            400.0
          ],
          [
            8.335001,
            47.345683,
            400.0
          ],
          [
            8.335575,
            47.345178,
            400.0
          ],
          [
            8.335593,
            47.345153,
            400.0
          ],
          [
            8.335611,
            47.345141,
            400.0
          ],
          [
            8.335674,
            47.345086,
            400.0
          ],
          [
            8.335315,
            47.34502,
            401.0
          ],
          [
            8.334695,
            47.344971,
            401.0
          ],
          [
            8.334102,
            47.344965,
            402.0
          ],
          [
            8.333689,
            47.345001,
            403.0
          ],
          [
            8.33333,
            47.345056,
            403.0
          ],
          [
            8.333043,
            47.345117,
            404.0
          ],
          [
            8.332601,
            47.345232,
            404.0
          ],
          [
            8.331991,
            47.345464,
            406.0
          ],
          [
            8.331856,
            47.345537,
            406.0
          ],
          [
            8.331686,
            47.345634,
            406.0
          ],
          [
            8.331443,
            47.345853,
            407.0
          ],
          [
            8.33129,
            47.345993,
            407.0
          ],
          [
            8.331129,
            47.346146,
            407.0
          ],
          [
            8.330904,
            47.346444,
            408.0
          ],
          [
            8.33076,
            47.346626,
            409.0
          ],
          [
            8.330509,
            47.346943,
            409.0
          ],
          [
            8.330293,
            47.347241,
            410.0
          ],
          [
            8.330024,
            47.347479,
            414.0
          ],
          [
            8.329907,
            47.347375,
            416.0
          ],
          [
            8.329799,
            47.347253,
            417.0
          ],
          [
            8.329475,
            47.347168,
            420.0
          ],
          [
            8.329251,
            47.347156,
            423.0
          ],
          [
            8.329018,
            47.34718,
            426.0
          ],
          [
            8.328667,
            47.347265,
            430.0
          ],
          [
            8.328003,
            47.347412,
            440.0
          ],
          [
            8.327517,
            47.347448,
            440.0
          ],
          [
            8.327194,
            47.347461,
            440.0
          ],
          [
            8.327104,
            47.347473,
            440.0
          ],
          [
            8.326808,
            47.347503,
            440.0
          ],
          [
            8.326466,
            47.347594,
            440.0
          ],
          [
            8.326368,
            47.347625,
            440.0
          ],
          [
            8.325982,
            47.347777,
            440.0
          ],
          [
            8.32581,
            47.347856,
            440.0
          ],
          [
            8.325424,
            47.347984,
            440.0
          ],
          [
            8.32467,
            47.348215,
            440.0
          ],
          [
            8.324535,
            47.348245,
            440.0
          ],
          [
            8.324472,
            47.348264,
            440.0
          ],
          [
            8.324391,
            47.348276,
            440.0
          ],
          [
            8.324284,
            47.348282,
            440.0
          ],
          [
            8.324158,
            47.348276,
            440.0
          ],
          [
            8.323709,
            47.348203,
            440.0
          ],
          [
            8.323179,
            47.348063,
            440.0
          ],
          [
            8.322946,
            47.347789,
            440.0
          ],
          [
            8.322819,
            47.347649,
            440.0
          ],
          [
            8.322693,
            47.347527,
            440.0
          ],
          [
            8.322594,
            47.347467,
            440.0
          ],
          [
            8.322451,
            47.347418,
            440.0
          ],
          [
            8.322263,
            47.347351,
            440.0
          ],
          [
            8.322028,
            47.347284,
            440.0
          ],
          [
            8.32193,
            47.347229,
            440.0
          ],
          [
            8.321849,
            47.347186,
            440.0
          ],
          [
            8.321391,
            47.347113,
            440.0
          ],
          [
            8.321032,
            47.347095,
            440.0
          ],
          [
            8.320852,
            47.347095,
            440.0
          ],
          [
            8.320753,
            47.347101,
            440.0
          ],
          [
            8.320619,
            47.347052,
            440.0
          ],
          [
            8.320412,
            47.347065,
            440.0
          ],
          [
            8.320232,
            47.347125,
            442.0
          ],
          [
            8.31998,
            47.347235,
            444.0
          ],
          [
            8.31963,
            47.34743,
            448.0
          ],
          [
            8.319441,
            47.347509,
            450.0
          ],
          [
            8.319145,
            47.347582,
            452.0
          ],
          [
            8.318875,
            47.347619,
            454.0
          ],
          [
            8.318103,
            47.347606,
            459.0
          ],
          [
            8.317825,
            47.347612,
            460.0
          ],
          [
            8.31708,
            47.347716,
            457.0
          ],
          [
            8.316881,
            47.347789,
            456.0
          ],
          [
            8.316638,
            47.347837,
            454.0
          ],
          [
            8.316369,
            47.347917,
            453.0
          ],
          [
            8.316172,
            47.347886,
            451.0
          ],
          [
            8.316038,
            47.347886,
            451.0
          ],
          [
            8.315929,
            47.347886,
            450.0
          ],
          [
            8.315822,
            47.347843,
            450.0
          ],
          [
            8.315606,
            47.347698,
            450.0
          ],
          [
            8.315417,
            47.347619,
            450.0
          ],
          [
            8.315229,
            47.347521,
            450.0
          ],
          [
            8.314843,
            47.347388,
            450.0
          ],
          [
            8.314617,
            47.347327,
            450.0
          ],
          [
            8.314078,
            47.347137,
            450.0
          ],
          [
            8.313602,
            47.346943,
            450.0
          ],
          [
            8.313387,
            47.346864,
            450.0
          ],
          [
            8.313028,
            47.346882,
            450.0
          ],
          [
            8.312623,
            47.346973,
            450.0
          ],
          [
            8.312426,
            47.346687,
            450.0
          ],
          [
            8.312229,
            47.346438,
            450.0
          ],
          [
            8.312003,
            47.346128,
            450.0
          ],
          [
            8.311833,
            47.345914,
            450.0
          ],
          [
            8.311635,
            47.345665,
            450.0
          ],
          [
            8.311438,
            47.345318,
            450.0
          ],
          [
            8.311365,
            47.345007,
            451.0
          ],
          [
            8.311393,
            47.344727,
            452.0
          ],
          [
            8.311491,
            47.344429,
            452.0
          ],
          [
            8.31151,
            47.344368,
            452.0
          ],
          [
            8.31159,
            47.344131,
            453.0
          ],
          [
            8.311635,
            47.343948,
            453.0
          ],
          [
            8.31169,
            47.343826,
            454.0
          ],
          [
            8.31177,
            47.343741,
            454.0
          ],
          [
            8.31186,
            47.343668,
            454.0
          ],
          [
            8.31212,
            47.343528,
            454.0
          ],
          [
            8.312317,
            47.343425,
            455.0
          ],
          [
            8.312642,
            47.343248,
            455.0
          ],
          [
            8.312866,
            47.343145,
            456.0
          ],
          [
            8.313162,
            47.342987,
            456.0
          ],
          [
            8.313252,
            47.342908,
            457.0
          ],
          [
            8.313315,
            47.342938,
            457.0
          ],
          [
            8.313459,
            47.342993,
            457.0
          ],
          [
            8.313567,
            47.342968,
            457.0
          ],
          [
            8.313719,
            47.342926,
            457.0
          ],
          [
            8.313908,
            47.342883,
            458.0
          ],
          [
            8.313961,
            47.342865,
            458.0
          ],
          [
            8.314277,
            47.342792,
            458.0
          ],
          [
            8.314609,
            47.342712,
            459.0
          ],
          [
            8.314816,
            47.342645,
            459.0
          ],
          [
            8.315147,
            47.342572,
            459.0
          ],
          [
            8.315659,
            47.342469,
            460.0
          ],
          [
            8.315382,
            47.342408,
            461.0
          ],
          [
            8.315004,
            47.342287,
            463.0
          ],
          [
            8.314923,
            47.34225,
            463.0
          ],
          [
            8.314833,
            47.342183,
            463.0
          ],
          [
            8.314627,
            47.341988,
            465.0
          ],
          [
            8.314141,
            47.341544,
            467.0
          ],
          [
            8.314097,
            47.341458,
            468.0
          ],
          [
            8.314097,
            47.341434,
            468.0
          ],
          [
            8.313971,
            47.341185,
            469.0
          ],
          [
            8.313872,
            47.341063,
            470.0
          ],
          [
            8.313764,
            47.340984,
            470.0
          ],
          [
            8.313764,
            47.340984,
            470.0
          ],
          [
            8.313764,
            47.340984,
            470.0
          ],
          [
            8.313648,
            47.340929,
            470.0
          ],
          [
            8.313145,
            47.34074,
            470.0
          ],
          [
            8.313009,
            47.340643,
            470.0
          ],
          [
            8.312919,
            47.340539,
            470.0
          ],
          [
            8.312812,
            47.340333,
            470.0
          ],
          [
            8.31274,
            47.340156,
            470.0
          ],
          [
            8.31265,
            47.339931,
            470.0
          ],
          [
            8.312453,
            47.339462,
            469.0
          ],
          [
            8.312407,
            47.33931,
            469.0
          ],
          [
            8.312345,
            47.339218,
            468.0
          ],
          [
            8.312193,
            47.339066,
            468.0
          ],
          [
            8.31204,
            47.338994,
            467.0
          ],
          [
            8.311904,
            47.338945,
            467.0
          ],
          [
            8.311743,
            47.338896,
            467.0
          ],
          [
            8.311365,
            47.338731,
            466.0
          ],
          [
            8.311124,
            47.338579,
            465.0
          ],
          [
            8.311061,
            47.338543,
            465.0
          ],
          [
            8.310935,
            47.338427,
            465.0
          ],
          [
            8.310827,
            47.338342,
            464.0
          ],
          [
            8.310701,
            47.338379,
            464.0
          ],
          [
            8.310476,
            47.338464,
            464.0
          ],
          [
            8.310296,
            47.338476,
            463.0
          ],
          [
            8.309937,
            47.338445,
            463.0
          ],
          [
            8.309856,
            47.338458,
            463.0
          ],
          [
            8.309416,
            47.338579,
            462.0
          ],
          [
            8.309066,
            47.338658,
            461.0
          ],
          [
            8.309013,
            47.338664,
            461.0
          ],
          [
            8.308914,
            47.33861,
            461.0
          ],
          [
            8.308824,
            47.33864,
            460.0
          ],
          [
            8.307943,
            47.339024,
            460.0
          ],
          [
            8.307583,
            47.339218,
            460.0
          ],
          [
            8.307287,
            47.339413,
            460.0
          ],
          [
            8.307126,
            47.339511,
            460.0
          ],
          [
            8.307053,
            47.339523,
            460.0
          ],
          [
            8.307,
            47.339517,
            460.0
          ],
          [
            8.306956,
            47.339511,
            460.0
          ],
          [
            8.306927,
            47.339517,
            460.0
          ],
          [
            8.306839,
            47.339578,
            460.0
          ],
          [
            8.306614,
            47.339718,
            460.0
          ],
          [
            8.306371,
            47.339833,
            460.0
          ],
          [
            8.306137,
            47.339943,
            460.0
          ],
          [
            8.306038,
            47.339973,
            460.0
          ],
          [
            8.306011,
            47.339985,
            460.0
          ],
          [
            8.305948,
            47.339955,
            460.0
          ],
          [
            8.305329,
            47.340369,
            460.0
          ],
          [
            8.304629,
            47.340807,
            460.0
          ],
          [
            8.304206,
            47.341069,
            460.0
          ],
          [
            8.304143,
            47.341112,
            460.0
          ],
          [
            8.303604,
            47.34144,
            460.0
          ],
          [
            8.303388,
            47.341605,
            460.0
          ],
          [
            8.302787,
            47.342153,
            460.0
          ],
          [
            8.302508,
            47.34239,
            460.0
          ],
          [
            8.302428,
            47.342433,
            460.0
          ],
          [
            8.302346,
            47.342469,
            460.0
          ],
          [
            8.302042,
            47.342554,
            460.0
          ],
          [
            8.301897,
            47.342591,
            460.0
          ],
          [
            8.301799,
            47.342639,
            460.0
          ],
          [
            8.301592,
            47.342822,
            460.0
          ],
          [
            8.301061,
            47.343133,
            460.0
          ],
          [
            8.30091,
            47.34323,
            460.0
          ],
          [
            8.30082,
            47.343272,
            460.0
          ],
          [
            8.300711,
            47.343315,
            460.0
          ],
          [
            8.299516,
            47.343753,
            460.0
          ],
          [
            8.298205,
            47.344192,
            460.0
          ],
          [
            8.296579,
            47.344678,
            460.0
          ],
          [
            8.296237,
            47.34477,
            460.0
          ],
          [
            8.295914,
            47.344855,
            460.0
          ],
          [
            8.295753,
            47.344862,
            460.0
          ],
          [
            8.295394,
            47.344813,
            460.0
          ],
          [
            8.295348,
            47.344813,
            460.0
          ],
          [
            8.295106,
            47.344807,
            460.0
          ],
          [
            8.294648,
            47.344886,
            460.0
          ],
          [
            8.2941,
            47.344953,
            460.0
          ],
          [
            8.293597,
            47.345056,
            460.0
          ],
          [
            8.292878,
            47.345269,
            460.0
          ],
          [
            8.292178,
            47.345482,
            458.0
          ],
          [
            8.2911,
            47.345932,
            455.0
          ],
          [
            8.29101,
            47.345969,
            455.0
          ],
          [
            8.290974,
            47.345981,
            455.0
          ],
          [
            8.290956,
            47.345969,
            455.0
          ],
          [
            8.290937,
            47.345957,
            455.0
          ],
          [
            8.290911,
            47.345957,
            455.0
          ],
          [
            8.290884,
            47.345957,
            455.0
          ],
          [
            8.290866,
            47.345957,
            455.0
          ],
          [
            8.290839,
            47.345969,
            455.0
          ],
          [
            8.29083,
            47.345981,
            455.0
          ],
          [
            8.290813,
            47.345993,
            455.0
          ],
          [
            8.290813,
            47.346012,
            454.0
          ],
          [
            8.290767,
            47.346018,
            454.0
          ],
          [
            8.290731,
            47.346024,
            454.0
          ],
          [
            8.290687,
            47.346036,
            454.0
          ],
          [
            8.290274,
            47.346249,
            453.0
          ],
          [
            8.29004,
            47.346359,
            452.0
          ],
          [
            8.289779,
            47.346462,
            451.0
          ],
          [
            8.289295,
            47.346694,
            450.0
          ],
          [
            8.289042,
            47.34684,
            450.0
          ],
          [
            8.288926,
            47.3469,
            450.0
          ],
          [
            8.288656,
            47.347065,
            450.0
          ],
          [
            8.288234,
            47.346779,
            443.0
          ],
          [
            8.288136,
            47.3467,
            442.0
          ],
          [
            8.288037,
            47.346694,
            441.0
          ],
          [
            8.287884,
            47.346687,
            440.0
          ],
          [
            8.287784,
            47.346712,
            439.0
          ],
          [
            8.287731,
            47.346736,
            439.0
          ],
          [
            8.287641,
            47.346761,
            438.0
          ],
          [
            8.287291,
            47.34684,
            437.0
          ],
          [
            8.286635,
            47.346931,
            433.0
          ],
          [
            8.286455,
            47.346943,
            432.0
          ],
          [
            8.286402,
            47.346943,
            432.0
          ],
          [
            8.286329,
            47.346943,
            432.0
          ],
          [
            8.286329,
            47.346882,
            431.0
          ],
          [
            8.286375,
            47.34684,
            431.0
          ],
          [
            8.286293,
            47.346834,
            431.0
          ],
          [
            8.285746,
            47.346834,
            428.0
          ],
          [
            8.285602,
            47.346821,
            427.0
          ],
          [
            8.28527,
            47.346785,
            426.0
          ],
          [
            8.284937,
            47.346742,
            424.0
          ],
          [
            8.284389,
            47.346651,
            422.0
          ],
          [
            8.284084,
            47.346571,
            420.0
          ],
          [
            8.284075,
            47.346565,
            420.0
          ],
          [
            8.284039,
            47.346553,
            420.0
          ],
          [
            8.283994,
            47.346535,
            420.0
          ],
          [
            8.283976,
            47.346529,
            420.0
          ],
          [
            8.283167,
            47.346243,
            420.0
          ],
          [
            8.283167,
            47.346182,
            420.0
          ],
          [
            8.283096,
            47.346152,
            420.0
          ],
          [
            8.282987,
            47.346103,
            420.0
          ],
          [
            8.282961,
            47.346146,
            420.0
          ],
          [
            8.282907,
            47.346219,
            420.0
          ],
          [
            8.2828,
            47.346328,
            420.0
          ],
          [
            8.282691,
            47.346377,
            420.0
          ],
          [
            8.282601,
            47.346401,
            420.0
          ],
          [
            8.282431,
            47.34659,
            420.0
          ],
          [
            8.282054,
            47.346882,
            420.0
          ],
          [
            8.281802,
            47.347046,
            420.0
          ],
          [
            8.281542,
            47.347186,
            420.0
          ],
          [
            8.281281,
            47.347296,
            420.0
          ],
          [
            8.280939,
            47.347424,
            420.0
          ],
          [
            8.280599,
            47.347527,
            420.0
          ],
          [
            8.280186,
            47.347606,
            420.0
          ],
          [
            8.280087,
            47.347612,
            420.0
          ],
          [
            8.27962,
            47.347661,
            420.0
          ],
          [
            8.279368,
            47.347673,
            420.0
          ],
          [
            8.277068,
            47.347655,
            420.0
          ],
          [
            8.276987,
            47.347655,
            420.0
          ],
          [
            8.27697,
            47.347515,
            420.0
          ],
          [
            8.276942,
            47.347375,
            420.0
          ],
          [
            8.276888,
            47.347381,
            420.0
          ],
          [
            8.276861,
            47.347381,
            420.0
          ],
          [
            8.276314,
            47.347448,
            420.0
          ],
          [
            8.276125,
            47.347491,
            420.0
          ],
          [
            8.275783,
            47.3476,
            420.0
          ],
          [
            8.275693,
            47.347643,
            420.0
          ],
          [
            8.275568,
            47.34771,
            420.0
          ],
          [
            8.275442,
            47.347783,
            420.0
          ],
          [
            8.275299,
            47.34788,
            420.0
          ],
          [
            8.275236,
            47.347941,
            420.0
          ],
          [
            8.27511,
            47.348081,
            420.0
          ],
          [
            8.275037,
            47.348221,
            420.0
          ],
          [
            8.275037,
            47.348221,
            420.0
          ],
          [
            8.275037,
            47.348227,
            420.0
          ],
          [
            8.274966,
            47.348403,
            420.0
          ],
          [
            8.274939,
            47.34855,
            420.0
          ],
          [
            8.274886,
            47.348666,
            420.0
          ],
          [
            8.27476,
            47.348775,
            420.0
          ],
          [
            8.274679,
            47.348836,
            420.0
          ],
          [
            8.274148,
            47.349116,
            420.0
          ],
          [
            8.273852,
            47.349293,
            420.0
          ],
          [
            8.273844,
            47.349299,
            420.0
          ],
          [
            8.273754,
            47.349238,
            420.0
          ],
          [
            8.273726,
            47.34925,
            420.0
          ],
          [
            8.273681,
            47.349287,
            420.0
          ],
          [
            8.273691,
            47.349329,
            420.0
          ],
          [
            8.273637,
            47.349384,
            420.0
          ],
          [
            8.273465,
            47.349536,
            420.0
          ],
          [
            8.273385,
            47.349633,
            420.0
          ],
          [
            8.273242,
            47.349822,
            420.0
          ],
          [
            8.273196,
            47.349834,
            420.0
          ],
          [
            8.273215,
            47.34984,
            420.0
          ],
          [
            8.273242,
            47.349852,
            420.0
          ],
          [
            8.273178,
            47.349919,
            420.0
          ],
          [
            8.272945,
            47.349791,
            420.0
          ],
          [
            8.272828,
            47.34973,
            420.0
          ],
          [
            8.272622,
            47.349615,
            420.0
          ],
          [
            8.272406,
            47.349536,
            420.0
          ],
          [
            8.272263,
            47.349481,
            420.0
          ],
          [
            8.27193,
            47.349353,
            420.0
          ],
          [
            8.271247,
            47.349103,
            420.0
          ],
          [
            8.270897,
            47.348976,
            420.0
          ],
          [
            8.270762,
            47.348927,
            420.0
          ],
          [
            8.270591,
            47.348866,
            420.0
          ],
          [
            8.27025,
            47.348696,
            420.0
          ],
          [
            8.270186,
            47.348678,
            420.0
          ],
          [
            8.270115,
            47.348666,
            420.0
          ],
          [
            8.270106,
            47.348611,
            420.0
          ],
          [
            8.270115,
            47.348562,
            420.0
          ],
          [
            8.270115,
            47.348544,
            420.0
          ],
          [
            8.27016,
            47.348495,
            420.0
          ],
          [
            8.270223,
            47.348434,
            420.0
          ],
          [
            8.270339,
            47.348343,
            420.0
          ],
          [
            8.270429,
            47.348276,
            420.0
          ]
        ]
      }
    }
  ]
}