{
  "type": "FeatureCollection",
  "features": [
    {
      "type": "Feature",
      "properties": {},
      "geometry": {
        "type": "LineString",
        "coordinates": [
          [
            8.446571,
            47.27595,
            500.0
          ],
          [
            8.446607,
            47.275931,
            500.0
          ],
          [
            8.446634,
            47.275919,
            495.0
          ],
          [
            8.446607,
            47.275889,
            496.0
          ],
          [
            8.446544,
            47.275834,
            496.0
          ],
          [
            8.446239,
            47.27556,
            496.0
          ],
          [
            8.446023,
            47.275377,
            495.0
          ],
          [
            8.445969,
            47.275328,
            495.0
          ],
          [
            8.445799,
            47.275176,
            495.0
          ],
          [
            8.445736,
            47.2752,
            495.0
          ],
          [
            8.445655,
            47.275152,
            495.0
          ],
          [
            8.445539,
            47.275042,
            495.0
          ],
          [
            8.445439,
            47.27495,
            494.0
          ],
          [
            8.445223,
            47.274773,
            494.0
          ],
          [
            8.445116,
            47.274694,
            494.0
          ],
          [
            8.444864,
            47.274517,
            494.0
          ],
          [
            8.44455,
            47.274231,
            493.0
          ],
          [
            8.444442,
            47.274103,
            493.0
          ],
          [
            8.44438,
            47.274042,
            493.0
          ],
          [
            8.444334,
            47.274006,
            493.0
          ],
          [
            8.444235,
            47.273939,
            493.0
          ],
          [
            8.4442,
            47.273914,
            493.0
          ],
          [
            8.444164,
            47.273878,
            493.0
          ],
          [
            8.444137,
            47.273841,
            493.0
          ],
          [
            8.44411,
            47.273798,
            492.0
          ],
          [
            8.444083,
            47.273731,
            492.0
          ],
          [
            8.444065,
            47.273707,
            492.0
          ],
          [
            8.444038,
            47.273682,
            492.0
          ],
          [
            8.444011,
            47.273664,
            492.0
          ],
          [
            8.443975,
            47.27364,
            492.0
          ],
          [
            8.443904,
            47.273603,
            492.0
          ],
          [
            8.443858,
            47.273573,
            492.0
          ],
          [
            8.443814,
            47.273542,
            492.0
          ],
          [
            8.443742,
            47.273469,
            492.0
          ],
          [
            8.443661,
            47.273396,
            492.0
          ],
          [
            8.443302,
            47.273018,
            491.0
          ],
          [
            8.443068,
            47.272762,
            491.0
          ],
          [
            8.442879,
            47.27253,
            490.0
          ],
          [
            8.442772,
            47.272396,
            490.0
          ],
          [
            8.442717,
            47.272329,
            490.0
          ],
          [
            8.44269,
            47.272287,
            490.0
          ],
          [
            8.442654,
            47.272238,
            490.0
          ],
          [
            8.442636,
            47.272195,
            490.0
          ],
          [
            8.442619,
            47.272147,
            490.0
          ],
          [
            8.44261,
            47.272092,
            490.0
          ],
          [
            8.44261,
            47.272037,
            489.0
          ],
          [
            8.44261,
            47.271988,
            489.0
          ],
          [
            8.44261,
            47.271946,
            489.0
          ],
          [
            8.442619,
            47.271897,
            489.0
          ],
          [
            8.442627,
            47.271879,
            489.0
          ],
          [
            8.442619,
            47.27186,
            489.0
          ],
          [
            8.442619,
            47.271836,
            489.0
          ],
          [
            8.442592,
            47.271799,
            489.0
          ],
          [
            8.442556,
            47.271763,
            489.0
          ],
          [
            8.442493,
            47.271696,
            489.0
          ],
          [
            8.442457,
            47.27169,
            489.0
          ],
          [
            8.442421,
            47.271677,
            489.0
          ],
          [
            8.442394,
            47.271665,
            489.0
          ],
          [
            8.442376,
            47.271653,
            488.0
          ],
          [
            8.442349,
            47.271635,
            488.0
          ],
          [
            8.442313,
            47.271604,
            488.0
          ],
          [
            8.442286,
            47.271574,
            488.0
          ],
          [
            8.44226,
            47.271519,
            488.0
          ],
          [
            8.442017,
            47.271141,
            487.0
          ],
          [
            8.441881,
            47.270952,
            487.0
          ],
          [
            8.441684,
            47.270544,
            486.0
          ],
          [
            8.441531,
            47.270251,
            485.0
          ],
          [
            8.441405,
            47.270007,
            485.0
          ],
          [
            8.441271,
            47.269897,
            485.0
          ],
          [
            8.441172,
            47.269775,
            484.0
          ],
          [
            8.441046,
            47.269392,
            483.0
          ],
          [
            8.440929,
            47.268952,
            483.0
          ],
          [
            8.440831,
            47.268508,
            482.0
          ],
          [
            8.440732,
            47.267934,
            480.0
          ],
          [
            8.440705,
            47.267532,
            480.0
          ],
          [
            8.440696,
            47.267118,
            479.0
          ],
          [
            8.440715,
            47.266941,
            478.0
          ],
          [
            8.440723,
            47.266886,
            478.0
          ],
          [
            8.440741,
            47.266831,
            478.0
          ],
          [
            8.440759,
            47.266795,
            478.0
          ],
          [
            8.440839,
            47.266685,
            478.0
          ],
          [
            8.440868,
            47.266636,
            478.0
          ],
          [
            8.440885,
            47.266593,
            478.0
          ],
          [
            8.440894,
            47.266563,
            478.0
          ],
          [
            8.440894,
            47.266526,
            478.0
          ],
          [
            8.440894,
            47.266386,
            477.0
          ],
          [
            8.440346,
            47.266337,
            476.0
          ],
          [
            8.440157,
            47.266325,
            476.0
          ],
          [
            8.439816,
            47.266277,
            476.0
          ],
          [
            8.4396,
            47.266234,
            475.0
          ],
          [
            8.439447,
            47.266191,
            475.0
          ],
          [
            8.43934,
            47.266155,
            475.0
          ],
          [
            8.43917,
            47.266088,
            475.0
          ],
          [
            8.439097,
            47.266057,
            475.0
          ],
          [
            8.43899,
            47.266002,
            474.0
          ],
          [
            8.438927,
            47.265966,
            474.0
          ],
          [
            8.438864,
            47.265917,
            474.0
          ],
          [
            8.438782,
            47.26585,
            474.0
          ],
          [
            8.438694,
            47.265771,
            474.0
          ],
          [
            8.438504,
            47.265594,
            473.0
          ],
          [
            8.438549,
            47.265496,
            473.0
          ],
          [
            8.438594,
            47.265398,
            473.0
          ],
          [
            8.438927,
            47.264405,
            471.0
          ],
          [
            8.4389,
            47.264344,
            471.0
          ],
          [
            8.438828,
            47.264307,
            471.0
          ],
          [
            8.437489,
            47.26407,
            469.0
          ],
          [
            8.437354,
            47.264021,
            469.0
          ],
          [
            8.436761,
            47.263911,
            468.0
          ],
          [
            8.436726,
            47.263862,
            468.0
          ],
          [
            8.43661,
            47.263704,
            467.0
          ],
          [
            8.436581,
            47.263661,
            467.0
          ],
          [
            8.436564,
            47.263619,
            467.0
          ],
          [
            8.436564,
            47.263576,
            467.0
          ],
          [
            8.436564,
            47.263527,
            467.0
          ],
          [
            8.437157,
            47.262168,
            464.0
          ],
          [
            8.436726,
            47.262089,
            463.0
          ],
          [
            8.43661,
            47.262052,
            463.0
          ],
          [
            8.43652,
            47.261997,
            463.0
          ],
          [
            8.436465,
            47.261948,
            463.0
          ],
          [
            8.436438,
            47.261893,
            463.0
          ],
          [
            8.43642,
            47.261845,
            464.0
          ],
          [
            8.43643,
            47.261796,
            464.0
          ],
          [
            8.436438,
            47.261759,
            465.0
          ],
          [
            8.436457,
            47.261716,
            466.0
          ],
          [
            8.437426,
            47.260625,
            461.0
          ],
          [
            8.437453,
            47.260522,
            462.0
          ],
          [
            8.437552,
            47.260491,
            461.0
          ],
          [
            8.438262,
            47.260156,
            460.0
          ],
          [
            8.438217,
            47.26007,
            460.0
          ],
          [
            8.438208,
            47.259906,
            460.0
          ],
          [
            8.438208,
            47.259766,
            460.0
          ],
          [
            8.438181,
            47.259741,
            460.0
          ],
          [
            8.438154,
            47.259711,
            460.0
          ],
          [
            8.438514,
            47.259553,
            460.0
          ],
          [
            8.438604,
            47.259516,
            460.0
          ],
          [
            8.43907,
            47.259308,
            460.0
          ],
          [
            8.43881,
            47.259186,
            460.0
          ],
          [
            8.438604,
            47.259046,
            460.0
          ],
          [
            8.438468,
            47.258942,
            460.0
          ],
          [
            8.438334,
            47.258869,
            460.0
          ],
          [
            8.438208,
            47.258808,
            460.0
          ],
          [
            8.437885,
            47.258656,
            460.0
          ],
          [
            8.437669,
            47.258546,
            460.0
          ],
          [
            8.437534,
            47.258425,
            460.0
          ],
          [
            8.437507,
            47.25837,
            460.0
          ],
          [
            8.437444,
            47.258333,
            460.0
          ],
          [
            8.437166,
            47.258156,
            460.0
          ],
          [
            8.4366,
            47.257851,
            460.0
          ],
          [
            8.436078,
            47.257571,
            460.0
          ],
          [
            8.435926,
            47.257479,
            460.0
          ],
          [
            8.435602,
            47.257242,
            460.0
          ],
          [
            8.435298,
            47.256998,
            459.0
          ],
          [
            8.435028,
            47.256766,
            457.0
          ],
          [
            8.433339,
            47.255504,
            445.0
          ],
          [
            8.432585,
            47.254912,
            440.0
          ],
          [
            8.432558,
            47.254888,
            440.0
          ],
          [
            8.43253,
            47.254864,
            440.0
          ],
          [
            8.432522,
            47.254839,
            440.0
          ],
          [
            8.432512,
            47.254821,
            440.0
          ],
          [
            8.432512,
            47.254797,
            440.0
          ],
          [
            8.432512,
            47.254778,
            440.0
          ],
          [
            8.432522,
            47.254754,
            440.0
          ],
          [
            8.432549,
            47.254711,
            440.0
          ],
          [
            8.432585,
            47.254669,
            440.0
          ],
          [
            8.432719,
            47.254516,
            440.0
          ],
          [
            8.432799,
            47.254425,
            440.0
          ],
          [
            8.432872,
            47.254364,
            440.0
          ],
          [
            8.432952,
            47.254285,
            440.0
          ],
          [
            8.432522,
            47.25398,
            440.0
          ],
          [
            8.432162,
            47.253736,
            440.0
          ],
          [
            8.432162,
            47.253699,
            440.0
          ],
          [
            8.432683,
            47.253248,
            440.0
          ],
          [
            8.432575,
            47.253193,
            440.0
          ],
          [
            8.433285,
            47.25259,
            440.0
          ],
          [
            8.432144,
            47.25198,
            440.0
          ],
          [
            8.432109,
            47.251955,
            440.0
          ],
          [
            8.432082,
            47.251937,
            440.0
          ],
          [
            8.432073,
            47.251919,
            440.0
          ],
          [
            8.432054,
            47.251888,
            440.0
          ],
          [
            8.432036,
            47.251852,
            440.0
          ],
          [
            8.43201,
            47.251791,
            440.0
          ],
          [
            8.43183,
            47.251187,
            442.0
          ],
          [
            8.43174,
            47.250937,
            443.0
          ],
          [
            8.431696,
            47.250644,
            444.0
          ],
          [
            8.431767,
            47.25023,
            446.0
          ],
          [
            8.431803,
            47.250083,
            447.0
          ],
          [
            8.431757,
            47.249986,
            447.0
          ],
          [
            8.43165,
            47.249882,
            448.0
          ],
          [
            8.432019,
            47.249803,
            449.0
          ],
          [
            8.432172,
            47.249742,
            449.0
          ],
          [
            8.432333,
            47.249644,
            450.0
          ],
          [
            8.432638,
            47.249412,
            450.0
          ],
          [
            8.433088,
            47.248973,
            450.0
          ],
          [
            8.43351,
            47.248559,
            450.0
          ],
          [
            8.433958,
            47.24801,
            450.0
          ],
          [
            8.434291,
            47.24751,
            450.0
          ],
          [
            8.434497,
            47.247035,
            450.0
          ],
          [
            8.434579,
            47.246516,
            450.0
          ],
          [
            8.434489,
            47.246382,
            450.0
          ],
          [
            8.434453,
            47.246308,
            450.0
          ],
          [
            8.434436,
            47.24626,
            450.0
          ],
          [
            8.434426,
            47.246193,
            450.0
          ],
          [
            8.43448,
            47.24604,
            450.0
          ],
          [
            8.434507,
            47.245924,
            450.0
          ],
          [
            8.434552,
            47.245742,
            450.0
          ],
          [
            8.43466,
            47.245236,
            450.0
          ],
          [
            8.434677,
            47.24512,
            450.0
          ],
          [
            8.43466,
            47.245022,
            450.0
          ],
          [
            8.43465,
            47.244955,
            450.0
          ],
          [
            8.434623,
            47.244882,
            450.0
          ],
          [
            8.43457,
            47.244784,
            450.0
          ],
          [
            8.43404,
            47.243985,
            450.0
          ],
          [
            8.433968,
            47.2439,
            450.0
          ],
          [
            8.433887,
            47.243845,
            450.0
          ],
          [
            8.433797,
            47.24379,
            450.0
          ],
          [
            8.433618,
            47.243717,
            450.0
          ],
          [
            8.433833,
            47.243546,
            450.0
          ],
          [
            8.433878,
            47.243485,
            450.0
          ],
          [
            8.433904,
            47.243437,
            450.0
          ],
          [
            8.433914,
            47.243369,
            450.0
          ],
          [
            8.433904,
            47.243278,
            450.0
          ],
          [
            8.433807,
            47.242985,
            450.0
          ],
          [
            8.43378,
            47.242857,
            450.0
          ],
          [
            8.43378,
            47.242692,
            450.0
          ],
          [
            8.433797,
            47.24257,
            450.0
          ],
          [
            8.433824,
            47.242473,
            450.0
          ],
          [
            8.434048,
            47.242077,
            450.0
          ],
          [
            8.434094,
            47.241979,
            450.0
          ],
          [
            8.434111,
            47.241936,
            450.0
          ],
          [
            8.43412,
            47.241894,
            450.0
          ],
          [
            8.43412,
            47.241851,
            450.0
          ],
          [
            8.434094,
            47.241735,
            450.0
          ],
          [
            8.433923,
            47.24171,
            450.0
          ],
          [
            8.433788,
            47.241674,
            450.0
          ],
          [
            8.433618,
            47.241625,
            450.0
          ],
          [
            8.433402,
            47.241552,
            450.0
          ],
          [
            8.433178,
            47.241247,
            450.0
          ],
          [
            8.432952,
            47.240814,
            450.0
          ],
          [
            8.432908,
            47.240753,
            450.0
          ],
          [
            8.432845,
            47.240692,
            450.0
          ],
          [
            8.432675,
            47.240546,
            450.0
          ],
          [
            8.43191,
            47.239875,
            448.0
          ],
          [
            8.43147,
            47.239545,
            440.0
          ],
          [
            8.431381,
            47.239393,
            438.0
          ],
          [
            8.431308,
            47.239265,
            436.0
          ],
          [
            8.431273,
            47.239198,
            435.0
          ],
          [
            8.431228,
            47.239143,
            434.0
          ],
          [
            8.431157,
            47.23907,
            433.0
          ],
          [
            8.431048,
            47.23899,
            431.0
          ],
          [
            8.430941,
            47.238917,
            430.0
          ],
          [
            8.430815,
            47.238826,
            430.0
          ],
          [
            8.430752,
            47.238765,
            430.0
          ],
          [
            8.430715,
            47.238722,
            430.0
          ],
          [
            8.430698,
            47.238673,
            430.0
          ],
          [
            8.430698,
            47.238625,
            430.0
          ],
          [
            8.430742,
            47.238429,
            430.0
          ],
          [
            8.430752,
            47.238362,
            430.0
          ],
          [
            8.430734,
            47.238313,
            430.0
          ],
          [
            8.430715,
            47.238271,
            430.0
          ],
          [
            8.430635,
            47.23821,
            430.0
          ],
          [
            8.430302,
            47.237959,
            430.0
          ],
          [
            8.429673,
            47.23752,
            426.0
          ],
          [
            8.429583,
            47.237441,
            424.0
          ],
          [
            8.428803,
            47.236783,
            418.0
          ],
          [
            8.428254,
            47.236307,
            416.0
          ],
          [
            8.427878,
            47.235971,
            414.0
          ],
          [
            8.427715,
            47.23588,
            413.0
          ],
          [
            8.42705,
            47.23566,
            412.0
          ],
          [
            8.426646,
            47.235502,
            410.0
          ],
          [
            8.426557,
            47.235483,
            410.0
          ],
          [
            8.426484,
            47.235483,
            410.0
          ],
          [
            8.426467,
            47.235453,
            410.0
          ],
          [
            8.426449,
            47.235435,
            409.0
          ],
          [
            8.426413,
            47.235404,
            409.0
          ],
          [
            8.426341,
            47.235374,
            408.0
          ],
          [
            8.42627,
            47.235355,
            407.0
          ],
          [
            8.426054,
            47.235331,
            405.0
          ],
          [
            8.425973,
            47.235307,
            404.0
          ],
          [
            8.425918,
            47.235276,
            403.0
          ],
          [
            8.425874,
            47.235239,
            403.0
          ],
          [
            8.425838,
            47.235203,
            402.0
          ],
          [
            8.425802,
            47.235154,
            401.0
          ],
          [
            8.425784,
            47.235118,
            401.0
          ],
          [
            8.425775,
            47.235081,
            400.0
          ],
          [
            8.42583,
            47.234831,
            400.0
          ],
          [
            8.425901,
            47.234825,
            400.0
          ],
          [
            8.425973,
            47.234813,
            400.0
          ],
          [
            8.426107,
            47.23477,
            400.0
          ],
          [
            8.426341,
            47.234684,
            400.0
          ],
          [
            8.426467,
            47.234654,
            400.0
          ],
          [
            8.426547,
            47.234636,
            400.0
          ],
          [
            8.42662,
            47.234623,
            400.0
          ],
          [
            8.426782,
            47.234617,
            400.0
          ],
          [
            8.426817,
            47.234611,
            400.0
          ],
          [
            8.426943,
            47.234617,
            400.0
          ],
          [
            8.427042,
            47.234623,
            401.0
          ],
          [
            8.427149,
            47.234642,
            401.0
          ],
          [
            8.427186,
            47.234581,
            401.0
          ],
          [
            8.42732,
            47.234483,
            401.0
          ],
          [
            8.427392,
            47.234336,
            402.0
          ],
          [
            8.427698,
            47.233403,
            405.0
          ],
          [
            8.427868,
            47.232641,
            404.0
          ],
          [
            8.427949,
            47.232458,
            404.0
          ],
          [
            8.428578,
            47.230939,
            402.0
          ],
          [
            8.429,
            47.229719,
            400.0
          ],
          [
            8.42927,
            47.229353,
            400.0
          ],
          [
            8.430302,
            47.227962,
            400.0
          ],
          [
            8.430625,
            47.227529,
            400.0
          ],
          [
            8.430815,
            47.227346,
            400.0
          ],
          [
            8.43122,
            47.227188,
            400.0
          ],
          [
            8.431839,
            47.226974,
            400.0
          ],
          [
            8.432216,
            47.226809,
            400.0
          ],
          [
            8.432702,
            47.226309,
            400.0
          ],
          [
            8.433069,
            47.225845,
            400.0
          ],
          [
            8.433788,
            47.224991,
            400.0
          ],
          [
            8.434147,
            47.224693,
            400.0
          ],
          [
            8.434938,
            47.22421,
            400.0
          ],
          [
            8.435306,
            47.224015,
            400.0
          ],
          [
            8.435432,
            47.22385,
            400.0
          ],
          [
            8.435665,
            47.22335,
            400.0
          ],
          [
            8.435755,
            47.2231,
            400.0
          ],
          [
            8.435782,
            47.222917,
            400.0
          ],
          [
            8.435782,
            47.222765,
            401.0
          ],
          [
            8.435765,
            47.2226,
            403.0
          ],
          [
            8.435746,
            47.222386,
            405.0
          ],
          [
            8.435791,
            47.22224,
            407.0
          ],
          [
            8.435836,
            47.222191,
            408.0
          ],
          [
            8.435926,
            47.222051,
            410.0
          ],
          [
            8.436411,
            47.22199,
            410.0
          ],
          [
            8.437174,
            47.221855,
            411.0
          ],
          [
            8.437732,
            47.221752,
            414.0
          ],
          [
            8.438172,
            47.221678,
            416.0
          ],
          [
            8.438522,
            47.221629,
            418.0
          ],
          [
            8.439007,
            47.221568,
            421.0
          ],
          [
            8.439196,
            47.221477,
            423.0
          ],
          [
            8.439466,
            47.221154,
            427.0
          ],
          [
            8.439673,
            47.221044,
            429.0
          ],
          [
            8.439897,
            47.220952,
            430.0
          ],
          [
            8.440302,
            47.221007,
            430.0
          ],
          [
            8.440625,
            47.221025,
            431.0
          ],
          [
            8.440975,
            47.220958,
            431.0
          ],
          [
            8.441315,
            47.220849,
            431.0
          ],
          [
            8.441604,
            47.220727,
            432.0
          ],
          [
            8.442304,
            47.220233,
            432.0
          ],
          [
            8.443858,
            47.219134,
            434.0
          ],
          [
            8.444604,
            47.218567,
            435.0
          ],
          [
            8.446059,
            47.217505,
            437.0
          ],
          [
            8.446265,
            47.21731,
            434.0
          ],
          [
            8.447281,
            47.216455,
            430.0
          ],
          [
            8.447506,
            47.216254,
            430.0
          ],
          [
            8.447676,
            47.216144,
            430.0
          ],
          [
            8.448044,
            47.21598,
            430.0
          ],
          [
            8.448099,
            47.215925,
            430.0
          ],
          [
            8.448197,
            47.215894,
            430.0
          ],
          [
            8.448539,
            47.215614,
            430.0
          ],
          [
            8.448988,
            47.215156,
            430.0
          ],
          [
            8.449221,
            47.214888,
            430.0
          ],
          [
            8.449437,
            47.214686,
            430.0
          ],
          [
            8.449894,
            47.214375,
            429.0
          ],
          [
            8.45003,
            47.214265,
            429.0
          ],
          [
            8.45012,
            47.214168,
            429.0
          ],
          [
            8.450173,
            47.214082,
            429.0
          ],
          [
            8.450308,
            47.213777,
            428.0
          ],
          [
            8.450443,
            47.21352,
            428.0
          ],
          [
            8.450569,
            47.213313,
            428.0
          ],
          [
            8.450892,
            47.212874,
            428.0
          ],
          [
            8.450982,
            47.212758,
            426.0
          ],
          [
            8.451063,
            47.212648,
            425.0
          ],
          [
            8.450973,
            47.212599,
            424.0
          ],
          [
            8.450946,
            47.212575,
            424.0
          ],
          [
            8.450937,
            47.21255,
            424.0
          ],
          [
            8.450937,
            47.212496,
            424.0
          ],
          [
            8.450928,
            47.212367,
            424.0
          ],
          [
            8.45091,
            47.212294,
            424.0
          ],
          [
            8.450865,
            47.212227,
            424.0
          ],
          [
            8.450802,
            47.212148,
            424.0
          ],
          [
            8.450659,
            47.21194,
            423.0
          ],
          [
            8.45055,
            47.211849,
            423.0
          ],
          [
            8.450542,
            47.211782,
            424.0
          ],
          [
            8.450416,
            47.211477,
            425.0
          ],
          [
            8.450336,
            47.2113,
            425.0
          ],
          [
            8.45029,
            47.21119,
            426.0
          ],
          [
            8.449535,
            47.209432,
            431.0
          ],
          [
            8.449131,
            47.208535,
            432.0
          ],
          [
            8.448755,
            47.207663,
            433.0
          ],
          [
            8.447883,
            47.205624,
            436.0
          ],
          [
            8.447802,
            47.205435,
            436.0
          ],
          [
            8.44773,
            47.20527,
            436.0
          ],
          [
            8.447686,
            47.204977,
            437.0
          ],
          [
            8.447703,
            47.204672,
            437.0
          ],
          [
            8.447747,
            47.204031,
            438.0
          ],
          [
            8.447784,
            47.203445,
            439.0
          ],
          [
            8.446795,
            47.203421,
            440.0
          ],
          [
            8.445889,
            47.20339,
            440.0
          ],
          [
            8.445772,
            47.203384,
            440.0
          ],
          [
            8.445709,
            47.203323,
            440.0
          ],
          [
            8.445691,
            47.203219,
            440.0
          ],
          [
            8.445772,
            47.202926,
            440.0
          ],
          [
            8.445816,
            47.202633,
            440.0
          ],
          [
            8.445772,
            47.202292,
            440.0
          ],
          [
            8.445556,
            47.201828,
            440.0
          ],
          [
            8.445097,
            47.201413,
            438.0
          ],
          [
            8.444774,
            47.201242,
            437.0
          ],
          [
            8.444497,
            47.201029,
            436.0
          ],
          [
            8.444361,
            47.200876,
            435.0
          ],
          [
            8.444344,
            47.200693,
            434.0
          ],
          [
            8.444361,
            47.200516,
            433.0
          ],
          [
            8.444434,
            47.200278,
            432.0
          ],
          [
            8.444497,
            47.200065,
            431.0
          ],
          [
            8.444657,
            47.199271,
            429.0
          ],
          [
            8.444774,
            47.199136,
            429.0
          ],
          [
            8.445143,
            47.198575,
            428.0
          ],
          [
            8.445394,
            47.198245,
            428.0
          ],
          [
            8.445889,
            47.197671,
            427.0
          ],
          [
            8.446015,
            47.197586,
            426.0
          ],
          [
            8.446149,
            47.197549,
            426.0
          ],
          [
            8.446257,
            47.197555,
            426.0
          ],
          [
            8.446409,
            47.197623,
            426.0
          ],
          [
            8.446562,
            47.197665,
            426.0
          ],
          [
            8.446742,
            47.197671,
            426.0
          ],
          [
            8.446994,
            47.197629,
            425.0
          ],
          [
            8.44721,
            47.197586,
            425.0
          ],
          [
            8.44729,
            47.197555,
            425.0
          ],
          [
            8.447487,
            47.197403,
            425.0
          ],
          [
            8.447613,
            47.19733,
            424.0
          ],
          [
            8.44782,
            47.197269,
            424.0
          ],
          [
            8.447927,
            47.197201,
            424.0
          ],
          [
            8.448053,
            47.196994,
            424.0
          ],
          [
            8.448252,
            47.196774,
            423.0
          ],
          [
            8.448413,
            47.196628,
            423.0
          ],
          [
            8.448502,
            47.196512,
            423.0
          ],
          [
            8.448646,
            47.19642,
            423.0
          ],
          [
            8.448818,
            47.196323,
            423.0
          ],
          [
            8.448907,
            47.196237,
            422.0
          ],
          [
            8.450254,
            47.196457,
            427.0
          ],
          [
            8.450497,
            47.196176,
            427.0
          ],
          [
            8.450776,
            47.195969,
            427.0
          ],
          [
            8.451755,
            47.195371,
            426.0
          ],
          [
            8.452455,
            47.194705,
            425.0
          ],
          [
            8.452473,
            47.19462,
            425.0
          ],
          [
            8.452141,
            47.1944,
            424.0
          ],
          [
            8.452114,
            47.194351,
            424.0
          ],
          [
            8.452095,
            47.194315,
            424.0
          ],
          [
            8.452095,
            47.19426,
            424.0
          ],
          [
            8.452105,
            47.194205,
            424.0
          ],
          [
            8.452141,
            47.194156,
            424.0
          ],
          [
            8.452267,
            47.194058,
            424.0
          ],
          [
            8.452481,
            47.193918,
            424.0
          ],
          [
            8.452536,
            47.193826,
            424.0
          ],
          [
            8.452689,
            47.193686,
            423.0
          ],
          [
            8.452976,
            47.193362,
            423.0
          ],
          [
            8.45321,
            47.193118,
            423.0
          ],
          [
            8.453587,
            47.192672,
            422.0
          ],
          [
            8.453758,
            47.192373,
            422.0
          ],
          [
            8.454,
            47.191848,
            421.0
          ],
          [
            8.454009,
            47.191622,
            421.0
          ],
          [
            8.453938,
            47.191463,
            420.0
          ],
          [
            8.453875,
            47.19139,
            420.0
          ],
          [
            8.453839,
            47.191354,
            420.0
          ],
          [
            8.453776,
            47.191286,
            420.0
          ],
          [
            8.453632,
            47.190835,
            420.0
          ],
          [
            8.453596,
            47.190713,
            419.0
          ],
          [
            8.453596,
            47.190475,
            419.0
          ],
          [
            8.453659,
            47.190249,
            419.0
          ],
          [
            8.453524,
            47.190139,
            418.0
          ],
          [
            8.453479,
            47.189962,
            418.0
          ],
          [
            8.453462,
            47.189858,
            418.0
          ],
          [
            8.453479,
            47.189736,
            418.0
          ],
          [
            8.453552,
            47.189602,
            418.0
          ],
          [
            8.453552,
            47.189602,
            418.0
          ],
          [
            8.453579,
            47.189565,
            417.0
          ],
          [
            8.453676,
            47.189425,
            417.0
          ],
          [
            8.453839,
            47.189248,
            417.0
          ],
          [
            8.454099,
            47.189046,
            416.0
          ],
          [
            8.454252,
            47.188924,
            416.0
          ],
          [
            8.454315,
            47.18879,
            416.0
          ],
          [
            8.454315,
            47.188741,
            416.0
          ],
          [
            8.454269,
            47.188448,
            415.0
          ],
          [
            8.454216,
            47.188381,
            415.0
          ],
          [
            8.454189,
            47.188357,
            415.0
          ],
          [
            8.453883,
            47.188234,
            415.0
          ],
          [
            8.453839,
            47.188161,
            415.0
          ],
          [
            8.453785,
            47.188106,
            415.0
          ],
          [
            8.453695,
            47.18807,
            415.0
          ],
          [
            8.453686,
            47.188033,
            416.0
          ],
          [
            8.453929,
            47.187801,
            416.0
          ],
          [
            8.454594,
            47.187197,
            418.0
          ],
          [
            8.45533,
            47.18658,
            420.0
          ],
          [
            8.455518,
            47.186385,
            420.0
          ],
          [
            8.45603,
            47.185945,
            420.0
          ],
          [
            8.456102,
            47.185872,
            420.0
          ],
          [
            8.456147,
            47.185799,
            420.0
          ],
          [
            8.456192,
            47.185566,
            420.0
          ],
          [
            8.456174,
            47.18553,
            420.0
          ],
          [
            8.456229,
            47.185499,
            420.0
          ],
          [
            8.456273,
            47.185432,
            420.0
          ],
          [
            8.456642,
            47.184693,
            420.0
          ],
          [
            8.456668,
            47.184644,
            420.0
          ],
          [
            8.456686,
            47.18462,
            420.0
          ],
          [
            8.456739,
            47.184583,
            420.0
          ],
          [
            8.456812,
            47.184571,
            420.0
          ],
          [
            8.456929,
            47.184547,
            420.0
          ],
          [
            8.456974,
            47.184516,
            420.0
          ],
          [
            8.456992,
            47.184486,
            420.0
          ],
          [
            8.457018,
            47.184425,
            420.0
          ],
          [
            8.457144,
            47.184309,
            420.0
          ],
          [
            8.457198,
            47.18429,
            420.0
          ],
          [
            8.457216,
            47.18429,
            420.0
          ],
          [
            8.457368,
            47.184058,
            420.0
          ],
          [
            8.45754,
            47.183826,
            420.0
          ],
          [
            8.45771,
            47.183613,
            420.0
          ],
          [
            8.45771,
            47.183613,
            420.0
          ],
          [
            8.45772,
            47.183594,
            420.0
          ],
          [
            8.457934,
            47.183313,
            420.0
          ],
          [
            8.458034,
            47.183203,
            420.0
          ],
          [
            8.458321,
            47.18299,
            420.0
          ],
          [
            8.458483,
            47.182849,
            420.0
          ],
          [
            8.458869,
            47.182538,
            420.0
          ],
          [
            8.459156,
            47.182202,
            420.0
          ],
          [
            8.459192,
            47.182159,
            420.0
          ],
          [
            8.459238,
            47.182055,
            420.0
          ],
          [
            8.459282,
            47.181891,
            420.0
          ],
          [
            8.459273,
            47.181701,
            420.0
          ],
          [
            8.459569,
            47.181701,
            420.0
          ],
          [
            8.459597,
            47.181652,
            420.0
          ],
          [
            8.459642,
            47.181524,
            420.0
          ],
          [
            8.459741,
            47.181292,
            420.0
          ],
          [
            8.459804,
            47.181225,
            420.0
          ],
          [
            8.459911,
            47.181085,
            420.0
          ],
          [
            8.459965,
            47.18103,
            420.0
          ],
          [
            8.459974,
            47.181024,
            420.0
          ],
          [
            8.460001,
            47.180932,
            420.0
          ],
          [
            8.460045,
            47.180901,
            420.0
          ],
          [
            8.4601,
            47.180871,
            420.0
          ],
          [
            8.460145,
            47.180822,
            420.0
          ],
          [
            8.460163,
            47.180779,
            420.0
          ],
          [
            8.460145,
            47.180639,
            420.0
          ],
          [
            8.460108,
            47.180596,
            420.0
          ],
          [
            8.459965,
            47.18034,
            420.0
          ],
          [
            8.459938,
            47.180321,
            420.0
          ],
          [
            8.459938,
            47.180315,
            420.0
          ],
          [
            8.459938,
            47.180315,
            420.0
          ],
          [
            8.46001,
            47.180254,
            420.0
          ],
          [
            8.460045,
            47.180224,
            420.0
          ],
          [
            8.460064,
            47.180199,
            420.0
          ],
          [
            8.460198,
            47.180065,
            420.0
          ],
          [
            8.460252,
            47.180004,
            420.0
          ],
          [
            8.460334,
            47.179931,
            420.0
          ],
          [
            8.460387,
            47.179876,
            420.0
          ],
          [
            8.460441,
            47.179851,
            420.0
          ],
          [
            8.460558,
            47.179809,
            420.0
          ],
          [
            8.460684,
            47.179772,
            420.0
          ],
          [
            8.460737,
            47.17976,
            420.0
          ],
          [
            8.460737,
            47.17976,
            420.0
          ],
          [
            8.460684,
            47.179772,
            420.0
          ],
          [
            8.460558,
            47.179809,
            420.0
          ],
          [
            8.46054,
            47.179778,
            420.0
          ],
          [
            8.460657,
            47.179748,
            420.0
          ],
          [
            8.460791,
            47.179723,
            420.0
          ],
          [
            8.460971,
            47.179711,
            420.0
          ],
          [
            8.461116,
            47.179723,
            420.0
          ],
          [
            8.461232,
            47.179748,
            420.0
          ],
          [
            8.461313,
            47.179772,
            420.0
          ],
          [
            8.461403,
            47.179815,
            420.0
          ],
          [
            8.461663,
            47.179943,
            420.0
          ],
          [
            8.461716,
            47.179967,
            420.0
          ],
          [
            8.461879,
            47.180041,
            420.0
          ],
          [
            8.461986,
            47.179992,
            420.0
          ],
          [
            8.462112,
            47.179937,
            420.0
          ],
          [
            8.462372,
            47.179809,
            420.0
          ],
          [
            8.462408,
            47.179784,
            420.0
          ],
          [
            8.462426,
            47.179772,
            420.0
          ],
          [
            8.462471,
            47.179741,
            420.0
          ],
          [
            8.462758,
            47.179522,
            420.0
          ],
          [
            8.462831,
            47.179461,
            420.0
          ],
          [
            8.462768,
            47.17943,
            420.0
          ],
          [
            8.462768,
            47.17943,
            420.0
          ],
          [
            8.462624,
            47.179357,
            420.0
          ],
          [
            8.462544,
            47.179302,
            420.0
          ],
          [
            8.462471,
            47.179271,
            420.0
          ],
          [
            8.462445,
            47.179259,
            420.0
          ],
          [
            8.461978,
            47.179113,
            420.0
          ],
          [
            8.461915,
            47.179088,
            420.0
          ],
          [
            8.461959,
            47.178978,
            420.0
          ],
          [
            8.461968,
            47.178911,
            420.0
          ],
          [
            8.461932,
            47.178862,
            420.0
          ],
          [
            8.461779,
            47.178716,
            420.0
          ],
          [
            8.461743,
            47.178673,
            420.0
          ],
          [
            8.461699,
            47.178581,
            420.0
          ],
          [
            8.46169,
            47.178392,
            420.0
          ],
          [
            8.461681,
            47.178313,
            420.0
          ],
          [
            8.461636,
            47.178221,
            420.0
          ],
          [
            8.461555,
            47.178117,
            420.0
          ],
          [
            8.461483,
            47.178062,
            420.0
          ],
          [
            8.461366,
            47.177989,
            420.0
          ],
          [
            8.461223,
            47.177928,
            420.0
          ],
          [
            8.461034,
            47.177867,
            420.0
          ],
          [
            8.4609,
            47.177824,
            420.0
          ],
          [
            8.460791,
            47.177788,
            420.0
          ],
          [
            8.46063,
            47.177726,
            420.0
          ],
          [
            8.460468,
            47.177665,
            420.0
          ],
          [
            8.460307,
            47.177592,
            420.0
          ],
          [
            8.460135,
            47.177494,
            420.0
          ],
          [
            8.460064,
            47.177446,
            420.0
          ],
          [
            8.460001,
            47.177403,
            420.0
          ],
          [
            8.459911,
            47.177385,
            420.0
          ],
          [
            8.459795,
            47.17736,
            420.0
          ],
          [
            8.459632,
            47.177262,
            420.0
          ],
          [
            8.459479,
            47.177171,
            420.0
          ],
          [
            8.459381,
            47.177171,
            420.0
          ],
          [
            8.459273,
            47.177214,
            420.0
          ],
          [
            8.459192,
            47.177207,
            420.0
          ],
          [
            8.459121,
            47.177165,
            420.0
          ],
          [
            8.459093,
            47.177085,
            420.0
          ],
          [
            8.459049,
            47.177049,
            420.0
          ],
          [
            8.458959,
            47.177012,
            420.0
          ],
          [
            8.458752,
            47.176969,
            420.0
          ],
          [
            8.458636,
            47.177024,
            420.0
          ],
          [
            8.4586,
            47.177049,
            420.0
          ],
          [
            8.458537,
            47.17711,
            420.0
          ],
          [
            8.458474,
            47.177189,
            420.0
          ],
          [
            8.458393,
            47.177311,
            420.0
          ],
          [
            8.458321,
            47.177403,
            420.0
          ],
          [
            8.458313,
            47.177446,
            420.0
          ],
          [
            8.458321,
            47.177482,
            420.0
          ],
          [
            8.458339,
            47.177525,
            420.0
          ],
          [
            8.458402,
            47.177592,
            420.0
          ],
          [
            8.458402,
            47.17761,
            420.0
          ],
          [
            8.45833,
            47.177714,
            420.0
          ],
          [
            8.45824,
            47.177818,
            420.0
          ],
          [
            8.458114,
            47.177928,
            420.0
          ],
          [
            8.457953,
            47.178038,
            420.0
          ],
          [
            8.457871,
            47.178184,
            420.0
          ],
          [
            8.457602,
            47.178105,
            420.0
          ]
        ]
      }
    }
  ]
}